{"type":"Topology","objects":{"countries":{"type":"GeometryCollection","geometries":[{"id":"ZW","type":"Polygon","arcs":[[0]]},{"id":"ZM","type":"Polygon","arcs":[[1]]},{"id":"UG","type":"Polygon","arcs":[[2]]},{"id":"TN","type":"MultiPolygon","arcs":[[[3]],[[4]],[[5]]]},{"id":"TG","type":"Polygon","arcs":[[6]]},{"id":"TZ","type":"MultiPolygon","arcs":[[[7]],[[8]],[[9]],[[10]]]},{"id":"SZ","type":"Polygon","arcs":[[11]]},{"id":"SS","type":"Polygon","arcs":[[12]]},{"id":"SD","type":"Polygon","arcs":[[13]]},{"id":"ZA","type":"MultiPolygon","arcs":[[[14],[15]],[[16]]]},{"id":"SO","type":"Polygon","arcs":[[17]]},{"id":"SL","type":"MultiPolygon","arcs":[[[18]],[[19]]]},{"id":"SC","type":"Polygon","arcs":[[20]]},{"id":"SN","type":"Polygon","arcs":[[21]]},{"id":"ST","type":"MultiPolygon","arcs":[[[22]],[[23]]]},{"id":"RW","type":"Polygon","arcs":[[24]]},{"id":"NG","type":"MultiPolygon","arcs":[[[25]],[[26]]]},{"id":"NE","type":"Polygon","arcs":[[27]]},{"id":"NA","type":"Polygon","arcs":[[28]]},{"id":"MZ","type":"Polygon","arcs":[[29],[30],[31]]},{"id":"MA","type":"Polygon","arcs":[[32]]},{"id":"MU","type":"Polygon","arcs":[[33]]},{"id":"MR","type":"MultiPolygon","arcs":[[[34]],[[35]]]},{"id":"ML","type":"Polygon","arcs":[[36]]},{"id":"MW","type":"MultiPolygon","arcs":[[[37]],[[38]],[[39]]]},{"id":"MG","type":"MultiPolygon","arcs":[[[40]],[[41]],[[42]]]},{"id":"LY","type":"Polygon","arcs":[[43]]},{"id":"LR","type":"Polygon","arcs":[[44]]},{"id":"LS","type":"Polygon","arcs":[[45]]},{"id":"KE","type":"MultiPolygon","arcs":[[[46]],[[47]]]},{"id":"GW","type":"MultiPolygon","arcs":[[[48]],[[49]],[[50]],[[51]],[[52]],[[53]],[[54]]]},{"id":"GN","type":"Polygon","arcs":[[55]]},{"id":"GH","type":"Polygon","arcs":[[56]]},{"id":"GM","type":"Polygon","arcs":[[57]]},{"id":"GA","type":"Polygon","arcs":[[58]]},{"id":"ET","type":"Polygon","arcs":[[59]]},{"id":"ER","type":"MultiPolygon","arcs":[[[60]],[[61]],[[62]]]},{"id":"GQ","type":"MultiPolygon","arcs":[[[63]],[[64]]]},{"id":"EG","type":"Polygon","arcs":[[65]]},{"id":"DJ","type":"Polygon","arcs":[[66]]},{"id":"CI","type":"MultiPolygon","arcs":[[[67]],[[68]]]},{"id":"CD","type":"Polygon","arcs":[[69]]},{"id":"CG","type":"Polygon","arcs":[[70]]},{"id":"KM","type":"MultiPolygon","arcs":[[[71]],[[72]],[[73]]]},{"id":"TD","type":"Polygon","arcs":[[74]]},{"id":"CF","type":"Polygon","arcs":[[75]]},{"id":"CV","type":"MultiPolygon","arcs":[[[76]],[[77]],[[78]],[[79]],[[80]],[[81]],[[82]],[[83]]]},{"id":"CM","type":"Polygon","arcs":[[84]]},{"id":"BI","type":"Polygon","arcs":[[85]]},{"id":"BF","type":"Polygon","arcs":[[86]]},{"id":"BW","type":"Polygon","arcs":[[87]]},{"id":"BJ","type":"Polygon","arcs":[[88]]},{"id":"AO","type":"MultiPolygon","arcs":[[[89]],[[90]]]},{"id":"DZ","type":"Polygon","arcs":[[91]]}]}},"arcs":[[[637,746],[-1,-1],[-1,0],[-2,-1],[-2,1],[-3,0],[-2,-1],[-3,-1],[-3,0],[-3,0],[0,0],[0,0],[-1,-1],[-1,0],[-1,0],[0,-1],[0,0],[0,0],[0,-2],[0,0],[-1,0],[0,0],[-2,-1],[-2,-1],[-4,0],[-1,0],[-1,-1],[0,0],[-1,-2],[0,-1],[-2,-2],[0,0],[0,-1],[0,-1],[0,-1],[0,-1],[0,-1],[0,-1],[0,0],[-1,0],[-1,-1],[-2,0],[0,-1],[0,-1],[-1,-1],[0,-1],[-1,0],[-2,-1],[-2,-1],[-3,-1],[-2,-2],[-1,-1],[-1,-2],[-1,-3],[0,-1],[0,0],[-1,-2],[-1,-1],[0,0],[-2,-3],[-1,-1],[0,-1],[-1,-1],[0,0],[-1,-1],[0,-1],[0,0],[0,-1],[0,-1],[2,1],[1,0],[1,0],[1,0],[1,1],[2,0],[1,0],[2,0],[3,1],[2,0],[2,-1],[2,-2],[2,-3],[2,-2],[2,-3],[1,-1],[3,-2],[2,-1],[4,-1],[1,-1],[0,-2],[0,-1],[0,-2],[1,0],[0,0],[1,-1],[2,-1],[2,-1],[3,-1],[3,0],[2,0],[2,0],[0,2],[0,2],[0,0],[2,0],[3,0],[3,0],[2,2],[1,0],[2,0],[3,3],[3,0],[2,1],[2,0],[1,1],[0,1],[1,0],[1,0],[0,0],[-1,2],[0,1],[1,2],[0,2],[0,4],[0,3],[0,2],[0,0],[0,1],[0,0],[0,2],[-1,1],[0,1],[0,0],[0,1],[-1,0],[-1,1],[0,1],[1,0],[0,1],[1,0],[0,0],[0,1],[0,1],[-1,2],[1,1],[0,2],[1,1],[1,1],[-1,0],[0,1],[-1,3],[-1,1],[-1,2],[-1,1],[-1,0],[0,1],[0,1],[0,2],[-1,2],[1,1],[-1,1],[0,0],[-2,2],[-2,2],[-1,1],[-2,2],[-1,2],[-2,2],[-1,1]],[[628,672],[-2,0],[-2,0],[-3,0],[-3,1],[-2,1],[-2,1],[-1,1],[0,0],[-1,0],[0,2],[0,1],[0,2],[-1,1],[-4,1],[-2,1],[-3,2],[-1,1],[-2,3],[-2,2],[-2,3],[-2,2],[-2,1],[-2,0],[-3,-1],[-2,0],[-1,0],[-2,0],[-1,-1],[-1,0],[-1,0],[-1,0],[-2,-1],[-2,-1],[-1,-1],[0,0],[-2,-1],[-5,0],[-1,0],[-2,0],[-2,1],[-2,0],[-2,1],[-2,-2],[-3,-2],[-2,-2],[-2,-2],[-1,-1],[-1,-2],[-1,0],[-1,-1],[-1,-3],[-1,-3],[0,-3],[0,-3],[0,-4],[0,-3],[0,-3],[0,-4],[0,-3],[0,-4],[0,-3],[0,-2],[3,0],[2,0],[3,0],[3,0],[3,0],[3,0],[2,0],[1,0],[1,0],[0,0],[-1,-2],[0,0],[0,-2],[1,-1],[0,-1],[0,-1],[0,-2],[0,-1],[0,-2],[0,-1],[0,-1],[0,-1],[0,0],[0,-1],[1,0],[0,-1],[-1,0],[0,-2],[0,-2],[0,-1],[0,0],[1,0],[0,1],[0,1],[1,0],[1,0],[1,1],[0,1],[0,1],[0,0],[0,1],[1,0],[0,0],[2,-1],[1,0],[0,0],[1,-1],[2,0],[1,0],[1,0],[0,0],[1,0],[-1,1],[0,1],[1,1],[0,1],[1,0],[0,1],[1,0],[1,0],[2,1],[1,0],[1,1],[1,0],[2,0],[1,0],[2,0],[1,1],[1,-1],[1,0],[0,0],[0,0],[1,-1],[0,-2],[0,0],[1,0],[1,-1],[0,1],[0,2],[2,1],[1,2],[0,1],[1,0],[0,1],[2,0],[1,0],[2,1],[2,0],[1,1],[0,0],[1,1],[0,0],[0,2],[1,1],[0,0],[1,0],[1,1],[0,0],[1,2],[1,1],[0,1],[1,0],[1,0],[0,0],[1,0],[1,0],[1,-1],[1,0],[1,0],[0,0],[0,1],[0,1],[1,0],[0,0],[1,-1],[0,0],[0,-2],[0,-2],[0,-2],[0,-2],[0,-2],[0,-1],[0,-2],[-1,0],[-1,1],[-1,0],[0,0],[-1,1],[1,0],[0,1],[-1,0],[0,0],[-1,0],[-2,0],[-1,-1],[-1,-1],[-1,-1],[-1,-1],[-2,-1],[0,0],[-1,-1],[0,-1],[-1,-1],[0,-1],[0,-1],[0,-1],[1,-3],[0,-1],[1,-2],[1,-1],[0,-1],[-1,-2],[0,-1],[1,-2],[0,-2],[0,-1],[-1,-1],[0,-2],[-2,-3],[0,0],[1,-1],[1,-1],[1,0],[1,-1],[0,-1],[1,-1],[1,-1],[0,-1],[-1,-1],[1,0],[3,0],[2,-1],[3,0],[3,-1],[3,0],[3,-1],[1,0],[1,1],[0,1],[1,1],[1,1],[0,0],[1,0],[3,0],[1,1],[0,0],[1,1],[0,1],[1,1],[0,0],[1,-1],[0,0],[1,1],[0,0],[0,1],[1,0],[1,0],[0,0],[1,1],[1,0],[2,0],[0,1],[1,0],[2,1],[1,0],[1,1],[0,0],[0,1],[0,0],[0,0],[0,1],[1,0],[0,0],[1,0],[0,0],[0,0],[1,1],[0,0],[1,1],[0,0],[0,1],[0,1],[0,1],[2,1],[0,0],[0,2],[0,0],[1,1],[0,1],[0,0],[-2,2],[0,0],[-1,0],[-1,1],[0,0],[0,0],[0,1],[1,1],[0,1],[0,1],[-1,2],[0,0],[0,1],[0,0],[0,1],[1,1],[0,1],[0,1],[-1,2],[1,2],[0,0],[1,0],[1,0],[-1,1],[0,1],[0,0],[-2,1],[-2,0],[-1,1],[0,1],[0,1],[0,0],[0,1],[0,1],[0,1],[0,1],[0,0],[-1,1],[0,1],[0,1],[-1,0],[-1,1],[0,0],[1,0],[0,1],[0,0],[0,0],[0,0],[1,1],[0,0],[1,1],[0,1],[0,0],[0,0],[1,0],[0,0],[1,-1],[0,0],[1,1],[-3,1],[-1,0],[-3,1],[-3,1],[-1,0],[-1,1],[-1,0],[-3,1],[-1,1],[-1,0],[-2,1],[-2,0],[-2,1],[-2,1],[-2,0],[-1,0],[-2,1],[0,1],[0,0],[0,1],[1,2],[0,0],[1,2],[0,1]],[[664,520],[-1,0],[-2,0],[-2,0],[-2,0],[-2,0],[-2,0],[-1,0],[-2,0],[-2,0],[-2,0],[-2,0],[-1,0],[-2,0],[-2,0],[-2,0],[-2,0],[-2,0],[-1,0],[0,0],[0,0],[-1,0],[0,1],[-1,0],[-1,0],[0,0],[-1,0],[0,0],[-1,0],[0,0],[0,1],[-1,1],[-1,0],[0,1],[-1,1],[-1,0],[0,0],[-1,0],[0,-1],[0,-1],[-2,1],[-1,0],[0,0],[0,-3],[0,-1],[0,-1],[1,-1],[0,-1],[0,-2],[0,-1],[0,-3],[1,-1],[0,-1],[0,-1],[0,0],[1,-1],[0,-2],[1,0],[0,-2],[0,-1],[0,-1],[1,0],[2,-1],[0,-2],[1,0],[2,-1],[0,0],[4,-5],[3,-2],[1,-1],[0,-1],[0,0],[-1,-1],[0,0],[0,-1],[-1,0],[0,0],[-1,0],[0,-1],[0,0],[-2,0],[-1,0],[0,-1],[1,-2],[0,-1],[0,-1],[0,0],[0,-1],[0,0],[-1,0],[1,-2],[0,-1],[1,-1],[0,0],[0,-1],[-1,0],[1,-1],[0,-1],[1,-1],[1,0],[1,0],[2,0],[1,1],[1,0],[0,0],[2,-1],[1,0],[0,1],[1,1],[1,0],[0,0],[1,1],[0,0],[0,-1],[1,-1],[1,0],[2,-1],[1,0],[1,0],[1,0],[1,-1],[2,1],[2,0],[1,0],[1,0],[0,0],[2,-2],[2,-3],[2,4],[1,0],[0,0],[-1,1],[1,0],[2,1],[0,0],[0,1],[0,2],[0,0],[0,2],[1,1],[1,2],[1,1],[0,0],[1,1],[0,1],[0,0],[1,0],[0,1],[0,1],[0,2],[1,2],[0,2],[0,1],[0,0],[0,1],[-1,0],[0,1],[-1,0],[0,1],[0,1],[0,1],[0,0],[0,0],[-1,0],[-1,1],[0,0],[-1,0],[0,1],[-1,2],[-1,1],[0,1],[-2,1],[0,1],[0,1],[-1,1],[-1,1],[0,2],[0,4],[0,4],[0,2]],[[434,148],[0,1],[-1,2],[0,1],[0,1],[0,2],[1,1],[0,1],[0,1],[-2,1],[-2,1],[-1,1],[-2,1],[-1,1],[-1,0],[0,1],[0,0],[-1,1],[-1,1],[-1,0],[-1,1],[-1,1],[0,0],[0,1],[0,3],[1,3],[0,1],[0,0],[0,1],[-1,2],[-1,1],[-1,2],[-1,0],[-1,1],[-1,0],[-1,1],[-1,-3],[-1,-2],[0,-2],[-1,-4],[-1,-3],[0,-3],[-1,-2],[0,-3],[-1,0],[-1,-2],[-2,-1],[-2,-1],[-2,-2],[0,-2],[-1,-2],[-1,-2],[0,0],[-2,-1],[-2,-1],[0,-1],[0,-1],[-1,-2],[-1,-2],[0,-2],[0,-1],[0,-2],[0,0],[2,-2],[1,-2],[1,0],[1,-1],[1,-1],[1,-1],[0,-1],[1,-1],[0,-2],[0,-1],[1,-2],[0,-1],[-1,-1],[0,-2],[0,-1],[0,-1],[-1,-1],[0,-1],[1,-2],[0,-2],[1,-2],[-1,-1],[0,0],[-1,-1],[0,0],[0,-1],[2,-1],[0,-1],[1,-1],[1,0],[0,-1],[0,-1],[2,0],[3,-2],[1,-1],[5,-2],[1,0],[1,1],[0,0],[-1,1],[1,1],[0,-1],[0,0],[0,-1],[1,0],[1,0],[1,1],[0,2],[2,2],[-1,1],[2,1],[1,-1],[0,-1],[2,-1],[2,-1],[1,0],[0,1],[1,1],[-1,1],[-1,1],[-1,3],[-2,1],[-1,1],[-1,1],[0,1],[1,2],[0,2],[2,1],[0,0],[3,2],[0,1],[0,1],[0,2],[1,1],[-2,3],[-1,1],[-1,3],[-2,2],[-4,2],[0,1],[-1,1],[0,1],[0,1],[1,2],[2,2],[1,1],[3,-1],[0,1],[0,1],[1,0],[1,0],[0,-1],[2,1],[0,2],[1,1],[0,0],[0,0],[0,1],[0,0],[1,0],[1,0],[1,0]],[[432,129],[-2,1],[0,-1],[1,-1],[1,0],[0,1]],[[428,142],[0,0],[0,0],[-1,0],[-1,0],[0,0],[0,0],[0,-2],[0,0],[2,0],[1,1],[0,0],[0,0],[0,1],[-1,0]],[[325,396],[0,1],[-1,2],[0,0],[0,4],[0,0],[0,0],[2,1],[2,2],[1,1],[1,0],[0,2],[0,2],[0,1],[0,1],[0,1],[2,2],[0,0],[0,3],[0,3],[1,3],[0,2],[0,3],[0,4],[0,4],[-1,0],[0,1],[0,1],[0,0],[0,1],[0,1],[1,0],[1,2],[0,1],[-2,0],[0,1],[-3,1],[-1,0],[0,0],[0,-1],[-1,0],[0,0],[-1,-1],[0,0],[-1,0],[-1,-1],[-1,-1],[0,0],[0,-1],[0,0],[0,0],[-1,-2],[-1,0],[0,-1],[0,0],[0,-1],[0,0],[1,0],[0,-1],[0,0],[0,-2],[0,-1],[0,0],[-1,0],[0,-1],[0,0],[0,-1],[1,-2],[0,-4],[0,-1],[0,0],[1,-1],[0,0],[-1,-2],[-1,-1],[-1,0],[0,-1],[0,0],[0,-1],[1,0],[0,-1],[0,-1],[0,-1],[0,-1],[0,-2],[0,0],[-1,-1],[0,0],[0,0],[-1,1],[0,0],[-1,-1],[0,0],[1,0],[-1,-1],[1,0],[0,0],[0,0],[0,0],[0,-1],[0,0],[0,0],[0,0],[0,0],[0,-1],[0,-1],[0,-1],[1,-3],[0,0],[0,0],[-1,-1],[-1,0],[-1,-1],[0,-1],[-1,0],[-1,-1],[0,0],[0,-1],[0,-1],[1,-1],[0,-1],[0,0],[-1,-1],[2,0],[4,1],[0,0],[0,1],[0,0],[1,-1],[3,0]],[[721,573],[1,2],[0,1],[-1,0],[0,0],[0,0],[-1,-1],[0,0],[-1,-1],[-1,0],[0,-1],[0,-1],[0,-1],[1,-1],[0,-1],[1,0],[0,2],[0,2],[1,0],[0,0]],[[725,560],[0,1],[0,0],[0,2],[0,1],[-1,1],[0,1],[-1,0],[0,-1],[0,0],[0,-3],[0,-2],[1,1],[1,-1]],[[654,607],[-1,-1],[-1,0],[-2,-1],[-1,0],[0,-1],[-2,0],[-1,0],[-1,-1],[0,0],[-1,0],[-1,0],[0,-1],[0,0],[-1,-1],[0,0],[-1,1],[0,0],[-1,-1],[0,-1],[-1,-1],[0,0],[-1,-1],[-3,0],[-1,0],[0,0],[-1,-1],[-1,-1],[0,-1],[-1,-1],[0,-1],[-1,-1],[-1,-2],[0,-2],[-1,-1],[0,-2],[-1,-1],[-1,-2],[-1,-1],[0,0],[-2,-1],[-1,-1],[-1,-1],[-2,-3],[0,0],[0,-2],[-1,-1],[0,-1],[2,-2],[0,0],[-1,-1],[0,-2],[0,-1],[-1,-1],[0,-1],[-1,-2],[0,-1],[0,-1],[0,-1],[1,-2],[0,-1],[3,0],[0,0],[2,-1],[2,-2],[1,-1],[0,-2],[1,0],[1,-1],[0,-1],[0,0],[1,-1],[1,-1],[0,0],[0,-1],[0,0],[1,0],[1,-1],[0,0],[0,-1],[0,-1],[0,0],[0,-1],[-1,0],[-1,0],[-1,0],[-1,-1],[0,0],[0,0],[0,-1],[0,0],[1,-1],[-1,0],[0,0],[0,0],[1,-2],[0,-1],[1,0],[0,0],[1,0],[0,0],[1,0],[0,0],[0,-1],[1,-1],[0,-1],[-1,-1],[0,-1],[0,-2],[0,-1],[-1,-1],[0,-1],[-1,0],[-1,-2],[-1,-1],[1,0],[0,0],[0,0],[1,0],[1,0],[0,-1],[1,0],[0,0],[0,0],[1,0],[2,0],[2,0],[2,0],[2,0],[2,0],[1,0],[2,0],[2,0],[2,0],[2,0],[1,0],[2,0],[2,0],[2,0],[2,0],[2,0],[1,0],[0,0],[1,0],[1,1],[2,1],[2,1],[3,2],[2,1],[2,1],[2,1],[2,1],[3,2],[2,1],[2,1],[2,1],[2,2],[2,1],[3,1],[2,1],[2,1],[1,1],[0,0],[0,1],[1,1],[-1,1],[0,1],[0,0],[0,1],[0,0],[0,0],[1,0],[0,0],[0,1],[1,0],[1,1],[1,1],[2,1],[1,2],[2,1],[1,1],[2,1],[2,1],[1,1],[1,1],[0,0],[0,1],[-1,2],[0,1],[0,1],[0,0],[-1,3],[-1,2],[-1,2],[0,2],[1,2],[0,1],[1,1],[1,1],[0,0],[1,1],[1,2],[2,0],[1,2],[-1,1],[-1,1],[0,1],[-1,2],[0,3],[0,-1],[1,1],[1,2],[-2,3],[0,1],[0,1],[1,3],[1,1],[0,0],[0,1],[2,2],[-1,3],[1,1],[0,2],[1,1],[0,1],[-1,1],[2,0],[1,1],[0,1],[1,0],[1,0],[0,0],[2,2],[1,0],[0,0],[0,1],[-1,1],[-2,1],[-2,1],[-2,1],[-1,1],[-1,0],[-1,1],[-2,1],[-1,0],[-2,0],[-2,1],[-2,1],[-1,1],[-2,-1],[-1,-1],[-2,0],[-1,0],[0,1],[-1,0],[0,1],[-1,1],[-2,1],[-2,1],[-1,-1],[-1,0],[-1,0],[-1,-1],[-1,0],[-1,1],[-1,0],[-1,1],[-3,0],[-1,-1],[0,0],[-1,-1],[-2,-1],[-1,0],[-1,1],[-1,0],[0,1],[-1,0],[0,-1],[-1,0],[-2,0],[-2,0],[-1,0],[0,-1],[0,-1],[-1,0],[0,0],[0,0],[-1,0],[0,-1],[0,-1],[-1,0],[0,-1],[0,0],[0,-1],[0,-1],[1,-1],[-1,-1],[0,-1],[0,-1],[0,0],[0,-1],[0,0],[0,-1],[0,-1],[-1,-1],[0,-1],[0,-1],[-2,-2],[0,0],[-2,-2],[-1,0],[-1,0],[0,0],[0,1],[0,0],[0,0],[0,0],[-1,0],[-1,0],[0,0],[-2,0],[-1,0],[0,0],[-1,-1],[-1,0],[-1,0],[-2,-1],[0,0],[0,0]],[[723,592],[0,0],[0,0],[-1,-1],[1,0],[0,-1],[2,-1],[0,0],[0,-1],[0,1],[-1,2],[0,0],[-1,1]],[[644,786],[0,0],[1,0],[0,1],[0,2],[0,0],[0,1],[0,1],[0,1],[0,4],[0,0],[-1,-1],[0,1],[0,1],[0,3],[0,1],[-2,0],[-3,0],[-2,-1],[-2,-1],[-2,-2],[0,-2],[-1,0],[0,0],[0,-2],[0,-2],[0,0],[1,-2],[1,-2],[1,-1],[1,-2],[1,-1],[1,0],[0,0],[2,2],[3,1],[0,0],[1,0]],[[664,466],[-2,3],[-2,2],[0,0],[-1,0],[-1,0],[-2,0],[-2,-1],[-1,1],[-1,0],[-1,0],[-1,0],[-2,1],[-1,0],[-1,1],[0,1],[0,0],[-1,-1],[0,0],[-1,0],[-1,-1],[0,-1],[-1,0],[-2,1],[0,0],[-1,0],[-1,-1],[-2,0],[-1,0],[-1,0],[-1,1],[0,1],[-1,1],[0,-1],[0,0],[-1,0],[0,-1],[-1,0],[0,1],[-1,-1],[0,0],[0,-1],[0,-1],[-1,0],[-2,-1],[-2,-2],[-1,-1],[-1,-1],[-1,-1],[-1,-1],[-1,-1],[-1,0],[-1,2],[-1,1],[-1,0],[-1,-1],[-1,0],[-2,-1],[-1,1],[-1,1],[-1,0],[-1,0],[-1,0],[0,0],[-1,0],[-1,-1],[-1,0],[0,-1],[-1,0],[-1,0],[0,-1],[0,-1],[-1,0],[0,-1],[-2,-1],[-1,-1],[0,-1],[-1,-1],[0,-1],[-1,-1],[0,-1],[0,-1],[0,-1],[-1,0],[0,-1],[-2,0],[-1,-1],[-1,-1],[-1,0],[-1,-1],[-1,-1],[0,-1],[-1,-1],[0,0],[0,-1],[0,-2],[0,0],[-2,-1],[0,-1],[-1,-1],[-2,-1],[-3,-2],[-2,-1],[-1,-1],[-1,-1],[0,0],[1,-1],[0,-1],[-1,-1],[-2,-1],[-1,-2],[-1,-1],[-3,0],[-1,0],[-1,-1],[-1,0],[0,-1],[0,-2],[0,0],[0,-1],[0,0],[0,-1],[1,0],[3,-1],[0,0],[0,-1],[0,-1],[1,-1],[0,0],[0,-2],[0,0],[0,0],[1,-1],[0,0],[0,-1],[0,-2],[0,-1],[2,-1],[0,-1],[1,-1],[0,0],[0,-1],[0,0],[0,-1],[2,0],[0,0],[6,-1],[0,0],[0,1],[0,1],[1,0],[0,1],[1,0],[0,1],[1,0],[0,1],[4,5],[1,0],[1,0],[3,-1],[1,0],[7,0],[1,0],[0,0],[1,2],[1,1],[8,0],[0,-1],[0,-1],[1,-1],[0,0],[0,0],[2,-1],[1,0],[2,-1],[1,-1],[1,-1],[0,-1],[0,0],[0,-1],[3,-1],[1,0],[5,3],[2,2],[0,0],[1,0],[0,0],[0,0],[0,0],[0,0],[1,0],[2,0],[1,0],[5,-5],[1,-1],[0,0],[1,-1],[0,-2],[0,0],[5,-4],[0,-1],[1,0],[-1,-1],[0,-1],[0,-1],[0,-2],[0,-1],[0,0],[0,0],[0,0],[-3,-3],[7,0],[0,-1],[0,0],[0,0],[0,0],[0,-1],[0,0],[0,0],[0,0],[0,0],[0,0],[0,-1],[0,0],[0,0],[4,0],[0,1],[0,2],[0,2],[0,1],[0,0],[0,0],[-1,0],[0,1],[0,0],[0,0],[0,0],[1,8],[0,0],[0,0],[0,1],[0,0],[0,0],[0,0],[2,1],[0,0],[0,0],[1,1],[5,4],[0,0],[0,1],[0,0],[0,0],[0,1],[0,0],[0,1],[0,0],[0,0],[0,0],[0,0],[0,0],[0,2],[-1,0],[0,1],[0,1],[0,0],[0,0],[1,0],[0,0],[0,0],[1,0],[1,0],[-1,1],[1,2],[0,2],[0,3],[0,0],[0,1],[-1,1],[0,0],[-1,1],[-2,0],[-1,0],[-1,0],[-1,0],[-2,0],[0,0],[-1,2],[-1,2],[0,1],[-1,0],[1,1],[0,0],[2,1],[1,0],[2,0],[1,1],[0,0],[3,1],[0,1],[1,1],[0,1],[0,0],[2,2],[1,1],[2,1],[0,1],[1,1],[1,0],[0,1],[1,3],[1,1],[1,2],[0,2],[0,0],[1,1],[1,1],[1,1],[0,0],[-2,2],[-2,2],[-3,3],[-2,2],[-2,2],[-3,2]],[[666,412],[-1,0],[-1,0],[0,0],[0,0],[-1,0],[0,0],[0,0],[0,-1],[0,-1],[1,0],[0,-2],[0,0],[0,0],[0,0],[0,0],[0,0],[0,-1],[0,0],[0,-1],[0,0],[0,0],[0,-1],[0,0],[-5,-4],[-1,-1],[0,0],[0,0],[-2,-1],[0,0],[0,0],[0,0],[0,-1],[0,0],[0,0],[-1,-8],[0,0],[0,0],[0,0],[0,-1],[1,0],[0,0],[0,0],[0,-1],[0,-2],[0,-2],[0,-1],[-4,0],[0,0],[0,0],[0,1],[0,0],[0,0],[0,0],[0,0],[0,0],[0,1],[0,0],[0,0],[0,0],[0,1],[-7,0],[3,3],[0,0],[0,0],[0,0],[0,1],[0,2],[0,1],[0,1],[1,1],[-1,0],[0,1],[-5,4],[0,0],[0,2],[-1,1],[0,0],[-1,1],[-5,5],[-1,0],[-2,0],[-1,0],[0,0],[0,0],[0,0],[0,0],[-1,0],[0,0],[-2,-2],[-5,-3],[-1,0],[-3,1],[0,1],[0,0],[0,1],[-1,1],[-1,1],[-2,1],[-1,0],[-2,1],[0,0],[0,0],[-1,1],[0,1],[0,1],[-8,0],[-1,-1],[-1,-2],[0,0],[-1,0],[-7,0],[-1,0],[-3,1],[-1,0],[-1,0],[-4,-5],[0,-1],[-1,0],[0,-1],[-1,0],[0,-1],[-1,0],[0,-1],[0,-1],[0,0],[-6,1],[0,0],[-2,0],[0,1],[0,0],[0,1],[0,0],[-1,1],[0,1],[-2,1],[0,1],[0,2],[0,1],[0,0],[-1,1],[0,0],[0,0],[0,2],[0,0],[-1,1],[0,1],[0,1],[0,0],[-3,1],[-1,0],[0,1],[0,0],[-1,0],[-2,0],[-2,0],[-1,-1],[-1,0],[1,-1],[-1,-1],[0,0],[0,-1],[0,0],[1,-2],[0,-1],[0,-2],[1,-1],[-1,-2],[-1,-2],[0,-1],[-2,-2],[-1,-1],[-3,-3],[0,-1],[-1,-1],[1,-1],[0,-2],[0,-1],[0,0],[-1,-1],[0,0],[-1,0],[0,-1],[-1,0],[0,-1],[-1,-1],[1,-3],[-1,-1],[0,0],[-1,0],[0,-1],[0,-2],[0,-1],[0,-1],[-1,-1],[-1,-1],[-1,0],[-1,1],[-1,0],[-1,-1],[0,0],[0,-1],[0,0],[1,-2],[0,-1],[2,-1],[1,-1],[0,0],[0,-1],[0,-1],[0,0],[-1,-1],[0,-2],[0,0],[0,-1],[0,0],[1,-1],[0,0],[1,-1],[1,0],[1,-1],[0,0],[0,-1],[0,0],[-1,0],[0,-1],[0,-1],[0,-1],[-1,0],[1,-1],[0,0],[1,0],[1,-1],[0,0],[1,-1],[0,0],[0,-1],[0,-1],[1,0],[0,-1],[1,-1],[0,0],[1,-1],[-1,-3],[1,-1],[1,0],[1,0],[3,-1],[1,0],[1,0],[3,1],[0,-1],[0,0],[0,0],[0,-2],[0,-5],[0,-4],[0,-5],[0,-5],[0,-5],[0,-5],[0,-4],[0,-5],[0,-2],[0,-1],[0,-1],[0,-2],[2,0],[3,0],[2,0],[3,0],[0,0],[0,0],[0,0],[0,0],[0,-5],[0,-6],[0,-5],[0,-6],[4,0],[4,0],[4,0],[4,0],[4,0],[4,0],[4,0],[3,0],[4,0],[4,0],[4,0],[4,0],[4,0],[4,0],[4,0],[4,0],[1,0],[1,0],[1,-2],[0,0],[1,0],[0,1],[0,0],[-1,1],[2,0],[4,0],[3,0],[3,0],[4,0],[3,0],[3,0],[4,0],[3,0],[4,0],[3,0],[3,0],[4,0],[3,0],[3,0],[4,0],[3,0],[0,3],[1,2],[1,3],[2,1],[0,1],[0,0],[0,1],[0,-1],[-1,0],[0,1],[0,1],[0,2],[1,2],[-1,2],[0,3],[1,3],[0,3],[1,5],[1,3],[1,1],[1,0],[1,0],[2,2],[2,2],[0,0],[1,1],[0,0],[1,0],[0,1],[3,1],[0,1],[-1,1],[-1,1],[0,0],[0,1],[0,0],[-1,0],[0,1],[-1,0],[0,0],[0,1],[0,0],[-1,0],[0,0],[-1,0],[-1,0],[0,0],[-1,1],[0,0],[0,0],[-1,0],[-1,1],[-1,0],[0,0],[0,1],[-1,2],[0,0],[-1,0],[-1,0],[-1,0],[-1,0],[0,0],[-1,0],[0,2],[0,1],[0,1],[-1,1],[1,1],[0,2],[-1,3],[0,0],[-1,3],[-1,0],[-1,4],[0,1],[-1,2],[0,2],[0,2],[0,2],[1,3],[-1,3],[0,1],[-1,3],[0,1],[-1,0],[0,1],[-1,1],[0,2],[0,2],[0,1],[-1,1],[0,0],[-1,0],[-2,0],[-1,1],[0,0],[-1,1],[-1,3],[-1,1],[-1,2],[-2,2],[0,0],[0,2],[-1,2],[0,1],[0,1],[-1,3],[0,1],[0,0],[-1,1],[0,0],[-1,-1],[-1,0],[0,-1],[-1,1],[-1,0],[-1,2],[0,1],[0,3],[0,1],[0,0],[-1,2],[-1,1],[0,1],[0,3],[0,0]],[[617,743],[0,0],[3,0],[3,0],[3,1],[2,1],[3,0],[2,-1],[2,1],[1,0],[1,1],[0,0],[0,1],[0,1],[1,2],[1,3],[0,2],[0,2],[1,1],[0,1],[1,1],[0,1],[0,0],[1,1],[1,2],[0,2],[1,1],[0,1],[0,1],[0,2],[0,2],[0,3],[0,2],[0,1],[0,3],[-1,2],[0,1],[1,1],[-1,0],[0,0],[-3,-1],[-2,-2],[0,0],[-1,0],[-1,1],[-1,2],[-1,1],[-1,2],[-1,2],[0,0],[0,2],[0,2],[0,0],[1,0],[0,2],[2,2],[2,1],[2,1],[3,0],[2,0],[0,-1],[0,-3],[0,-1],[0,-1],[1,1],[0,0],[1,0],[2,0],[1,0],[1,0],[2,0],[1,0],[0,3],[-2,4],[0,2],[-1,7],[-2,3],[-1,1],[-3,3],[0,1],[-1,0],[-1,0],[-5,5],[-1,3],[-2,3],[-1,3],[-3,4],[-1,3],[-2,3],[-4,4],[-1,2],[-1,0],[-3,3],[-3,4],[-3,3],[-4,4],[-3,2],[-3,3],[-1,1],[-4,3],[-3,2],[-5,2],[-2,1],[-4,0],[-2,0],[-2,1],[0,2],[-1,1],[-1,-1],[-3,0],[-2,0],[-1,1],[0,1],[-3,0],[-4,-1],[-5,-1],[-1,0],[-3,1],[0,0],[-4,0],[-2,-1],[-2,0],[-1,1],[-2,0],[-5,4],[-2,0],[-2,0],[-1,0],[-2,0],[-1,0],[-1,0],[-1,1],[-3,0],[0,0],[-5,4],[-1,0],[-1,-1],[-2,0],[-2,-1],[-1,0],[0,-1],[0,-1],[0,0],[-1,-1],[-1,0],[0,-1],[-2,0],[0,1],[-1,0],[0,-1],[0,-1],[0,-1],[0,-1],[-1,0],[0,0],[-1,0],[-1,0],[0,0],[-1,1],[0,2],[0,0],[-1,-2],[0,-1],[0,-2],[1,0],[0,-1],[0,-1],[-1,-3],[-1,-1],[-1,-1],[-1,-2],[-1,0],[0,-2],[-1,-1],[0,-1],[0,-1],[1,-1],[1,1],[1,0],[1,-1],[1,-2],[0,-3],[0,-2],[-1,-4],[-1,-2],[-2,-3],[-3,-4],[-3,-7],[-2,-4],[-2,-8],[-2,-5],[-3,-4],[0,-1],[0,0],[1,-1],[1,0],[0,0],[1,-1],[0,0],[0,-1],[0,-1],[1,0],[0,-1],[1,-1],[1,0],[1,0],[0,1],[0,1],[1,0],[0,0],[1,0],[0,1],[0,1],[0,0],[0,1],[0,1],[1,0],[0,1],[2,1],[0,0],[2,0],[1,1],[2,0],[2,1],[3,-1],[2,0],[2,1],[1,0],[1,0],[1,-1],[0,-1],[0,0],[1,0],[1,-1],[0,-1],[2,-1],[2,-1],[1,0],[0,-1],[0,-5],[0,-5],[0,-6],[0,-5],[0,-5],[0,-5],[0,-5],[0,-5],[0,1],[4,2],[0,1],[1,1],[1,3],[1,3],[1,2],[0,1],[0,1],[1,1],[-1,0],[0,1],[-1,1],[-1,1],[0,2],[1,2],[0,1],[1,0],[1,-1],[1,1],[1,0],[4,0],[0,0],[2,0],[0,0],[1,-1],[0,-1],[1,0],[1,0],[1,-1],[1,0],[1,-2],[2,-2],[1,-1],[1,0],[0,-1],[1,-2],[1,-2],[0,-1],[1,-2],[0,-1],[1,-1],[0,0],[1,0],[2,0],[1,0],[1,1],[2,1],[1,1],[1,1],[1,0],[1,0],[1,0],[1,1],[1,0],[2,1],[2,0],[1,0],[1,-1],[1,0],[2,0],[1,0],[1,0],[1,-1],[0,0],[1,-2],[1,-2],[0,-2],[1,-2],[0,-2],[1,0],[1,-1],[1,0],[3,-1],[0,0],[1,-1],[1,-1],[1,-1],[1,-1],[2,-5],[0,-1],[1,-1],[0,-1],[1,0],[0,0],[1,-1],[1,0],[1,-1],[1,0],[0,-1],[0,0],[1,0],[1,0],[0,-1],[0,0],[1,-1],[0,0],[0,-1],[1,-1],[2,-2],[2,-1],[2,0],[1,-1],[2,0],[1,-1],[1,-2],[1,0],[2,-1]],[[611,834],[1,-1],[1,0],[1,-1],[0,0],[1,-2],[0,-1],[0,0],[1,-1],[0,0],[1,-2],[0,-1],[0,-1],[0,-1],[0,0],[-1,-1],[0,0],[-1,-1],[-1,-1],[-1,-1],[-1,-1],[0,0],[-1,-1],[-1,0],[0,-1],[0,0],[-1,0],[-1,0],[-2,1],[-2,1],[-1,1],[-2,1],[-1,0],[0,1],[-1,2],[-1,1],[0,0],[0,0],[-1,1],[0,1],[-1,1],[-1,0],[-1,1],[-1,0],[0,1],[1,1],[0,1],[1,1],[0,1],[1,1],[1,1],[-1,1],[1,0],[0,0],[0,1],[0,0],[1,0],[0,0],[1,1],[0,0],[1,1],[1,1],[1,0],[1,0],[1,0],[0,0],[0,-1],[1,-1],[0,0],[1,-3],[1,-1],[1,0],[0,0],[1,0],[1,0],[0,0],[1,0]],[[704,1057],[0,0],[-2,0],[0,-1],[0,-1],[0,0],[2,0],[0,1],[1,0],[-1,1]],[[742,527],[0,-1],[0,0],[-1,-1],[-2,-3],[-1,-2],[-2,-1],[0,-2],[0,-4],[0,-9],[0,-8],[0,-9],[0,-4],[0,-2],[0,0],[2,-2],[2,-2],[3,-4],[1,-2],[2,-2],[0,-1],[1,-1],[2,0],[1,-1],[5,0],[1,-1],[0,0],[0,-1],[1,-1],[1,-1],[2,-1],[3,-1],[0,0],[3,-1],[0,0],[1,0],[1,0],[3,0],[3,0],[3,0],[0,0],[2,-2],[3,-3],[2,-3],[3,-3],[3,-2],[2,-3],[3,-3],[3,-3],[2,-1],[3,-3],[3,-3],[2,-3],[2,-2],[1,-2],[2,-3],[2,-3],[1,-2],[2,-3],[0,-1],[0,-2],[0,-2],[0,-5],[0,-3],[0,-3],[0,-3],[1,0],[4,0],[2,-2],[5,0],[4,-2],[0,-1],[1,-2],[2,0],[4,1],[1,0],[-1,1],[0,1],[0,2],[-1,2],[0,2],[1,5],[-1,0],[0,1],[0,1],[0,0],[-1,0],[1,0],[1,0],[0,-1],[0,0],[1,0],[1,1],[0,0],[0,1],[-1,-1],[-1,0],[-2,1],[-1,0],[0,1],[0,3],[-1,3],[0,3],[-1,1],[-1,2],[-2,3],[-1,2],[0,1],[-2,3],[-3,3],[-1,3],[-1,2],[-1,2],[-2,3],[-1,2],[-1,4],[-1,2],[-4,7],[-4,6],[-3,5],[-5,5],[-6,7],[-9,8],[-2,2],[-9,5],[-6,4],[-3,3],[-4,3],[-2,2],[-8,9],[-1,0],[0,1],[-1,1],[-1,1],[-2,2],[-1,2],[-1,1],[-1,1],[0,1],[-1,0],[-1,2],[-1,2],[-1,1]],[[210,422],[0,1],[0,1],[0,1],[-1,1],[-1,0],[-1,1],[0,1],[0,2],[-1,0],[-2,2],[-1,1],[-1,1],[-1,0],[-1,1],[-1,2],[-1,1],[0,1],[-1,-1],[-2,-1],[-2,-1],[-4,-2],[-1,0],[0,-1],[0,-1],[-1,-1],[1,-1],[-1,0],[0,0],[-1,0],[-1,0],[-1,-1],[0,0],[-1,-2],[0,-1],[-1,-1],[-1,0],[-1,-1],[0,-1],[0,-1],[0,0],[1,1],[1,0],[0,-1],[1,-1],[1,0],[-1,0],[0,0],[-1,0],[-1,0],[0,0],[-1,-1],[0,-1],[0,0],[2,-1],[0,0],[-1,0],[-1,-1],[-1,-1],[1,0],[1,0],[0,1],[1,-1],[0,0],[0,-1],[1,-1],[1,0],[1,-1],[1,-1],[0,-1],[0,0],[1,-1],[0,0],[0,0],[0,-1],[1,-1],[0,0],[2,-1],[1,1],[3,-1],[0,0],[2,0],[2,0],[2,0],[1,0],[0,0],[1,1],[0,1],[1,1],[1,2],[1,1],[1,1],[0,0],[0,0],[0,1],[0,1],[0,0],[0,0],[1,0],[0,1],[0,1],[1,1],[0,1],[0,1],[-1,1],[-1,1],[0,1],[0,0],[0,0],[1,0],[0,0],[1,0],[0,0],[1,-2],[1,0],[0,0]],[[187,433],[0,0],[-1,0],[-3,-1],[1,-1],[2,0],[1,0],[0,1],[1,0],[-1,1]],[[886,558],[0,1],[-1,0],[0,-1],[-1,0],[0,-1],[1,0],[1,1]],[[190,356],[1,2],[0,1],[-1,1],[1,1],[1,0],[0,1],[1,0],[0,2],[0,1],[0,0],[0,1],[0,0],[0,1],[-1,0],[0,2],[1,1],[1,1],[0,0],[0,0],[0,1],[1,0],[0,-1],[0,0],[1,0],[0,0],[1,1],[0,1],[0,0],[1,1],[0,1],[0,0],[1,1],[0,1],[0,1],[-1,1],[0,1],[0,0],[1,1],[0,0],[-1,0],[-1,0],[-2,1],[-1,-1],[-2,1],[-1,0],[-1,0],[-1,0],[-1,0],[-1,0],[-1,0],[-1,-1],[0,0],[-1,-1],[-1,0],[0,0],[0,1],[-1,0],[0,0],[0,-1],[0,0],[0,-1],[0,0],[-1,0],[-1,0],[-1,0],[-1,0],[-3,0],[-3,0],[-3,0],[-4,0],[-3,0],[-2,0],[-2,1],[-2,1],[-3,0],[-3,0],[-1,0],[-1,1],[-1,0],[-1,0],[-1,0],[-1,0],[0,0],[0,-1],[0,-1],[1,0],[1,-1],[1,1],[0,0],[0,-1],[0,0],[-1,0],[0,-1],[-1,0],[0,1],[-1,0],[0,1],[0,-1],[0,0],[0,-1],[0,-2],[0,-1],[0,0],[0,-1],[1,0],[2,0],[2,0],[2,0],[2,0],[1,-2],[0,0],[1,-1],[2,0],[2,0],[0,0],[1,-1],[0,0],[0,-1],[1,0],[1,1],[0,0],[1,1],[1,0],[1,0],[3,1],[2,1],[2,-1],[2,0],[0,-1],[0,-1],[-2,-1],[-1,1],[-1,0],[-1,0],[0,0],[-1,0],[-1,-1],[-1,0],[-1,-1],[-1,0],[-1,-1],[-1,0],[-1,0],[-2,0],[-1,1],[-1,1],[-2,0],[-3,0],[-4,0],[-2,0],[0,-1],[-1,-1],[-1,-1],[0,0],[0,-1],[1,0],[0,-1],[0,0],[-1,1],[0,0],[-1,-1],[0,-2],[-1,-2],[-1,0],[-1,-2],[-1,-1],[-1,0],[-1,0],[0,1],[-1,-1],[1,-1],[3,-1],[3,-4],[3,-5],[0,-1],[1,-1],[0,-2],[0,-1],[1,0],[0,-1],[1,-1],[0,-1],[1,0],[1,0],[0,0],[1,0],[2,0],[2,0],[1,-1],[1,0],[2,0],[1,0],[0,-1],[0,0],[0,1],[1,-1],[0,0],[0,0],[1,0],[1,0],[3,0],[2,1],[2,2],[1,1],[0,1],[1,0],[1,1],[0,0],[1,0],[0,0],[0,0],[1,0],[1,0],[0,0],[0,0],[0,0],[1,0],[0,1],[1,1],[0,1],[1,2],[0,0],[1,1],[0,0],[0,0],[1,1],[0,0],[0,0],[1,0],[1,1],[0,1],[0,0],[0,0],[0,1],[1,0],[0,1],[1,0],[1,1],[1,0],[1,1],[1,1],[0,0]],[[392,494],[0,0],[-1,0],[0,-1],[1,-1],[0,0],[0,0],[0,1],[0,0],[0,1]],[[384,508],[-1,1],[0,0],[-1,0],[0,-2],[0,0],[1,-1],[1,0],[0,0],[1,0],[0,1],[-1,1]],[[619,524],[1,0],[2,-1],[0,1],[0,1],[1,0],[0,0],[1,0],[1,-1],[0,-1],[1,0],[1,-1],[0,-1],[0,0],[1,0],[0,0],[1,0],[0,0],[-1,0],[1,1],[1,2],[1,0],[0,1],[1,1],[0,1],[0,2],[0,1],[1,1],[0,1],[-1,1],[0,1],[0,0],[-1,0],[0,0],[-1,0],[0,0],[-1,0],[0,0],[0,0],[-1,-1],[-2,1],[0,0],[0,0],[-1,1],[0,0],[0,-1],[-2,0],[0,0],[0,2],[0,1],[-1,1],[-1,0],[0,0],[-1,0],[-2,1],[-1,0],[0,-1],[-1,-1],[-1,0],[-1,-1],[0,0],[0,1],[0,1],[-1,-1],[-1,0],[0,-1],[0,-1],[0,-1],[1,0],[0,-1],[2,0],[0,-1],[0,0],[0,-2],[0,-1],[0,-1],[0,-1],[1,-1],[1,-1],[1,0],[0,0],[1,-1],[0,0]],[[391,464],[-1,1],[-1,0],[1,-2],[0,1],[1,0],[0,0]],[[455,368],[2,2],[2,2],[1,2],[1,5],[0,1],[0,1],[0,0],[0,1],[1,0],[2,0],[1,1],[0,0],[0,0],[1,1],[0,1],[0,1],[0,1],[-1,2],[0,1],[0,1],[0,0],[0,0],[-1,1],[-2,1],[-1,1],[-1,0],[-1,0],[-1,1],[-2,2],[-1,3],[-1,3],[-1,2],[-1,1],[0,1],[0,0],[0,2],[-1,1],[0,1],[0,0],[-2,1],[-1,1],[0,1],[0,1],[-1,2],[0,1],[0,1],[-1,1],[0,0],[-1,1],[-2,0],[-1,2],[-1,1],[0,1],[0,3],[-2,2],[0,1],[0,1],[-2,2],[0,0],[0,1],[0,1],[0,0],[1,1],[-1,0],[-2,1],[0,1],[-1,0],[0,2],[0,0],[0,1],[-1,1],[-1,0],[-1,0],[-1,1],[0,-1],[0,0],[-1,-2],[0,-1],[-1,0],[-1,-1],[-1,-1],[-1,-1],[-1,0],[0,0],[0,1],[-1,1],[0,0],[-2,0],[0,0],[-1,0],[0,-1],[0,0],[-1,1],[-2,1],[0,0],[-1,0],[0,1],[-1,2],[-1,0],[-1,1],[0,0],[-1,1],[-1,1],[-2,2],[-1,1],[-1,1],[0,2],[0,2],[-1,2],[-1,2],[-1,1],[0,1],[0,1],[0,0],[-1,0],[-1,0],[0,-1],[-1,0],[0,-1],[-1,0],[1,3],[0,1],[-3,0],[-2,0],[-2,0],[-1,0],[0,-1],[0,0],[0,1],[-1,0],[-1,0],[-1,-1],[-1,0],[-1,-1],[1,1],[0,0],[0,1],[-1,2],[-1,0],[-1,-1],[0,-1],[0,-1],[-1,-1],[0,0],[0,1],[1,1],[0,1],[0,1],[-1,0],[0,0],[-1,0],[0,0],[0,-1],[-1,0],[0,1],[0,0],[-1,0],[-2,1],[0,-1],[0,0],[0,0],[0,-1],[0,1],[-1,1],[0,0],[-1,0],[-1,-1],[-1,0],[-1,-1],[-2,-2],[0,-1],[-1,-1],[0,-1],[-1,-2],[0,0],[1,0],[0,0],[-1,0],[0,-1],[0,0],[0,-1],[1,0],[0,-1],[1,0],[0,-1],[-2,1],[-1,-1],[-1,0],[0,-1],[1,0],[1,0],[1,0],[-1,0],[0,0],[-1,0],[0,-1],[0,0],[0,1],[-1,0],[-1,0],[0,-1],[0,-1],[0,0],[-2,-2],[-3,-2],[-2,-2],[-3,0],[-6,0],[-1,0],[1,-1],[0,0],[2,-1],[0,0],[-2,1],[-1,0],[-1,1],[-6,0],[0,0],[0,0],[0,-2],[0,-1],[0,0],[0,-1],[0,-1],[0,-1],[0,0],[0,-1],[0,-1],[0,-2],[0,-1],[0,0],[0,0],[0,-1],[0,-1],[0,-1],[0,-1],[-1,0],[1,-2],[0,-2],[0,-1],[0,-1],[0,-2],[0,-2],[0,-3],[2,0],[1,0],[1,-1],[0,-1],[0,-2],[0,0],[1,-1],[1,-1],[0,-1],[0,0],[1,-1],[0,0],[1,0],[1,-1],[0,-2],[0,-1],[0,0],[0,-1],[0,-1],[1,0],[0,0],[1,0],[0,0],[0,-2],[0,0],[-1,-1],[0,-1],[0,-2],[0,-1],[0,0],[-1,0],[0,-1],[-1,-2],[0,-1],[0,-1],[1,-1],[0,-1],[0,0],[0,0],[0,-1],[0,0],[0,-1],[0,0],[0,-1],[0,-1],[0,-3],[0,-1],[2,-1],[1,-1],[1,-2],[1,-1],[0,-5],[1,0],[0,0],[2,-2],[2,0],[1,-1],[1,0],[1,0],[2,0],[2,0],[1,-1],[0,0],[1,0],[4,1],[3,1],[1,0],[0,0],[1,1],[2,1],[0,1],[1,0],[2,3],[0,1],[1,0],[1,0],[0,0],[1,0],[0,-1],[1,0],[1,0],[5,-2],[0,0],[1,0],[2,0],[4,3],[3,1],[2,1],[2,0],[5,0],[3,-3],[1,-1],[1,-1],[1,0],[2,0],[5,-1],[5,0],[1,1],[2,0],[3,1],[1,1],[2,0],[2,0],[0,-1],[2,-1],[1,-1],[1,-1],[2,0],[1,-1],[2,-1],[1,0],[1,0]],[[455,368],[-1,0],[-1,0],[-2,1],[-1,1],[-2,0],[-1,1],[-1,1],[-2,1],[0,1],[-2,0],[-2,0],[-1,-1],[-3,-1],[-2,0],[-1,-1],[-5,0],[-5,1],[-2,0],[-1,0],[-1,1],[-1,1],[-3,3],[-5,0],[-2,0],[-2,-1],[-3,-1],[-4,-3],[-2,0],[-1,0],[0,0],[-5,2],[-1,0],[-1,0],[0,1],[-1,0],[0,0],[-1,0],[-1,0],[0,-1],[-2,-3],[-1,0],[0,-1],[-2,-1],[-1,-1],[0,0],[-1,0],[-3,-1],[-4,-1],[-1,0],[0,0],[-1,1],[-2,0],[-2,0],[-1,0],[-1,0],[-1,1],[-2,0],[-2,2],[0,0],[-1,0],[0,5],[-1,1],[-1,2],[-1,1],[-2,1],[0,1],[0,3],[0,1],[0,1],[0,0],[0,1],[0,0],[0,1],[0,0],[0,0],[0,1],[-1,-1],[-1,-1],[-1,0],[0,-1],[-1,0],[-1,-2],[-3,-2],[0,0],[0,0],[-1,0],[-1,0],[0,1],[-1,0],[-1,0],[-1,0],[0,1],[1,2],[-1,1],[0,-1],[-2,-2],[-1,-1],[0,-1],[0,0],[0,0],[0,0],[1,-1],[1,0],[0,0],[0,-1],[-1,-1],[-1,-1],[0,0],[0,0],[-1,0],[-1,1],[-1,0],[-1,0],[-1,0],[-1,0],[-2,-2],[-2,-2],[-1,0],[0,0],[0,-2],[0,-1],[0,-1],[1,1],[1,0],[0,-1],[-1,0],[-1,-1],[0,-1],[0,0],[-1,0],[-1,0],[0,-1],[-1,0],[0,0],[-1,0],[-1,-2],[-1,-1],[0,-1],[-1,-1],[1,-1],[-1,0],[-1,-2],[0,-1],[0,-1],[0,-2],[0,-1],[0,0],[0,-1],[1,0],[1,0],[3,1],[3,-1],[0,0],[1,-1],[2,-2],[3,0],[3,0],[2,0],[4,0],[2,0],[4,-1],[0,0],[0,0],[0,-1],[3,1],[2,0],[0,-1],[2,-2],[1,0],[0,0],[1,-1],[0,-1],[0,-1],[0,0],[1,-1],[0,-2],[1,-1],[1,-3],[0,-2],[0,-2],[0,0],[0,-3],[0,-4],[0,-2],[0,-4],[0,-3],[0,-3],[0,-3],[0,-1],[2,-1],[3,0],[3,-1],[4,-1],[4,-1],[1,0],[3,-3],[1,-1],[3,-3],[2,-1],[3,-3],[2,-2],[3,-2],[3,-3],[5,-3],[6,-3],[5,-4],[5,-3],[6,-3],[5,-4],[5,-3],[6,-4],[5,2],[5,1],[5,1],[1,1],[3,2],[4,3],[0,0],[0,0],[3,-1],[5,-3],[1,7],[1,5],[0,4],[0,0],[0,1],[1,1],[3,5],[-1,1],[1,1],[1,1],[2,3],[1,0],[-1,1],[-1,3],[-1,1],[0,5],[0,3],[-1,4],[0,5],[-1,5],[0,5],[0,6],[-3,3],[-5,5],[-4,4],[-2,3],[-3,5],[-2,4],[-2,2],[0,1],[0,2],[1,5]],[[556,694],[2,-1],[2,0],[2,-1],[2,0],[1,0],[5,0],[2,1],[0,0],[1,1],[2,1],[0,0],[-4,1],[-1,0],[-2,2],[-1,0],[-1,-1],[0,0],[-1,1],[-2,0],[-1,1],[-1,1],[0,0],[-2,2],[-1,0],[0,1],[0,-1],[0,0],[-1,-2],[-2,-2],[-1,0],[0,0],[-1,0],[-4,0],[-3,1],[-4,1],[-5,0],[-3,1],[-3,0],[0,2],[0,5],[0,4],[0,4],[0,5],[0,4],[0,5],[0,4],[0,5],[0,2],[0,0],[-1,0],[-4,0],[-3,0],[-2,0],[0,3],[0,3],[0,3],[0,3],[0,4],[0,3],[0,3],[0,3],[0,4],[0,2],[0,0],[0,5],[0,5],[0,5],[0,5],[0,5],[0,6],[0,5],[0,5],[0,1],[-1,0],[-2,1],[-2,1],[0,1],[-1,1],[-1,0],[0,0],[0,1],[-1,1],[-1,0],[-1,0],[-2,-1],[-2,0],[-3,1],[-2,-1],[-2,0],[-1,-1],[-2,0],[0,0],[-2,-1],[0,-1],[-1,0],[0,-1],[0,-1],[0,0],[0,-1],[0,-1],[-1,0],[0,0],[-1,0],[0,-1],[0,-1],[-1,0],[-1,0],[-1,1],[0,1],[-1,0],[0,1],[0,1],[0,0],[-1,1],[0,0],[-1,0],[-1,1],[0,0],[-2,-1],[-3,-3],[-1,-1],[-2,-2],[-4,-7],[0,-1],[-1,-3],[-1,-3],[0,-1],[0,-1],[0,-1],[0,-1],[-2,-1],[0,-4],[-1,-3],[0,-2],[0,-2],[0,-1],[0,-3],[-1,-3],[-1,-2],[-1,-4],[-1,-2],[1,-4],[-1,-2],[0,-3],[0,-2],[0,-1],[0,-1],[0,0],[1,0],[0,-1],[0,-1],[-1,-3],[-1,-3],[-4,-4],[-1,-2],[0,-2],[-4,-6],[-2,-4],[-1,-4],[-1,-1],[-6,-12],[-2,-2],[-2,-3],[-1,0],[-1,-3],[-1,-2],[-1,-3],[0,-3],[0,-3],[2,0],[1,0],[1,0],[1,0],[1,0],[1,0],[2,0],[1,0],[1,-1],[1,-1],[1,0],[1,-1],[1,0],[1,1],[1,0],[1,0],[1,1],[1,1],[1,1],[2,1],[0,0],[0,0],[1,0],[2,0],[2,0],[2,0],[4,0],[4,0],[4,0],[4,0],[3,0],[4,0],[4,0],[4,0],[2,0],[3,0],[3,0],[0,0],[0,0],[1,1],[1,1],[1,1],[1,1],[1,0],[2,1],[1,-1],[2,1],[2,0],[3,0],[3,0],[2,0],[1,1],[1,1],[2,0],[1,0],[2,-1],[2,0],[1,1],[1,0],[3,-1],[2,0],[4,-1],[3,-1],[5,-1],[3,0]],[[637,746],[1,-1],[2,-2],[1,-2],[2,-2],[1,-1],[2,-2],[2,-2],[0,0],[1,-1],[-1,-1],[1,-2],[0,-2],[0,-1],[0,-1],[1,0],[1,-1],[1,-2],[1,-1],[1,-3],[0,-1],[1,0],[-1,-1],[-1,-1],[0,-2],[-1,-1],[1,-2],[0,-1],[0,-1],[0,0],[-1,0],[0,-1],[-1,0],[0,-1],[1,-1],[1,0],[0,-1],[0,0],[0,-1],[1,-1],[0,-2],[0,0],[0,-1],[0,0],[0,-2],[0,-3],[0,-4],[0,-2],[-1,-2],[0,-1],[1,-2],[0,0],[-1,0],[-1,0],[0,-1],[-1,-1],[-2,0],[-2,-1],[-3,0],[-3,-3],[-2,0],[-1,0],[-2,-2],[-3,0],[-3,0],[-2,0],[0,0],[0,-2],[0,-2],[0,-1],[-1,-2],[0,0],[-1,-2],[0,-1],[0,0],[0,-1],[2,-1],[1,0],[2,0],[2,-1],[2,-1],[2,0],[2,-1],[1,0],[1,-1],[3,-1],[1,0],[1,-1],[1,0],[3,-1],[3,-1],[1,0],[3,-1],[0,0],[1,3],[2,1],[1,2],[0,0],[1,-1],[0,0],[2,0],[1,0],[1,0],[1,-1],[1,0],[1,0],[1,2],[0,2],[0,2],[0,1],[0,1],[0,2],[-1,2],[0,0],[-1,2],[0,1],[-1,0],[0,1],[1,0],[1,1],[0,1],[0,0],[0,1],[0,1],[0,0],[1,0],[1,2],[1,1],[2,2],[1,1],[1,0],[0,1],[0,1],[-1,0],[1,1],[0,0],[0,0],[1,0],[1,0],[0,0],[0,-3],[-1,-2],[0,-1],[0,0],[0,-1],[0,-1],[1,-1],[0,-1],[1,0],[2,-1],[1,0],[1,0],[0,-1],[0,-3],[0,-3],[0,-2],[1,-2],[0,-2],[0,0],[0,-2],[-2,-2],[-2,-3],[-1,-2],[-2,-1],[-2,-3],[-1,-1],[-1,0],[-2,-1],[0,0],[-1,-1],[0,-1],[0,-2],[0,-1],[0,-3],[-1,-1],[0,-2],[-1,-2],[0,0],[1,-1],[0,-1],[1,-1],[0,-1],[1,-1],[0,-1],[0,-1],[2,0],[2,0],[2,0],[2,0],[1,0],[0,1],[1,0],[0,-1],[1,0],[1,-1],[1,0],[2,1],[1,1],[0,0],[1,1],[3,0],[1,-1],[1,0],[1,-1],[1,0],[1,1],[1,0],[1,0],[1,1],[2,-1],[2,-1],[1,-1],[0,-1],[1,0],[0,-1],[1,0],[2,0],[1,1],[2,1],[1,-1],[2,-1],[2,-1],[2,0],[1,0],[2,-1],[1,-1],[1,0],[1,-1],[2,-1],[2,-1],[2,-1],[1,-1],[1,1],[1,1],[-1,0],[-1,1],[1,1],[0,1],[-1,0],[1,1],[0,0],[-1,1],[0,1],[-1,1],[1,1],[0,2],[0,2],[0,1],[1,1],[-1,1],[0,2],[1,1],[-1,1],[1,0],[0,1],[0,2],[0,0],[-1,1],[0,1],[0,0],[1,0],[0,1],[0,0],[0,2],[0,0],[0,1],[0,1],[0,1],[0,1],[0,2],[0,3],[0,1],[1,0],[1,0],[0,1],[-1,1],[0,1],[0,1],[1,-2],[0,0],[1,1],[0,1],[0,0],[0,1],[0,0],[0,1],[-1,1],[-1,1],[0,1],[0,0],[0,0],[0,1],[0,0],[0,1],[-1,2],[-3,4],[-1,1],[-1,1],[0,0],[0,1],[-1,1],[-1,1],[-1,0],[1,2],[-1,0],[-2,1],[-4,3],[0,0],[-1,1],[-1,1],[-1,0],[-2,0],[0,0],[0,0],[-1,1],[-2,1],[-3,0],[0,1],[-1,0],[-2,1],[-3,2],[-3,2],[-2,2],[-1,0],[0,0],[0,1],[-1,1],[-1,2],[-2,2],[-1,1],[-1,1],[0,1],[0,0],[-1,-1],[0,2],[-1,0],[-1,0],[-1,0],[-1,1],[-2,2],[-3,4],[-5,3],[0,0],[-1,0],[-1,-1],[-1,0],[1,1],[0,0],[0,1],[0,2],[0,4],[0,0],[1,1],[1,2],[1,1],[1,4],[0,3],[2,2],[0,2],[0,3],[0,2],[0,2],[1,0],[0,0],[0,-1],[0,-2],[1,0],[0,0],[0,0],[0,1],[1,1],[0,0],[-1,4],[0,1],[1,2],[-1,2],[-1,6],[0,1],[0,1],[1,0],[0,-1],[0,0],[1,1],[-1,2],[-1,1],[-1,3],[-1,2],[-2,1],[-4,2],[-8,3],[-3,1],[-2,1],[-4,2],[-2,2],[0,2],[-1,1],[-1,1],[1,1],[0,1],[1,0],[0,1],[1,0],[0,-1],[1,-1],[0,0],[0,2],[-1,7],[0,0],[-1,0],[-2,0],[-1,0],[-1,0],[-2,0],[-1,0],[0,-4],[0,-1],[0,-1],[0,-1],[0,0],[0,-2],[0,-1],[-1,0],[0,0],[-1,-1],[0,-1],[1,-2],[0,-3],[0,-1],[0,-2],[0,-3],[0,-2],[0,-2],[0,-1],[0,-1],[-1,-1],[0,-2],[-1,-2],[-1,-1],[0,0],[0,-1],[-1,-1],[0,-1],[-1,-1],[0,-2],[0,-2],[-1,-3],[-1,-2],[0,-1],[0,-1],[0,0]],[[671,634],[0,0],[0,-1],[-1,1],[0,0],[1,0],[0,0],[0,0]],[[672,635],[0,0],[0,-1],[0,0],[0,0],[0,0],[0,0],[0,0],[-1,1],[1,0],[0,0]],[[293,125],[0,1],[1,0],[2,2],[1,1],[0,0],[0,1],[0,1],[0,0],[1,1],[0,1],[0,0],[-1,1],[1,2],[0,3],[0,1],[0,1],[0,1],[1,2],[0,3],[0,1],[1,2],[0,2],[1,1],[1,1],[1,1],[1,0],[0,1],[1,1],[-1,1],[-1,1],[0,1],[0,1],[0,1],[0,0],[-2,0],[-2,0],[-2,0],[-2,-1],[-2,0],[-2,0],[-1,0],[-2,1],[-2,0],[0,0],[0,0],[-1,1],[0,1],[0,1],[-4,1],[-2,1],[-1,-1],[-1,1],[0,0],[-1,0],[0,1],[0,1],[1,1],[0,1],[0,0],[0,1],[0,1],[0,0],[0,0],[1,0],[0,1],[1,0],[0,1],[-1,0],[0,1],[-2,0],[-1,0],[-2,1],[-2,1],[-2,1],[-1,1],[-1,0],[-2,1],[-1,2],[-1,2],[-1,1],[-2,1],[-2,1],[-1,0],[-3,1],[-1,0],[-1,0],[-1,0],[-1,0],[-1,0],[0,0],[0,0],[0,1],[0,1],[-1,0],[0,1],[0,0],[-1,0],[-2,0],[-2,-1],[0,0],[-1,0],[0,1],[-2,1],[0,1],[-1,0],[-1,0],[-1,0],[-3,3],[0,0],[-3,2],[-1,0],[0,1],[-2,1],[-1,1],[0,0],[0,1],[0,2],[0,1],[0,3],[0,2],[0,3],[-2,0],[0,0],[0,1],[1,1],[0,1],[0,0],[-1,1],[1,0],[0,1],[0,1],[0,0],[0,0],[-1,1],[-2,0],[0,0],[-2,0],[0,0],[-1,0],[-1,0],[-1,0],[0,1],[-1,1],[-1,0],[-1,1],[-1,0],[-1,-1],[0,0],[0,0],[-1,0],[-1,0],[0,0],[-1,0],[-2,-1],[0,0],[-1,0],[-2,0],[0,0],[-1,0],[-2,0],[-1,0],[-1,1],[-1,0],[0,1],[1,1],[0,0],[-1,1],[0,1],[-1,0],[0,1],[-1,1],[0,0],[-1,1],[0,1],[0,0],[0,1],[-1,0],[-1,0],[-1,1],[-1,0],[0,0],[0,0],[0,1],[0,1],[0,0],[-1,1],[0,1],[0,2],[-1,1],[0,2],[0,1],[-1,2],[0,1],[-1,1],[0,0],[-1,1],[-1,0],[-1,1],[-1,1],[-1,0],[0,0],[0,1],[-1,0],[-1,2],[0,0],[-1,2],[0,1],[-1,0],[-1,1],[0,0],[-2,0],[0,1],[-1,0],[-1,1],[-1,0],[0,1],[-1,1],[0,2],[0,0],[-1,3],[0,2],[0,1],[-1,1],[0,2],[0,1],[0,1],[0,1],[-1,1],[0,0],[-1,1],[0,0],[-1,1],[0,0],[-1,1],[0,1],[0,0],[0,1],[0,1],[-1,1],[-1,1],[0,0],[-2,0],[-2,0],[-1,0],[-2,0],[-1,0],[-2,0],[-2,0],[-1,0],[-1,0],[-4,0],[-2,0],[-2,1],[-1,0],[1,-6],[2,-3],[1,-1],[1,0],[2,-3],[1,-3],[1,-1],[0,-1],[0,-1],[1,-1],[1,-3],[0,-1],[2,-2],[0,-1],[0,0],[-1,0],[0,1],[-1,1],[0,-1],[1,-1],[1,-2],[2,-1],[4,-4],[2,-1],[1,-2],[0,-2],[1,-4],[0,-2],[1,-2],[1,-3],[1,-1],[0,-3],[1,-1],[1,0],[1,-1],[3,-1],[2,-2],[2,-1],[0,-2],[1,-3],[2,-3],[1,-3],[0,0],[1,-1],[1,-2],[2,0],[3,-1],[5,-1],[4,-2],[2,-1],[1,-2],[2,-2],[4,-3],[2,-1],[3,-4],[2,-3],[2,-2],[1,-2],[1,-2],[0,-2],[0,-2],[-1,-1],[-1,-1],[-1,-1],[1,-1],[0,-3],[0,-4],[2,-4],[3,-4],[1,-2],[0,-3],[0,-1],[4,-4],[3,-4],[0,0],[3,-2],[7,-3],[5,-3],[2,-1],[2,-2],[4,-8],[4,-12],[0,-1],[2,0],[1,-1],[1,0],[1,-1],[2,1],[-1,0],[0,2],[1,1],[1,2],[3,2],[2,1],[3,1],[4,-1],[2,0],[1,-1],[1,1],[2,0],[2,0],[1,-1],[1,-1],[0,0],[1,1],[0,0],[0,2],[1,0],[1,0],[1,1],[2,-1],[2,1]],[[907,725],[-1,0],[-1,0],[-1,-1],[0,0],[0,0],[0,-1],[1,-1],[0,-1],[1,0],[0,-1],[1,-1],[0,0],[1,1],[1,2],[0,1],[-1,0],[0,1],[-1,1]],[[148,303],[-1,1],[0,0],[0,-1],[0,-1],[1,0],[0,0],[0,1]],[[190,356],[0,0],[-1,-1],[-1,-1],[-1,0],[-1,-1],[-1,0],[0,-1],[-1,0],[0,-1],[0,0],[0,0],[0,-1],[-1,-1],[-1,0],[0,0],[0,0],[-1,-1],[0,0],[0,0],[-1,-1],[0,0],[-1,-2],[0,-1],[-1,-1],[0,-1],[-1,0],[0,0],[0,0],[0,0],[-1,0],[-1,0],[0,0],[0,0],[-1,0],[0,0],[-1,-1],[-1,0],[0,-1],[-1,-1],[-2,-2],[-2,-1],[-3,0],[-1,0],[-1,0],[0,0],[0,0],[-1,1],[0,-1],[0,0],[0,1],[-1,0],[-2,0],[-1,0],[-1,1],[-2,0],[-2,0],[-1,0],[0,0],[-1,0],[-1,0],[0,1],[-1,1],[0,1],[-1,0],[0,1],[0,2],[-1,1],[0,-5],[1,-1],[0,-2],[1,-4],[2,-2],[1,-4],[0,-4],[0,-3],[0,-4],[-1,-2],[-1,-3],[0,-2],[-2,-1],[-1,-1],[1,0],[1,0],[1,-1],[-2,0],[2,-3],[0,-3],[0,-1],[1,-1],[-2,-2],[-1,-3],[0,0],[-1,-1],[0,1],[0,1],[-1,-1],[-1,-2],[-1,-3],[-1,0],[0,0],[-1,1],[0,2],[0,-1],[0,-1],[0,-1],[1,-2],[1,0],[2,0],[3,0],[2,0],[2,0],[3,0],[2,0],[3,0],[2,0],[2,0],[3,0],[2,0],[2,0],[3,0],[2,0],[2,0],[3,0],[1,0],[0,-2],[0,-1],[0,-2],[0,-1],[0,-2],[0,-1],[0,-2],[0,-1],[-1,-1],[0,-1],[0,-1],[0,-1],[0,-1],[0,-1],[1,-1],[1,-1],[2,-1],[1,-1],[1,0],[2,0],[1,-1],[2,-1],[0,0],[1,-1],[0,-2],[0,-1],[0,-2],[0,-1],[0,-2],[0,-1],[0,-2],[0,-1],[0,-2],[0,-1],[0,-2],[0,-2],[0,-1],[0,-2],[0,-1],[0,-2],[0,-1],[0,-2],[1,0],[2,0],[2,0],[2,0],[2,0],[2,0],[2,0],[1,0],[2,0],[2,0],[2,0],[2,0],[2,0],[2,0],[2,0],[2,0],[2,0],[2,0],[0,-1],[0,-2],[0,-2],[0,-3],[0,-2],[0,-3],[0,-1],[2,1],[2,1],[2,1],[1,2],[2,1],[2,1],[2,1],[2,2],[2,1],[2,1],[2,1],[2,2],[2,1],[2,1],[2,2],[2,1],[1,1],[3,2],[2,1],[2,2],[-3,0],[-5,0],[-3,0],[-4,0],[-3,0],[0,2],[1,3],[0,3],[0,3],[1,2],[0,3],[0,3],[0,3],[1,3],[0,2],[0,3],[1,3],[0,3],[0,2],[1,3],[0,3],[0,3],[0,2],[1,3],[0,3],[0,2],[1,3],[0,3],[0,3],[0,2],[1,3],[0,3],[0,2],[1,3],[0,3],[0,2],[0,3],[1,3],[0,2],[1,2],[2,1],[-1,3],[0,3],[-1,3],[-2,0],[-2,0],[-2,0],[-2,0],[-2,0],[-2,0],[-2,0],[-3,0],[-2,0],[-2,0],[-2,0],[-2,0],[-2,0],[-2,0],[-2,0],[-2,0],[-2,0],[-2,0],[-2,0],[0,-1],[0,-1],[0,0],[-1,0],[0,1],[0,1],[0,0],[-1,0],[-2,1],[-2,0],[-2,0],[-1,0],[0,0],[-2,-1],[-1,0],[-1,0],[-1,1],[0,0],[-1,1],[-1,1],[-1,0],[0,0],[-2,-2],[-2,-2],[-1,-1],[0,0],[-1,1],[-1,1],[-1,1],[0,0],[-1,1],[0,2],[0,1],[-1,1],[-1,1],[0,1],[0,0],[-2,-1]],[[199,381],[0,0],[-1,-1],[0,0],[0,-1],[1,-1],[0,-1],[0,-1],[-1,-1],[0,0],[0,-1],[-1,-1],[0,0],[0,-1],[-1,-1],[0,0],[-1,0],[0,0],[0,1],[-1,0],[0,-1],[0,0],[0,0],[-1,-1],[-1,-1],[0,-2],[1,0],[0,-1],[0,0],[0,-1],[0,0],[0,-1],[0,-2],[-1,0],[0,-1],[-1,0],[-1,-1],[1,-1],[0,-1],[-1,-2],[2,1],[0,0],[0,-1],[1,-1],[1,-1],[0,-1],[0,-2],[1,-1],[0,0],[1,-1],[1,-1],[1,-1],[0,0],[1,1],[2,2],[2,2],[0,0],[1,0],[1,-1],[1,-1],[0,0],[1,-1],[1,0],[1,0],[2,1],[0,0],[1,0],[2,0],[2,0],[2,-1],[1,0],[0,0],[0,-1],[0,-1],[1,0],[0,0],[0,1],[0,1],[2,0],[2,0],[2,0],[2,0],[2,0],[2,0],[2,0],[2,0],[2,0],[2,0],[2,0],[3,0],[2,0],[2,0],[2,0],[2,0],[2,0],[2,0],[2,0],[1,-3],[0,-3],[1,-3],[-2,-1],[-1,-2],[0,-2],[-1,-3],[0,-3],[0,-2],[0,-3],[-1,-3],[0,-2],[0,-3],[-1,-3],[0,-2],[0,-3],[0,-3],[-1,-3],[0,-2],[0,-3],[-1,-3],[0,-2],[0,-3],[0,-3],[-1,-3],[0,-2],[0,-3],[-1,-3],[0,-3],[0,-2],[-1,-3],[0,-3],[0,-3],[0,-3],[-1,-2],[0,-3],[0,-3],[-1,-3],[0,-2],[3,0],[4,0],[3,0],[5,0],[3,0],[3,2],[3,2],[4,2],[3,3],[3,2],[4,3],[3,2],[3,2],[4,3],[3,2],[4,2],[3,3],[3,2],[4,3],[3,2],[3,2],[4,3],[3,2],[2,1],[0,1],[0,0],[0,1],[0,1],[0,1],[1,0],[3,2],[1,0],[0,1],[0,1],[1,1],[1,0],[1,0],[3,1],[0,0],[2,2],[0,0],[2,0],[2,1],[0,0],[2,0],[1,1],[1,1],[0,0],[0,0],[0,2],[0,1],[0,1],[0,0],[0,0],[0,1],[-1,0],[0,1],[0,0],[0,1],[0,0],[1,1],[1,0],[0,0],[1,0],[0,0],[3,0],[2,-1],[3,0],[0,1],[0,3],[0,3],[0,3],[0,4],[0,2],[0,4],[0,3],[0,0],[0,2],[0,2],[-1,3],[-1,1],[0,2],[-1,1],[0,0],[0,1],[0,1],[-1,1],[0,0],[-1,0],[-2,2],[0,1],[-2,0],[-3,-1],[0,1],[0,0],[0,0],[-4,1],[-2,0],[-4,0],[-2,0],[-3,0],[-3,0],[-2,2],[-1,1],[0,0],[-3,1],[-3,-1],[-1,0],[-1,0],[0,1],[-2,-1],[-3,-1],[-1,1],[-1,0],[0,-1],[-1,0],[-1,0],[-1,1],[-2,1],[-1,1],[0,0],[-2,1],[-2,1],[-2,1],[-1,0],[0,0],[-1,1],[-1,0],[-1,3],[-1,0],[-3,-1],[-1,0],[-1,0],[-2,2],[-1,1],[0,2],[0,0],[0,1],[0,0],[-1,0],[0,0],[-2,0],[-1,0],[0,1],[0,2],[0,1],[-1,1],[-1,0],[0,0],[-1,0],[-3,-2],[-1,0],[-1,0],[-1,1],[0,0],[-1,1],[-1,1],[1,1],[0,0],[0,1],[0,1],[-2,2],[0,0],[0,1],[0,1],[0,1],[0,1],[-1,0],[0,1],[-1,0],[0,1],[-1,0],[-2,1],[-2,0],[0,0],[-1,1],[0,0],[-1,1],[1,1],[0,1],[0,0],[0,1],[0,1],[-1,2],[0,1],[-1,0],[-1,1],[1,1],[0,2],[0,1],[0,1],[-1,1],[0,0],[0,0],[-2,0],[-1,1],[-1,0],[0,0],[0,1],[-1,0],[0,1],[-1,0],[-1,-1],[0,0],[0,0],[0,-1],[0,0],[0,-1],[0,0],[0,-1],[0,-1],[0,-1],[0,0],[-2,0],[0,0],[0,1],[0,0],[0,1],[0,0],[-1,0],[-1,-1],[0,0],[-1,0],[0,1],[0,0],[0,2],[0,0],[0,0],[-1,0],[-1,0],[0,0],[-1,0],[0,1],[0,1],[0,0],[0,0],[0,0],[0,0],[-1,-1],[-1,0],[-2,0],[0,-1],[0,0],[-1,0],[0,-1],[0,0],[-1,0],[-1,0],[-1,1],[0,1],[-1,1],[-1,0],[0,0],[0,-1],[0,0],[0,-1],[-3,-1],[0,0],[0,-2],[-1,-1],[0,-1],[1,-1],[0,0],[-1,-1],[0,0],[-1,0],[-1,0],[0,0],[-1,0],[0,0],[0,0],[1,-2],[0,0],[1,-1],[0,0],[1,0],[0,-1],[0,0],[-1,0],[-1,-1],[-1,0],[0,0],[-1,-1],[0,-1],[0,0],[-1,0],[0,-1],[0,-1],[-1,-2],[0,-2],[-1,-1],[0,-1],[-1,0],[-1,0],[-1,0],[0,0],[-1,0],[0,0],[1,1],[0,0],[0,1],[0,0],[-1,0],[-1,0],[-1,1],[0,0],[-1,1],[0,0],[-1,0],[-2,-1],[-2,0],[-1,-1],[0,1],[-1,0],[-1,0],[-1,2],[0,0],[0,0],[-1,1],[0,0],[0,0],[0,-1],[-1,-1],[-1,-1],[0,0],[-1,0],[-1,0],[0,1],[-1,0],[-1,1],[0,0],[-1,-1],[-1,-1],[0,0],[0,-1],[0,-1],[1,0],[0,-1]],[[672,635],[0,0],[-1,0],[1,-1],[0,0],[0,0],[0,0],[0,0],[0,0],[0,1],[0,0]],[[671,634],[0,0],[0,0],[-1,0],[0,0],[1,-1],[0,1],[0,0]],[[657,655],[-1,-1],[0,0],[-1,1],[0,0],[-1,0],[0,0],[0,0],[0,-1],[-1,-1],[0,0],[-1,-1],[0,0],[0,0],[0,0],[0,-1],[-1,0],[0,0],[1,-1],[1,0],[0,-1],[0,-1],[1,-1],[0,0],[0,-1],[0,-1],[0,-1],[0,-1],[0,0],[0,-1],[0,-1],[1,-1],[2,0],[2,-1],[0,0],[0,-1],[1,-1],[-1,0],[-1,0],[0,0],[-1,-2],[1,-2],[0,-1],[0,-1],[-1,-1],[0,-1],[0,0],[0,-1],[0,0],[1,-2],[0,-1],[0,-1],[-1,-1],[0,-1],[0,0],[0,0],[1,-1],[1,0],[0,0],[2,-2],[0,0],[0,-1],[-1,-1],[0,0],[0,-2],[0,0],[-2,-1],[0,-1],[0,-1],[0,-1],[0,0],[-1,-1],[0,0],[-1,-1],[0,0],[0,0],[-1,0],[0,0],[-1,0],[0,-1],[0,0],[0,0],[0,-1],[0,0],[0,0],[0,0],[2,1],[1,0],[1,0],[1,1],[0,0],[1,0],[2,0],[0,0],[1,0],[1,0],[0,0],[0,0],[0,0],[0,-1],[0,0],[1,0],[1,0],[2,2],[0,0],[2,2],[0,1],[0,1],[1,1],[0,1],[0,1],[0,0],[0,1],[0,0],[0,1],[0,1],[1,1],[-1,1],[0,1],[0,1],[0,0],[0,1],[1,0],[0,1],[0,1],[1,0],[0,0],[0,0],[1,0],[0,1],[0,1],[1,0],[-2,0],[-2,0],[0,1],[0,1],[-1,1],[0,1],[-1,1],[0,1],[-1,1],[0,0],[1,2],[0,2],[1,1],[0,3],[0,1],[0,2],[0,1],[1,1],[0,0],[2,1],[1,0],[1,1],[2,3],[2,1],[1,2],[2,3],[2,2],[0,2],[0,0],[0,2],[-1,2],[0,2],[0,3],[0,3],[0,1],[-1,0],[-1,0],[-2,1],[-1,0],[0,1],[-1,1],[0,1],[0,1],[0,0],[0,1],[1,2],[0,3],[0,0],[-1,0],[-1,0],[0,0],[0,0],[-1,-1],[1,0],[0,-1],[0,-1],[-1,0],[-1,-1],[-2,-2],[-1,-1],[-1,-2],[-1,0],[0,0],[0,-1],[0,-1],[0,0],[0,-1],[-1,-1],[-1,0],[0,-1],[1,0],[0,-1],[1,-2],[0,0],[1,-2],[0,-2],[0,-1],[0,-1],[0,-2],[0,-2],[-1,-2],[-1,0],[-1,0],[-1,1],[-1,0],[-1,0],[-2,0],[0,0],[-1,1],[0,0],[-1,-2],[-2,-1],[-1,-3],[0,0]],[[824,638],[1,1],[0,1],[2,3],[1,1],[0,1],[1,2],[1,3],[1,5],[0,5],[0,3],[1,2],[1,2],[1,3],[-1,2],[-1,3],[0,0],[-1,1],[0,0],[-1,-1],[-1,-1],[-1,-2],[0,-2],[-1,0],[-1,0],[-1,1],[0,0],[0,2],[1,1],[0,1],[0,2],[0,0],[1,1],[0,1],[0,2],[0,2],[-1,1],[0,0],[0,1],[0,0],[-1,1],[0,0],[-1,1],[-1,2],[0,2],[1,3],[0,2],[-2,5],[0,2],[-1,3],[-2,4],[-1,4],[-1,5],[-1,3],[-1,2],[-2,5],[-1,5],[-2,6],[-2,6],[-1,0],[0,4],[-1,2],[0,3],[-2,4],[0,2],[0,1],[-2,3],[0,1],[0,1],[-1,2],[0,1],[-1,2],[-2,3],[-1,0],[-2,2],[-1,0],[-2,0],[-3,0],[-2,2],[-2,1],[-1,1],[-1,0],[-3,0],[-1,0],[-3,-2],[-2,-1],[-2,0],[-1,0],[0,-1],[-1,-1],[-2,-1],[0,0],[-1,-1],[0,-1],[0,-1],[-1,-1],[0,-1],[-2,-2],[0,-1],[0,-2],[0,-2],[0,-2],[0,-2],[0,-1],[0,-1],[0,-1],[-1,-2],[0,-1],[-2,-2],[0,-1],[-1,-1],[0,-4],[0,-1],[0,-2],[0,-2],[0,0],[1,-1],[0,-1],[0,0],[1,-1],[0,-3],[1,-1],[1,0],[1,-1],[1,-1],[0,-2],[2,-3],[1,-1],[1,-2],[1,-2],[0,-1],[0,-2],[1,-2],[0,-2],[0,-1],[-1,-1],[-1,-3],[0,0],[0,-2],[0,-1],[-1,-2],[-1,-1],[0,-2],[-1,-4],[0,-2],[0,-1],[0,-1],[0,-2],[5,-7],[0,-1],[0,-3],[0,-1],[0,0],[0,-1],[1,0],[4,0],[0,0],[1,-1],[1,-1],[1,0],[0,0],[1,0],[0,0],[2,0],[0,0],[1,0],[0,0],[0,-1],[0,-1],[1,0],[2,0],[1,0],[1,-1],[1,0],[1,2],[0,0],[1,0],[0,0],[-1,-1],[0,0],[0,-1],[1,-1],[1,-1],[2,-2],[2,-1],[0,0],[1,0],[0,2],[0,0],[1,0],[0,0],[0,-1],[0,0],[0,-1],[0,0],[0,-1],[1,-1],[1,-1],[0,-1],[1,-1],[1,-1],[0,0],[0,1],[0,1],[0,0],[0,1],[-1,0],[1,1],[0,-1],[1,-1],[1,-1],[0,-1],[1,0],[1,0],[1,0],[-2,-1],[0,-2],[2,-3],[0,-1],[0,0],[0,-1],[-1,-1],[0,0],[0,-1],[1,-1],[0,0],[1,0],[0,0],[1,1],[1,0],[1,-1],[0,-1],[2,-1],[1,0],[2,-2],[1,-3],[0,-1],[0,-2],[-1,-1],[-1,-1],[1,-1],[1,1],[0,-1],[1,-1],[2,-2],[0,0],[1,0],[0,1],[0,0],[2,1],[0,1]],[[812,648],[0,0],[-1,0],[-1,-1],[1,0],[0,-1],[1,0],[0,2],[0,0]],[[828,686],[-1,2],[0,-2],[2,-2],[0,0],[-1,2]],[[414,184],[1,-1],[1,0],[1,-1],[1,0],[1,-2],[1,-1],[1,-2],[0,-1],[0,0],[0,-1],[-1,-3],[0,-3],[0,-1],[0,0],[1,-1],[1,-1],[1,0],[1,-1],[1,-1],[0,0],[0,-1],[1,0],[1,-1],[2,-1],[1,-1],[2,-1],[2,-1],[0,-1],[0,-1],[-1,-1],[0,-2],[0,-1],[0,-1],[1,-2],[0,-1],[1,1],[2,1],[5,2],[1,1],[4,0],[4,-1],[1,0],[3,1],[1,0],[2,0],[3,1],[1,1],[2,1],[1,1],[7,1],[0,1],[1,2],[0,2],[1,2],[1,2],[1,2],[1,1],[1,1],[3,1],[4,0],[3,0],[6,2],[5,2],[1,1],[2,1],[5,4],[3,1],[2,1],[2,-1],[3,-1],[1,-1],[3,-4],[1,-2],[1,-1],[-1,-1],[0,-2],[-1,-1],[0,-2],[-1,-3],[1,-2],[0,-1],[1,-2],[3,-2],[2,-2],[5,-3],[3,0],[1,0],[2,-2],[1,0],[1,1],[4,0],[1,0],[2,1],[2,1],[2,0],[2,1],[0,2],[0,1],[0,1],[2,1],[5,1],[1,0],[1,1],[1,1],[4,0],[2,0],[2,0],[1,0],[1,1],[1,2],[0,1],[-1,0],[0,1],[0,1],[-1,1],[-1,1],[0,2],[0,1],[1,2],[0,2],[0,1],[0,1],[-1,1],[-1,3],[-1,0],[0,1],[1,3],[0,1],[1,3],[1,2],[0,2],[0,0],[0,3],[0,3],[0,2],[0,3],[0,3],[0,2],[0,3],[0,2],[0,3],[0,3],[0,2],[0,3],[0,2],[0,3],[0,2],[0,3],[0,3],[0,2],[0,3],[0,2],[0,3],[0,2],[0,3],[0,2],[0,3],[0,2],[0,3],[0,2],[0,3],[0,2],[0,3],[0,2],[0,6],[0,5],[0,6],[0,5],[0,0],[0,0],[0,0],[0,0],[-3,0],[-2,0],[-3,0],[-2,0],[0,2],[0,1],[0,1],[0,2],[-5,-3],[-5,-2],[-5,-3],[-5,-3],[-5,-2],[-5,-3],[-5,-2],[-4,-3],[-5,-3],[-5,-2],[-5,-3],[-5,-2],[-5,-3],[-5,-3],[-5,-2],[-5,-3],[-3,-2],[-4,2],[-3,1],[-3,2],[-5,3],[-3,1],[0,0],[0,0],[-4,-3],[-3,-2],[-1,-1],[-5,-1],[-5,-1],[-5,-2],[-1,-2],[-1,-2],[-2,-3],[-1,-1],[0,-1],[-4,-1],[-5,-1],[-2,1],[-1,-1],[0,0],[-1,-1],[0,-1],[-1,-1],[-1,-3],[0,-2],[-1,-1],[-2,-3],[-2,-3],[-1,-2],[0,-1],[0,-2],[0,-1],[2,-1],[2,-1],[0,-1],[0,-2],[0,-1],[-1,-2],[0,-2],[0,-1],[1,-3],[1,-2],[-1,-3],[0,-6],[0,-5],[0,-2],[-1,-1],[0,-2],[-1,-2],[0,-1],[-1,-2],[-2,-2],[-1,-2],[1,0],[2,-1]],[[198,439],[0,-1],[1,-1],[1,-2],[1,-1],[1,0],[1,-1],[1,-1],[2,-2],[1,0],[0,-2],[0,-1],[1,-1],[1,0],[1,-1],[0,-1],[0,-1],[0,-1],[1,0],[1,0],[0,0],[0,1],[1,0],[2,-1],[0,0],[1,0],[0,1],[0,0],[0,-1],[0,0],[1,0],[0,1],[0,0],[1,0],[0,1],[0,1],[0,1],[1,0],[0,0],[0,1],[0,0],[0,1],[0,0],[0,1],[0,0],[1,1],[0,1],[0,1],[-1,0],[0,1],[0,0],[0,1],[0,0],[1,0],[1,0],[0,0],[1,1],[0,0],[0,1],[1,-1],[1,0],[0,0],[0,0],[1,0],[0,-1],[0,0],[1,-1],[0,0],[0,-1],[0,-1],[0,0],[1,0],[1,0],[0,0],[0,0],[0,1],[1,0],[0,0],[0,0],[1,1],[1,4],[0,1],[-1,1],[0,0],[0,1],[0,1],[-2,2],[0,0],[0,0],[1,0],[0,0],[1,1],[0,0],[1,1],[1,0],[0,0],[1,0],[1,0],[1,1],[0,1],[0,0],[1,1],[0,0],[0,1],[1,0],[2,1],[0,0],[0,0],[0,0],[1,2],[0,1],[0,0],[0,0],[0,2],[-1,1],[0,1],[0,0],[-1,1],[0,0],[0,1],[0,1],[0,3],[0,2],[0,0],[-1,0],[-3,-2],[-3,0],[-9,-5],[-2,-2],[-3,-3],[-7,-6],[-1,-1],[-2,0],[-1,-1],[-1,0],[0,-2],[-2,-1],[-3,-1],[-2,-2]],[[611,834],[-1,0],[0,0],[-1,0],[-1,0],[0,0],[-1,0],[-1,1],[-1,3],[0,0],[-1,1],[0,1],[0,0],[-1,0],[-1,0],[-1,0],[-1,-1],[-1,-1],[0,0],[-1,-1],[0,0],[-1,0],[0,0],[0,-1],[0,0],[-1,0],[1,-1],[-1,-1],[-1,-1],[0,-1],[-1,-1],[0,-1],[-1,-1],[0,-1],[1,0],[1,-1],[1,0],[1,-1],[0,-1],[1,-1],[0,0],[0,0],[1,-1],[1,-2],[0,-1],[1,0],[2,-1],[1,-1],[2,-1],[2,-1],[1,0],[1,0],[0,0],[0,1],[1,0],[1,1],[0,0],[1,1],[1,1],[1,1],[1,1],[0,0],[1,1],[0,0],[0,1],[0,1],[0,1],[-1,2],[0,0],[-1,1],[0,0],[0,1],[-1,2],[0,0],[-1,1],[-1,0],[-1,1]],[[736,532],[0,0],[0,-1],[1,0],[1,0],[0,0],[0,0],[0,0],[-2,1]],[[664,520],[0,-2],[0,-4],[0,-4],[0,-2],[1,-1],[1,-1],[0,-1],[0,-1],[2,-1],[0,-1],[1,-1],[1,-2],[0,-1],[1,0],[0,0],[1,-1],[1,0],[0,0],[0,0],[0,-1],[0,-1],[0,-1],[1,0],[0,-1],[1,0],[0,-1],[0,0],[0,-1],[0,-2],[-1,-2],[0,-2],[0,-1],[0,-1],[-1,0],[0,0],[0,-1],[-1,-1],[0,0],[-1,-1],[-1,-2],[-1,-1],[0,-2],[0,0],[0,-2],[0,-1],[0,0],[-2,-1],[-1,0],[1,-1],[0,0],[-1,0],[-2,-4],[3,-2],[2,-2],[2,-2],[3,-3],[2,-2],[2,-2],[0,1],[0,0],[0,0],[0,1],[1,-1],[0,0],[1,0],[3,1],[0,0],[0,1],[0,1],[0,0],[0,2],[0,1],[1,1],[0,1],[1,1],[0,1],[1,0],[2,0],[3,0],[3,0],[0,0],[1,0],[2,2],[2,2],[2,1],[2,1],[2,1],[2,1],[1,1],[2,0],[2,0],[1,0],[3,1],[1,0],[1,0],[3,0],[1,0],[1,-1],[1,-2],[1,-1],[1,-1],[3,-1],[3,-1],[2,-1],[1,1],[2,1],[0,1],[1,0],[1,0],[1,0],[0,0],[1,0],[3,0],[2,0],[-2,2],[-1,2],[-3,4],[-2,2],[-2,2],[0,0],[0,2],[0,4],[0,9],[0,8],[0,9],[0,4],[0,2],[2,1],[1,2],[2,3],[1,1],[0,0],[0,1],[-1,2],[-2,1],[-1,0],[-1,0],[-1,0],[0,0],[0,1],[0,0],[-1,0],[1,1],[0,0],[-1,1],[0,1],[0,0],[-2,2],[-3,0],[-1,1],[0,0],[-1,2],[0,2],[0,1],[-1,1],[-1,1],[0,1],[-1,1],[0,0],[-1,3],[0,1],[0,0],[0,1],[-1,1],[0,0],[0,0],[-2,4],[-1,1],[-1,0],[-1,1],[0,0],[0,0],[-1,-1],[-1,-1],[-2,-1],[-2,-1],[-1,-1],[-2,-1],[-1,-2],[-2,-1],[-1,-1],[-1,-1],[-1,0],[0,-1],[0,0],[-1,0],[0,0],[0,0],[0,-1],[0,0],[0,-1],[1,-1],[-1,-1],[0,-1],[0,0],[-1,-1],[-2,-1],[-2,-1],[-3,-1],[-2,-1],[-2,-2],[-2,-1],[-2,-1],[-2,-1],[-3,-2],[-2,-1],[-2,-1],[-2,-1],[-2,-1],[-3,-2],[-2,-1],[-2,-1],[-1,-1],[-1,0],[0,0]],[[144,382],[1,0],[1,0],[1,0],[1,0],[1,-1],[1,0],[3,0],[3,0],[2,-1],[2,-1],[2,0],[3,0],[4,0],[3,0],[3,0],[0,0],[1,2],[-1,1],[0,0],[0,1],[0,0],[-1,0],[-1,0],[0,0],[0,1],[0,0],[1,1],[0,0],[1,1],[0,0],[0,1],[0,1],[-2,1],[-2,0],[-2,0],[0,1],[-1,0],[-2,1],[-1,0],[0,0],[-1,1],[-2,3],[0,1],[-1,1],[0,-1],[0,-1],[0,0],[-1,1],[0,0],[0,-1],[-1,-1],[0,1],[-1,-1],[0,-1],[0,0],[0,-1],[0,0],[0,0],[-1,0],[0,0],[1,-1],[1,-1],[1,0],[1,0],[0,-1],[-1,0],[-1,0],[-1,1],[0,0],[-1,-1],[0,-1],[0,-1],[1,0],[2,0],[1,0],[0,0],[0,-1],[0,0],[0,0],[-1,0],[-3,0],[0,1],[-2,1],[-2,0],[-1,0],[1,-1],[-1,-1],[0,0],[-2,1],[-1,-1],[-1,-1],[0,-1],[1,0],[0,-1],[-1,0],[-1,1],[-3,-2]],[[150,396],[0,0],[-1,-1],[0,0],[1,0],[0,0],[0,-1],[1,0],[0,0],[0,0],[0,1],[0,0],[-1,1]],[[153,395],[0,1],[-1,0],[0,-1],[0,0],[0,-1],[0,0],[1,0],[0,1],[0,0]],[[154,394],[0,0],[0,0],[0,0],[0,-1],[1,0],[0,0],[0,0],[0,0],[0,1],[-1,0]],[[156,391],[0,0],[0,0],[0,-1],[1,0],[0,0],[0,0],[-1,1]],[[153,391],[-1,1],[0,-1],[-1,0],[0,0],[1,-1],[1,0],[0,1]],[[152,387],[-1,1],[0,0],[-1,-1],[0,0],[1,0],[1,0]],[[210,422],[0,0],[-1,0],[-1,2],[0,0],[-1,0],[0,0],[-1,0],[0,0],[0,0],[0,-1],[1,-1],[1,-1],[0,-1],[0,-1],[-1,-1],[0,-1],[0,-1],[-1,0],[0,0],[0,0],[0,-1],[0,-1],[0,0],[0,0],[-1,-1],[-1,-1],[-1,-2],[-1,-1],[0,-1],[-1,-1],[0,0],[-1,0],[-2,0],[-2,0],[-2,0],[0,0],[-3,1],[-1,-1],[-2,1],[0,0],[-1,1],[0,1],[0,0],[0,0],[-1,1],[0,0],[0,1],[-1,1],[-1,1],[-1,0],[-1,1],[0,1],[0,0],[-1,1],[0,-1],[-1,0],[-1,0],[0,0],[1,-1],[-1,0],[-1,-1],[0,-1],[0,0],[-1,-2],[-2,0],[1,-1],[0,-1],[-1,-1],[0,-1],[0,0],[0,1],[-1,0],[-1,-1],[-1,-1],[0,-1],[0,0],[-1,0],[-1,0],[-2,-1],[-2,-3],[0,-1],[0,-1],[0,0],[-1,0],[0,0],[-1,-1],[0,-1],[0,0],[-1,-1],[0,1],[-1,1],[0,0],[-1,0],[0,-1],[1,-1],[0,-1],[2,-3],[1,-1],[0,0],[1,0],[2,-1],[1,0],[0,-1],[2,0],[2,0],[2,-1],[0,-1],[0,-1],[0,0],[-1,-1],[0,0],[-1,-1],[0,0],[0,-1],[0,0],[1,0],[1,0],[0,0],[0,-1],[0,0],[1,-1],[-1,-2],[0,0],[3,0],[1,0],[1,0],[1,0],[1,0],[0,0],[0,1],[0,0],[0,1],[0,0],[1,0],[0,-1],[0,0],[1,0],[1,1],[0,0],[1,1],[1,0],[1,0],[1,0],[1,0],[1,0],[1,0],[2,-1],[1,1],[2,-1],[1,0],[1,0],[0,1],[-1,0],[0,1],[0,1],[0,0],[1,1],[1,1],[0,0],[1,-1],[1,0],[0,-1],[1,0],[1,0],[0,0],[1,1],[1,1],[0,1],[0,0],[0,0],[1,-1],[0,0],[0,0],[1,-2],[1,0],[1,0],[0,-1],[1,1],[2,0],[2,1],[1,0],[0,0],[1,-1],[0,0],[1,-1],[1,0],[1,0],[0,0],[0,-1],[0,0],[-1,-1],[0,0],[1,0],[0,0],[1,0],[1,0],[1,0],[0,1],[1,1],[0,2],[1,2],[0,1],[0,1],[1,0],[0,0],[0,1],[1,1],[0,0],[1,0],[1,1],[1,0],[0,0],[0,1],[-1,0],[0,0],[-1,1],[0,0],[-1,2],[0,0],[0,0],[1,0],[0,0],[1,0],[1,0],[0,0],[1,1],[0,0],[-1,1],[0,1],[1,1],[0,2],[0,0],[3,1],[0,1],[0,0],[0,1],[0,0],[-1,1],[-1,0],[0,1],[0,1],[0,2],[0,2],[1,1],[0,0],[1,0],[1,0],[0,1],[0,1],[0,0],[1,1],[0,0],[-1,1],[-1,0],[0,1],[0,1],[2,1],[1,1],[0,1],[0,1],[0,0],[-1,0],[0,0],[0,0],[-1,0],[-1,-1],[-1,0],[-1,0],[0,0],[-1,1],[0,0],[0,2],[1,0],[0,1],[1,0],[0,0],[1,0],[0,1],[-1,0],[0,1],[-1,1],[1,0],[0,1],[-1,2],[-1,0],[-1,0],[-1,-1],[0,1],[-1,0],[0,-1],[0,0],[0,0],[-1,0],[-1,0],[0,0],[0,1],[0,1],[0,0],[-1,1],[0,0],[0,1],[-1,0],[0,0],[0,0],[-1,0],[-1,1],[0,-1],[0,0],[-1,-1],[0,0],[-1,0],[-1,0],[0,0],[0,-1],[0,0],[0,-1],[1,0],[0,-1],[0,-1],[-1,-1],[0,0],[0,-1],[0,0],[0,-1],[0,0],[0,-1],[0,0],[-1,0],[0,-1],[0,-1],[0,-1],[-1,0],[0,0],[0,-1],[-1,0],[0,0],[0,1],[0,0],[0,-1],[-1,0],[0,0],[-2,1],[-1,0],[0,-1],[0,0],[-1,0],[-1,0]],[[315,395],[1,1],[0,0],[0,1],[-1,1],[0,1],[0,1],[0,0],[1,1],[1,0],[0,1],[1,1],[1,0],[1,1],[0,0],[0,0],[-1,3],[0,1],[0,1],[0,1],[0,0],[0,0],[0,0],[0,0],[0,1],[0,0],[0,0],[0,0],[-1,0],[1,1],[-1,0],[0,0],[1,1],[0,0],[1,-1],[0,0],[0,0],[1,1],[0,0],[0,2],[0,1],[0,1],[0,1],[0,1],[-1,0],[0,1],[0,0],[0,1],[1,0],[1,1],[1,2],[0,0],[-1,1],[0,0],[0,1],[0,4],[-1,2],[0,1],[0,0],[0,1],[1,0],[0,0],[0,1],[0,2],[0,0],[0,1],[-1,0],[0,0],[0,1],[0,0],[0,1],[1,0],[1,2],[0,0],[0,0],[0,1],[0,0],[1,1],[1,1],[1,0],[0,0],[1,1],[0,0],[1,0],[0,1],[0,0],[-1,1],[0,0],[-1,1],[0,1],[-2,1],[-1,0],[-4,0],[-4,2],[-3,0],[-1,1],[-2,1],[-1,1],[-3,0],[-5,2],[-1,1],[-1,1],[-3,1],[-1,0],[-1,-1],[-2,-1],[-3,-1],[-3,0],[-1,0],[0,-1],[0,0],[1,0],[1,0],[0,0],[1,0],[0,-1],[0,0],[0,-1],[0,0],[1,-1],[-1,-2],[0,0],[-2,0],[0,-1],[0,0],[0,-1],[-1,-1],[0,-2],[-1,-3],[0,0],[0,-1],[0,-2],[0,0],[0,-1],[0,0],[0,-2],[2,-1],[0,-1],[0,0],[0,-1],[0,-2],[1,-2],[1,-1],[0,-1],[0,-1],[0,0],[1,-1],[1,0],[0,0],[0,-1],[0,0],[0,0],[1,0],[0,-1],[0,-3],[-1,-3],[0,0],[0,0],[0,-2],[-1,0],[0,0],[0,-1],[0,-1],[0,-1],[0,0],[0,-1],[0,0],[0,-1],[0,-1],[-1,-1],[0,-1],[1,0],[0,-1],[-1,-2],[0,-1],[0,-1],[0,0],[0,-1],[0,0],[0,-1],[0,0],[0,0],[-1,-1],[0,-1],[0,-1],[1,-3],[0,0],[1,0],[0,0],[2,0],[3,0],[3,0],[3,0],[1,0],[0,0],[3,0],[2,0],[1,0],[1,0],[1,0],[1,0],[0,1],[0,0],[1,0],[0,-1],[1,0],[0,0],[0,-1],[1,0],[0,0],[1,0],[0,-1],[2,1]],[[146,369],[2,0],[4,0],[3,0],[2,0],[1,-1],[1,-1],[2,0],[1,0],[1,0],[1,1],[1,0],[1,1],[1,0],[1,1],[1,0],[0,0],[1,0],[1,0],[1,-1],[2,1],[0,1],[0,1],[-2,0],[-2,1],[-2,-1],[-3,-1],[-1,0],[-1,0],[-1,-1],[0,0],[-1,-1],[-1,0],[0,1],[0,0],[-1,1],[0,0],[-2,0],[-2,0],[-1,1],[0,0],[-1,2],[-2,0],[-2,0],[-2,0],[-2,0],[-1,0],[0,1],[0,-1],[-1,-2],[1,-1],[1,-1],[0,1],[1,0],[0,1],[1,0],[2,0],[1,0],[0,0],[0,-1],[2,0],[2,0],[2,-1],[1,0],[1,0],[-1,0],[-1,0],[-3,0],[-3,0],[-2,2],[-1,-1],[-1,-1],[0,-1]],[[452,488],[0,0],[-1,2],[0,1],[0,2],[0,1],[0,1],[1,1],[0,0],[-1,1],[0,0],[1,0],[1,0],[2,-1],[2,0],[1,-1],[2,0],[1,1],[1,0],[1,2],[0,1],[0,0],[1,1],[0,1],[0,0],[-1,1],[0,1],[0,0],[-1,1],[0,0],[-2,0],[0,0],[0,1],[-1,1],[0,1],[-1,1],[0,1],[0,2],[0,1],[0,0],[2,1],[1,0],[0,0],[1,1],[1,1],[1,0],[0,1],[0,0],[0,2],[0,2],[0,1],[0,1],[0,2],[0,1],[0,1],[0,1],[0,0],[-1,2],[0,0],[-1,1],[0,0],[0,1],[0,1],[-1,0],[0,1],[1,0],[0,1],[-1,1],[-1,0],[-1,0],[-1,0],[0,0],[0,-1],[0,0],[0,-1],[-1,-1],[0,0],[-1,0],[0,1],[-2,1],[-1,0],[-2,0],[-2,-1],[-1,-1],[0,-1],[-1,-1],[-1,-1],[-1,0],[0,-1],[-1,1],[-1,1],[0,0],[1,1],[0,0],[0,0],[0,1],[0,1],[0,1],[-4,0],[-1,0],[-1,0],[0,0],[-2,0],[0,0],[-1,0],[0,0],[0,0],[0,2],[0,1],[-1,1],[0,1],[1,0],[1,0],[0,1],[0,0],[1,1],[-1,0],[0,1],[0,0],[1,1],[1,0],[0,1],[0,0],[0,1],[0,0],[-1,1],[0,0],[1,1],[0,0],[-1,1],[0,0],[-1,0],[0,0],[-2,-2],[0,0],[-2,1],[-1,1],[0,0],[-1,2],[-1,-1],[-1,-2],[-1,-1],[-2,-1],[-1,-2],[-2,-2],[-4,-3],[-2,-2],[0,-1],[0,0],[2,1],[1,0],[0,0],[-1,-1],[-1,0],[-1,-1],[-1,1],[0,-1],[-1,-1],[0,0],[0,-1],[-2,-1],[0,-1],[-1,-1],[1,0],[1,1],[0,0],[0,-1],[-1,0],[-1,-1],[0,0],[0,-1],[-1,-2],[-1,-1],[0,-1],[2,3],[1,1],[0,0],[2,-1],[-1,0],[0,-1],[-1,0],[0,0],[-1,0],[0,0],[1,-2],[-1,0],[0,1],[0,0],[-1,0],[-1,-1],[-1,-2],[-1,-1],[0,-1],[0,0],[-2,-3],[1,0],[0,1],[2,0],[0,-1],[1,0],[0,0],[1,0],[1,-3],[1,-3],[0,-1],[-1,-2],[1,-1],[0,1],[0,0],[0,1],[1,0],[1,0],[2,1],[0,0],[1,-1],[1,0],[0,-1],[-2,1],[-2,-1],[-1,-1],[-1,-1],[0,-1],[0,-1],[1,0],[1,0],[0,1],[0,0],[1,0],[0,-1],[0,-1],[-1,-2],[0,-1],[1,0],[0,0],[0,0],[1,0],[0,0],[0,0],[1,1],[0,0],[1,0],[0,0],[1,-1],[1,0],[2,0],[2,0],[3,0],[3,0],[2,0],[0,-1],[0,-2],[0,-2],[0,-2],[0,-2],[0,-3],[0,0],[0,0],[0,-1],[2,0],[4,0],[2,0],[1,0],[2,0],[1,0],[1,0],[1,1],[2,0],[3,0],[0,0],[1,0],[0,1]],[[678,453],[0,0],[-1,-1],[-1,-1],[-1,-1],[0,0],[0,-2],[-1,-2],[-1,-1],[-1,-3],[0,-1],[-1,0],[-1,-1],[0,-1],[-2,-1],[-1,-1],[-2,-2],[0,0],[0,-1],[-1,-1],[0,-1],[-3,-1],[0,0],[-1,-1],[-2,0],[-1,0],[-2,-1],[0,0],[-1,-1],[1,0],[0,-1],[1,-2],[1,-2],[0,0],[2,0],[1,0],[1,0],[1,0],[2,0],[1,-1],[0,0],[1,-1],[0,-1],[0,0],[0,-3],[0,-2],[-1,-2],[1,-1],[0,0],[0,-3],[0,-1],[1,-1],[1,-2],[0,0],[0,-1],[0,-3],[0,-1],[1,-2],[1,0],[1,-1],[0,1],[1,0],[1,1],[0,0],[1,-1],[0,0],[0,-1],[1,-3],[0,-1],[0,-1],[1,-2],[0,-2],[0,0],[2,-2],[1,-2],[1,-1],[1,-3],[1,-1],[0,0],[1,-1],[2,0],[1,0],[0,0],[1,-1],[0,-1],[0,-2],[0,-2],[1,-1],[0,-1],[1,0],[0,-1],[1,-3],[0,-1],[1,-3],[0,0],[1,-1],[2,0],[1,1],[1,0],[0,0],[1,-1],[0,-1],[0,0],[1,0],[1,1],[2,2],[0,0],[0,0],[1,-2],[1,-1],[1,-3],[1,-1],[0,0],[1,1],[0,0],[1,0],[1,0],[0,1],[2,2],[0,0],[1,0],[3,0],[2,-2],[0,0],[1,0],[0,0],[1,1],[0,1],[1,0],[2,-1],[0,0],[1,0],[1,0],[1,0],[1,1],[2,0],[1,0],[1,0],[1,1],[2,1],[2,1],[1,0],[1,2],[2,2],[2,3],[3,2],[1,1],[1,2],[1,1],[1,1],[1,1],[1,1],[1,1],[1,1],[-1,1],[-2,2],[-1,3],[-1,0],[-1,2],[0,0],[-1,1],[0,2],[1,2],[0,2],[0,1],[1,0],[1,-1],[1,0],[2,0],[2,0],[1,-1],[1,0],[0,1],[1,0],[0,0],[1,0],[0,1],[0,0],[-1,1],[0,0],[-1,2],[0,0],[0,1],[0,0],[1,2],[0,1],[0,0],[1,1],[1,1],[1,1],[1,1],[0,1],[1,2],[1,1],[1,1],[1,0],[0,1],[3,1],[1,2],[1,0],[2,1],[4,1],[2,1],[4,1],[3,1],[3,1],[5,2],[3,1],[3,1],[1,0],[3,0],[4,0],[3,0],[-2,3],[-3,3],[-3,3],[-2,1],[-3,3],[-3,3],[-2,3],[-3,2],[-3,3],[-2,3],[-3,3],[-2,2],[0,0],[-3,0],[-3,0],[-3,0],[-1,0],[-1,0],[0,0],[-3,1],[0,0],[-3,1],[-2,1],[-1,1],[-1,1],[0,1],[0,0],[-1,1],[-5,0],[-1,1],[-2,0],[-1,1],[0,1],[-2,0],[-3,0],[-1,0],[0,0],[-1,0],[-1,0],[-1,0],[0,-1],[-2,-1],[-1,-1],[-2,1],[-3,1],[-3,1],[-1,1],[-1,1],[-1,2],[-1,1],[-1,0],[-3,0],[-1,0],[-1,0],[-3,-1],[-1,0],[-2,0],[-2,0],[-1,-1],[-2,-1],[-2,-1],[-2,-1],[-2,-1],[-2,-2],[-2,-2],[-1,0],[0,0],[-3,0],[-3,0],[-2,0],[-1,0],[0,-1],[-1,-1],[0,-1],[-1,-1],[0,-1],[0,-2],[0,0],[0,-1],[0,-1],[0,0],[-3,-1],[-1,0],[0,0],[-1,1],[0,-1],[0,0],[0,0],[0,-1]],[[691,362],[-1,-3],[0,-2],[0,-2],[0,-2],[1,-2],[0,-1],[1,-4],[1,0],[1,-3],[0,0],[1,-3],[0,-2],[-1,-1],[1,-1],[0,-1],[0,-1],[0,-2],[1,0],[0,0],[1,0],[1,0],[1,0],[1,0],[0,0],[1,-2],[0,-1],[0,0],[1,0],[1,-1],[1,0],[0,0],[0,0],[1,-1],[0,0],[1,0],[1,0],[0,0],[1,0],[0,0],[0,-1],[0,0],[1,0],[0,-1],[1,0],[0,0],[0,-1],[0,0],[1,-1],[1,-1],[3,6],[1,4],[1,4],[1,5],[1,3],[1,2],[1,2],[1,0],[0,1],[1,3],[1,1],[0,-1],[0,-1],[0,0],[0,-1],[1,-1],[1,1],[1,0],[0,2],[0,0],[1,2],[1,0],[2,0],[1,1],[1,0],[1,2],[4,1],[3,4],[2,3],[6,4],[1,2],[1,2],[1,0],[2,2],[1,2],[2,0],[0,-1],[1,1],[0,1],[-1,1],[-1,0],[0,0],[-1,1],[0,1],[-1,1],[0,0],[-2,-2],[-1,0],[0,0],[0,1],[-1,-1],[-1,-1],[-1,-1],[-1,-1],[-1,-1],[-1,-1],[-1,-2],[-1,-1],[-3,-2],[-2,-3],[-2,-2],[-1,-2],[-1,0],[-2,-1],[-2,-1],[-1,-1],[-1,0],[-1,0],[-2,0],[-1,-1],[-1,0],[-1,0],[-1,0],[0,0],[-2,1],[-1,0],[0,-1],[-1,-1],[0,0],[-1,0],[0,0],[-2,2],[-3,0],[-1,0],[0,0],[-2,-2],[0,-1],[-1,0],[-1,0],[0,0],[-1,-1],[0,0],[-1,1],[-1,3],[-1,1],[-1,2],[0,0],[0,0],[-2,-2],[-1,-1],[-1,0],[0,0],[0,1],[-1,1],[0,0],[-1,0],[-1,-1],[-2,0],[-1,1],[0,0]],[[727,342],[0,2],[-1,-1],[0,0],[1,0],[0,-1],[0,0]],[[728,347],[0,0],[0,0],[1,0],[0,0],[1,0],[0,1],[-1,0],[-1,0],[-1,0],[-1,0],[0,-1],[1,0],[0,0],[0,0],[-1,-1],[0,0],[0,0],[0,-1],[0,0],[0,0],[1,0],[0,0],[1,1],[0,1]],[[405,471],[1,0],[1,0],[1,1],[0,0],[-2,3],[0,1],[-1,1],[0,0],[-2,-1],[-1,0],[0,0],[1,-1],[0,-1],[1,0],[0,0],[0,-1],[0,-1],[1,-1],[0,0]],[[432,487],[0,3],[0,2],[0,2],[0,2],[0,2],[0,1],[-2,0],[-3,0],[-3,0],[-2,0],[-2,0],[-1,0],[-1,1],[0,0],[-1,0],[0,0],[-1,-1],[0,0],[0,0],[-1,0],[0,0],[0,0],[-1,0],[0,0],[-1,-1],[0,0],[-1,0],[1,-2],[0,-1],[1,-1],[1,0],[0,-1],[1,-2],[0,-1],[0,-1],[0,-3],[1,0],[0,0],[0,1],[0,0],[1,0],[4,0],[2,0],[3,0],[3,0],[2,0]],[[694,278],[-3,0],[-4,0],[-3,0],[-3,0],[-4,0],[-3,0],[-3,0],[-4,0],[-3,0],[-4,0],[-3,0],[-3,0],[-4,0],[-3,0],[-3,0],[-4,0],[-2,0],[1,-1],[0,0],[0,-1],[-1,0],[0,0],[-1,2],[-1,0],[-1,0],[-4,0],[-4,0],[-4,0],[-4,0],[-4,0],[-4,0],[-4,0],[-4,0],[-3,0],[-4,0],[-4,0],[-4,0],[-4,0],[-4,0],[-4,0],[-4,0],[0,-2],[0,-3],[0,-2],[0,-3],[0,-2],[0,-3],[0,-2],[0,-3],[0,-2],[0,-3],[0,-2],[0,-3],[0,-2],[0,-3],[0,-2],[0,-3],[0,-3],[0,-2],[0,-3],[0,-2],[0,-3],[0,-2],[0,-3],[0,-3],[0,-2],[0,-3],[0,-2],[0,-3],[0,-3],[0,-2],[0,-3],[0,-3],[0,0],[0,-2],[-1,-2],[-1,-3],[0,-1],[-1,-3],[0,-1],[1,0],[1,-3],[1,-1],[0,-1],[0,-1],[0,-2],[-1,-2],[0,-1],[0,-2],[1,-1],[1,-1],[0,-1],[0,-1],[1,0],[1,1],[1,1],[6,-2],[5,2],[3,0],[5,1],[3,2],[1,1],[2,0],[2,1],[5,0],[3,2],[2,1],[1,0],[1,0],[1,-1],[2,0],[1,-1],[4,-3],[1,0],[1,0],[1,0],[0,-1],[1,0],[0,-1],[1,-1],[1,0],[4,-1],[0,1],[-4,1],[2,0],[1,0],[2,-1],[0,0],[0,-1],[1,0],[1,0],[3,1],[1,0],[3,0],[0,-1],[1,1],[2,2],[-1,0],[-2,-2],[0,1],[-1,1],[1,1],[1,0],[1,1],[0,1],[1,-1],[1,-1],[0,0],[-1,-1],[1,0],[0,1],[3,2],[0,0],[1,0],[2,-1],[0,1],[3,-1],[0,0],[0,1],[2,-1],[3,0],[3,0],[3,-2],[0,0],[0,0],[0,1],[1,3],[1,2],[1,3],[0,1],[0,0],[1,4],[1,2],[1,2],[1,3],[0,1],[-1,0],[-1,2],[-1,6],[-2,5],[0,3],[0,1],[-1,2],[-1,1],[-2,-1],[-3,-2],[-1,-3],[-2,-1],[-2,-2],[0,-2],[0,-1],[-1,-2],[-1,-1],[-2,-3],[0,-1],[-1,-1],[0,-1],[-1,-3],[-1,-2],[-1,1],[0,1],[-1,1],[0,1],[0,1],[2,2],[0,1],[1,1],[0,3],[0,0],[1,2],[1,1],[0,1],[0,1],[2,1],[2,3],[1,2],[2,1],[0,0],[0,3],[0,1],[1,2],[1,1],[1,1],[0,1],[1,1],[0,5],[1,1],[3,6],[3,4],[1,3],[1,3],[4,8],[2,2],[1,1],[1,1],[2,2],[-2,-1],[0,1],[0,0],[-1,1],[0,0],[0,4],[1,2],[1,4],[1,1],[1,1],[0,0],[4,1],[1,3],[5,3],[0,1],[0,0]],[[760,391],[-1,1],[-1,2],[-2,2],[-1,0],[0,0],[-1,0],[0,-1],[-1,0],[-1,1],[-2,0],[-2,0],[-1,0],[-1,1],[-1,0],[0,-1],[0,-2],[-1,-2],[0,-2],[1,-1],[0,0],[1,-2],[1,0],[1,-3],[2,-2],[1,-1],[0,-1],[0,0],[1,0],[2,2],[0,0],[1,-1],[0,-1],[1,-1],[0,0],[1,0],[1,-1],[0,1],[2,2],[1,1],[0,2],[0,1],[-1,0],[0,1],[-2,1],[-3,1],[-2,2],[-1,0],[0,1],[1,0],[0,0],[2,-1],[1,0],[1,0],[2,0],[1,1]],[[284,457],[0,0],[-1,0],[0,0],[1,0]],[[234,405],[0,0],[1,0],[1,-1],[0,-1],[1,-1],[1,0],[1,0],[0,0],[0,1],[1,0],[0,0],[0,1],[2,0],[1,0],[1,1],[0,0],[0,0],[0,0],[0,0],[0,-1],[0,-1],[1,0],[0,0],[1,0],[1,0],[0,0],[0,0],[0,-2],[0,0],[0,-1],[1,0],[0,0],[1,1],[1,0],[0,0],[0,-1],[0,0],[0,-1],[0,0],[2,0],[0,0],[0,1],[0,1],[0,1],[0,0],[0,1],[0,0],[0,1],[0,0],[0,0],[1,1],[1,0],[0,-1],[1,0],[0,-1],[0,0],[1,0],[1,-1],[2,0],[0,0],[1,1],[1,0],[1,0],[1,1],[1,0],[0,1],[1,1],[0,1],[1,1],[0,0],[1,1],[1,1],[1,-1],[1,1],[1,0],[0,0],[1,-1],[1,0],[2,-1],[1,0],[1,-1],[2,0],[2,1],[1,0],[1,0],[0,0],[1,1],[1,1],[0,0],[1,1],[0,0],[0,1],[1,1],[0,0],[1,-1],[0,0],[0,1],[0,0],[0,1],[0,0],[0,1],[0,1],[0,1],[0,0],[1,0],[0,2],[0,0],[0,0],[1,3],[0,3],[0,1],[-1,0],[0,0],[0,0],[0,1],[0,0],[-1,0],[-1,1],[0,0],[0,1],[0,1],[-1,1],[-1,2],[0,2],[0,1],[0,0],[0,1],[-2,1],[0,2],[0,0],[0,1],[0,0],[0,2],[0,1],[0,0],[1,3],[0,2],[1,1],[0,1],[0,0],[0,1],[2,0],[0,0],[1,2],[-1,1],[0,0],[0,1],[0,0],[0,1],[-1,0],[0,0],[-1,0],[0,0],[-1,0],[-1,-1],[0,-1],[0,0],[0,0],[-1,2],[-1,0],[-5,-1],[-1,-1],[-1,0],[-3,0],[-2,0],[0,1],[5,0],[0,0],[0,0],[-6,1],[-2,0],[-1,0],[-1,-1],[-2,0],[-1,0],[0,1],[1,0],[1,0],[1,0],[-5,0],[-4,1],[-1,1],[-5,2],[-3,1],[-1,0],[-2,1],[-1,1],[-2,1],[-2,0],[0,0],[0,-2],[0,-3],[0,-1],[0,-1],[0,0],[1,-1],[0,0],[0,-1],[1,-1],[0,-2],[0,0],[0,0],[0,-1],[-1,-2],[0,0],[0,0],[0,0],[-2,-1],[-1,0],[0,-1],[0,0],[-1,-1],[0,0],[0,-1],[-1,-1],[-1,0],[-1,0],[0,0],[-1,0],[-1,-1],[0,0],[-1,-1],[0,0],[-1,0],[0,0],[0,0],[2,-2],[0,-1],[0,-1],[0,0],[1,-1],[0,-1],[-1,-4],[-1,-1],[0,0],[0,0],[0,-1],[1,1],[1,0],[1,0],[1,-2],[0,-1],[-1,0],[1,-1],[0,-1],[1,0],[0,-1],[-1,0],[0,0],[-1,0],[0,-1],[-1,0],[0,-2],[0,0],[1,-1],[0,0],[1,0],[1,0],[1,1],[1,0],[0,0],[0,0],[1,0],[0,0],[0,-1],[0,-1],[-1,-1],[-2,-1],[0,-1],[0,-1],[1,0],[1,-1],[0,0],[-1,-1],[0,0],[0,-1],[0,-1],[-1,0],[-1,0],[0,0],[-1,-1],[0,-2],[0,-2],[0,-1],[0,-1],[1,0],[1,-1],[0,0]],[[631,594],[-1,0],[-3,1],[-3,0],[-3,1],[-3,0],[-2,1],[-3,0],[-1,0],[1,1],[0,1],[-1,1],[-1,1],[0,1],[-1,1],[-1,0],[-1,1],[-1,1],[0,0],[2,3],[0,2],[1,1],[0,1],[0,2],[-1,2],[0,1],[1,2],[0,1],[-1,1],[-1,2],[0,1],[-1,3],[0,1],[0,1],[0,1],[1,1],[0,1],[1,1],[0,0],[2,1],[1,1],[1,1],[1,1],[1,1],[2,0],[1,0],[0,0],[1,0],[0,-1],[-1,0],[1,-1],[0,0],[1,0],[1,-1],[1,0],[0,2],[0,1],[0,2],[0,2],[0,2],[0,2],[0,2],[0,0],[-1,1],[0,0],[-1,0],[0,-1],[0,-1],[0,0],[-1,0],[-1,0],[-1,1],[-1,0],[-1,0],[0,0],[-1,0],[-1,0],[0,-1],[-1,-1],[-1,-2],[0,0],[-1,-1],[-1,0],[0,0],[-1,-1],[0,-2],[0,0],[-1,-1],[0,0],[-1,-1],[-2,0],[-2,-1],[-1,0],[-2,0],[0,-1],[-1,0],[0,-1],[-1,-2],[-2,-1],[0,-2],[0,-1],[-1,1],[-1,0],[0,0],[0,2],[-1,1],[0,0],[0,0],[-1,0],[-1,1],[-1,-1],[-2,0],[-1,0],[-2,0],[-1,0],[-1,-1],[-1,0],[-2,-1],[-1,0],[-1,0],[0,-1],[-1,0],[0,-1],[-1,-1],[0,-1],[1,-1],[-1,0],[0,0],[-1,0],[-1,0],[-2,0],[-1,1],[0,0],[-1,0],[-2,1],[0,0],[-1,0],[0,-1],[0,0],[0,-1],[0,-1],[-1,-1],[-1,0],[-1,0],[0,-1],[0,-1],[-1,0],[0,0],[-1,0],[0,1],[0,0],[-1,0],[-1,0],[-1,0],[-1,0],[-1,0],[-3,1],[0,0],[-3,0],[-2,0],[-1,0],[0,0],[-1,1],[-1,0],[-1,0],[0,0],[0,0],[0,-2],[-1,-1],[1,0],[0,-1],[1,-1],[-1,-1],[0,-1],[1,-1],[-1,-1],[0,-3],[-2,-2],[-1,-1],[-1,-1],[0,-2],[0,-3],[0,-3],[1,-2],[0,-3],[-1,-3],[-1,-2],[1,-3],[0,-2],[0,-1],[-1,0],[0,0],[-2,0],[-4,0],[-3,0],[-3,0],[0,-1],[0,0],[0,-1],[0,-2],[0,0],[-1,0],[-3,0],[-2,0],[-1,1],[-2,0],[-2,1],[0,2],[0,1],[0,1],[-1,1],[0,1],[0,0],[-1,3],[-2,0],[-2,0],[0,0],[-3,-1],[-1,0],[-1,1],[-1,0],[-2,0],[-1,1],[0,0],[-1,0],[-2,0],[-1,0],[-1,0],[0,0],[-2,-2],[-1,-3],[-1,-1],[-1,-1],[0,-1],[-1,-1],[0,-1],[0,-1],[-1,-1],[-1,-2],[0,-1],[-1,-2],[0,-1],[0,-1],[0,-1],[0,0],[-1,-1],[0,0],[0,-1],[-2,-1],[-1,0],[-2,0],[-4,0],[-3,0],[-3,0],[-4,0],[-1,0],[-2,0],[-3,0],[0,0],[-2,0],[-2,0],[-1,0],[-3,0],[0,0],[-1,0],[-1,0],[-1,0],[-1,0],[-1,0],[-1,0],[-1,1],[-2,0],[0,0],[-1,0],[-1,-1],[-1,-1],[0,0],[1,0],[1,0],[1,0],[0,-1],[0,-3],[0,-2],[0,-1],[0,0],[0,0],[0,-1],[1,0],[0,0],[1,-1],[1,-2],[2,0],[1,0],[0,-1],[0,0],[1,0],[0,0],[0,1],[0,0],[1,1],[1,0],[0,0],[1,0],[1,0],[1,-1],[0,0],[0,-1],[0,-1],[1,-1],[0,0],[0,0],[1,1],[0,0],[1,0],[0,0],[1,-1],[1,0],[1,-1],[1,0],[0,0],[1,1],[0,0],[0,0],[0,1],[-1,1],[1,1],[0,1],[0,0],[0,1],[0,0],[1,0],[0,0],[1,0],[1,0],[0,0],[2,-2],[2,-2],[1,-2],[2,-1],[1,0],[0,-1],[1,-1],[1,0],[2,-1],[1,-2],[2,-3],[0,-2],[0,-2],[0,-6],[0,-2],[0,-1],[1,-1],[1,-1],[2,-1],[0,-2],[2,-3],[1,-1],[0,-1],[1,-1],[1,0],[2,-1],[3,-2],[2,-3],[0,-2],[0,-3],[1,-3],[1,-3],[-1,-3],[1,-3],[1,-3],[0,-1],[0,-2],[0,-3],[2,-4],[1,-3],[2,-2],[0,-2],[1,-2],[0,-2],[0,-2],[0,-3],[0,-2],[-1,-1],[1,-1],[1,0],[1,-2],[2,-4],[3,-1],[2,-1],[2,0],[1,0],[1,1],[1,1],[2,1],[2,2],[1,1],[1,1],[1,0],[1,0],[2,0],[2,1],[1,1],[0,-1],[1,0],[2,1],[1,0],[3,0],[5,1],[0,0],[0,0],[1,0],[1,-3],[1,-1],[0,-1],[1,-1],[2,0],[1,0],[1,0],[1,1],[1,0],[1,-1],[2,0],[2,-1],[1,0],[2,-1],[1,-1],[2,0],[3,1],[2,0],[1,0],[2,-1],[0,0],[1,-2],[2,-1],[2,0],[1,1],[3,1],[5,0],[1,1],[1,0],[1,0],[1,-2],[1,0],[0,0],[3,1],[0,1],[1,1],[2,1],[0,1],[1,0],[0,1],[0,1],[1,0],[1,0],[0,1],[1,0],[1,1],[1,0],[0,0],[1,0],[1,0],[1,0],[1,-1],[1,-1],[2,1],[1,0],[1,1],[1,0],[1,-1],[1,-2],[1,0],[1,1],[1,1],[1,1],[1,1],[1,1],[2,2],[2,1],[1,0],[0,1],[0,1],[0,0],[1,1],[0,-1],[1,0],[0,1],[1,0],[0,0],[0,1],[1,0],[0,1],[0,0],[-1,1],[0,1],[-1,2],[1,0],[0,0],[0,1],[0,0],[0,1],[0,1],[-1,2],[0,1],[1,0],[2,0],[0,0],[0,1],[1,0],[0,0],[1,0],[0,1],[0,0],[1,1],[0,0],[0,1],[-1,1],[-3,2],[-4,5],[0,0],[-2,1],[-1,0],[0,2],[-2,1],[-1,0],[0,1],[0,1],[0,2],[-1,0],[0,2],[-1,1],[0,0],[0,1],[0,1],[-1,1],[0,3],[0,1],[0,2],[0,1],[-1,1],[0,1],[0,1],[0,3],[0,0],[0,0],[-1,1],[0,0],[-1,0],[-1,1],[-1,1],[0,1],[0,1],[0,1],[0,2],[0,0],[0,1],[-2,0],[0,1],[-1,0],[0,1],[0,1],[0,1],[1,0],[1,1],[0,0],[0,0],[0,1],[1,1],[1,1],[0,1],[0,1],[0,1],[0,1],[0,3],[0,1],[0,1],[1,2],[0,2],[1,1],[0,1],[-1,2],[0,1],[0,1],[0,1],[1,2],[0,1],[1,1],[0,1],[0,2],[1,1],[0,0],[-2,2],[0,1],[1,1],[0,2],[0,0],[2,3],[1,1],[1,1],[2,1],[0,0],[1,1],[1,2],[1,1],[0,2],[1,1],[0,2],[1,2],[1,1],[0,1]],[[430,550],[1,-2],[0,0],[1,-1],[2,-1],[0,0],[2,2],[0,0],[1,0],[0,0],[1,-1],[0,0],[-1,-1],[0,0],[1,-1],[0,0],[0,-1],[0,0],[0,-1],[-1,0],[-1,-1],[0,0],[0,-1],[1,0],[-1,-1],[0,0],[0,-1],[-1,0],[-1,0],[0,-1],[1,-1],[0,-1],[0,-2],[0,0],[0,0],[1,0],[0,0],[2,0],[0,0],[1,0],[1,0],[4,0],[0,-1],[0,-1],[0,-1],[0,0],[0,0],[-1,-1],[0,0],[1,-1],[1,-1],[0,1],[1,0],[1,1],[1,1],[0,1],[1,1],[2,1],[2,0],[1,0],[2,-1],[0,-1],[1,0],[0,0],[1,1],[0,1],[0,0],[0,1],[0,0],[1,0],[1,0],[1,0],[1,-1],[0,-1],[-1,0],[0,-1],[1,0],[0,-1],[0,-1],[0,0],[1,-1],[0,0],[1,-2],[0,0],[0,-1],[0,-1],[0,-1],[0,-2],[0,-1],[0,-1],[0,-2],[0,-2],[0,0],[0,-1],[-1,0],[-1,-1],[-1,-1],[0,0],[-1,0],[-2,-1],[0,0],[0,-1],[0,-2],[0,-1],[1,-1],[0,-1],[1,-1],[0,-1],[0,0],[2,0],[0,0],[1,-1],[0,0],[0,-1],[1,-1],[0,0],[0,-1],[-1,-1],[0,0],[0,-1],[-1,-2],[-1,0],[-1,-1],[-2,0],[-1,1],[-2,0],[-2,1],[-1,0],[-1,0],[0,0],[1,-1],[0,0],[-1,-1],[0,-1],[0,-1],[0,-2],[0,-1],[1,-2],[0,0],[3,0],[2,0],[3,0],[2,0],[2,0],[1,-1],[1,1],[1,0],[0,0],[0,0],[1,0],[1,0],[0,1],[1,0],[0,0],[1,0],[0,0],[1,0],[1,0],[0,1],[1,0],[2,0],[1,0],[2,1],[1,1],[1,1],[0,-1],[0,0],[0,0],[0,-1],[0,-1],[0,-1],[0,-1],[0,-1],[1,0],[0,0],[0,-1],[1,-1],[0,-1],[1,-2],[1,-1],[0,-1],[0,-1],[0,-1],[0,-1],[0,0],[1,-2],[0,-1],[0,0],[1,-1],[1,0],[2,0],[3,0],[0,0],[2,-1],[0,0],[1,0],[3,1],[0,0],[1,0],[0,0],[1,0],[0,0],[1,0],[0,1],[0,0],[1,-1],[1,0],[1,0],[1,0],[0,1],[1,0],[0,2],[-1,2],[0,2],[-2,2],[-1,3],[-2,4],[0,3],[0,2],[0,1],[-1,3],[-1,3],[1,3],[-1,3],[-1,3],[0,3],[0,2],[-2,3],[-3,2],[-2,1],[-1,0],[-1,1],[0,1],[-1,1],[-2,3],[0,2],[-2,1],[-1,1],[-1,1],[0,1],[0,2],[0,6],[0,2],[0,2],[-2,3],[-1,2],[-2,1],[-1,0],[-1,1],[0,1],[-1,0],[-2,1],[-1,2],[-2,2],[-2,2],[0,0],[-1,0],[-1,0],[0,0],[-1,0],[0,0],[0,-1],[0,0],[0,-1],[-1,-1],[1,-1],[0,-1],[0,0],[0,0],[-1,-1],[0,0],[-1,0],[-1,1],[-1,0],[-1,1],[0,0],[-1,0],[0,0],[-1,-1],[0,0],[0,0],[-1,1],[0,1],[0,1],[0,0],[-1,1],[-1,0],[-1,0],[0,0],[-1,0],[-1,-1],[0,0],[0,-1],[0,0],[-1,0],[0,0],[0,0],[-1,-1],[-1,-1],[0,0],[-1,0],[-1,1],[0,0],[-2,1],[-1,0],[0,1],[0,0],[-1,1],[-1,0],[0,0],[-1,2],[-1,0],[0,0],[0,0],[-1,-1],[-1,-1],[0,-1],[0,0],[0,-1],[-1,-2],[-3,-2],[-1,-1],[-2,-2]],[[772,635],[1,1],[0,1],[-1,1],[0,-1],[-1,-1],[-1,0],[0,0],[1,0],[0,0],[0,-1],[1,0],[0,0],[0,0]],[[765,637],[1,1],[-2,-1],[0,0],[0,-1],[0,0],[1,1]],[[762,633],[0,0],[-1,-1],[-1,0],[-1,-1],[1,-3],[0,-1],[0,0],[1,0],[0,1],[0,2],[1,1],[0,1],[0,1]],[[562,306],[0,5],[0,4],[0,5],[0,5],[0,5],[0,5],[0,4],[0,5],[0,2],[0,0],[0,0],[0,1],[-3,-1],[-1,0],[-1,0],[-3,1],[-1,0],[-1,0],[-1,1],[1,3],[-1,1],[0,0],[-1,1],[0,1],[-1,0],[0,1],[0,1],[0,0],[-1,1],[0,0],[-1,1],[-1,0],[0,0],[-1,1],[1,0],[0,1],[0,1],[0,1],[1,0],[0,0],[0,1],[0,0],[-1,1],[-1,0],[-1,1],[0,0],[-1,1],[0,0],[0,1],[0,0],[0,2],[1,1],[0,0],[0,1],[0,1],[0,0],[-1,1],[-2,1],[0,1],[-1,2],[0,0],[0,1],[0,0],[1,1],[1,0],[1,-1],[1,0],[1,1],[1,1],[0,1],[0,1],[0,2],[0,1],[1,0],[0,0],[1,1],[-1,3],[1,1],[0,1],[1,0],[0,1],[1,0],[0,0],[1,1],[0,0],[0,1],[0,2],[-1,1],[0,0],[-1,0],[-1,-1],[-1,0],[-2,1],[-1,0],[0,1],[-1,0],[0,0],[-1,0],[0,0],[-1,1],[-2,1],[0,0],[0,1],[0,0],[0,1],[0,1],[-1,1],[0,0],[-1,0],[0,0],[-1,1],[-1,2],[0,0],[-1,0],[-3,3],[0,0],[-1,2],[-1,1],[-1,0],[0,1],[0,0],[-1,0],[-2,2],[-3,0],[-1,0],[-2,0],[-1,1],[-1,0],[-2,0],[-3,0],[-1,0],[-1,1],[0,0],[0,0],[0,1],[0,0],[1,1],[1,1],[-1,0],[0,0],[0,0],[0,1],[-1,1],[-2,2],[-1,0],[0,1],[0,1],[-1,0],[-1,0],[-2,0],[-3,1],[-2,0],[-1,0],[-2,0],[0,1],[-1,0],[-1,0],[-2,1],[0,1],[-2,0],[-1,1],[0,0],[-1,-1],[-1,-1],[0,-1],[0,0],[-1,0],[0,0],[-1,1],[0,1],[-2,0],[-2,1],[0,0],[-2,1],[-1,0],[-1,-1],[-1,0],[0,-1],[0,0],[0,-1],[0,0],[0,-1],[-1,0],[-1,-2],[-1,-3],[-1,-2],[-2,-2],[-1,-1],[0,0],[-1,0],[0,-1],[-2,-1],[-2,-2],[-1,-1],[-1,-1],[-1,-2],[0,0],[-1,-1],[1,-1],[1,-1],[1,-1],[1,0],[3,0],[2,0],[2,0],[1,0],[1,0],[1,0],[2,0],[1,0],[-1,-1],[-1,-2],[-1,-1],[-1,-1],[-1,-2],[-1,-2],[0,-3],[0,-2],[0,-1],[1,-2],[0,-1],[0,0],[0,-2],[-1,0],[-1,-2],[0,-1],[0,-1],[-1,-3],[-1,-1],[-1,-1],[-1,-1],[0,-2],[-1,0],[-2,-1],[-2,0],[-1,-2],[-2,-2],[-2,-2],[-1,-5],[0,-2],[0,-1],[2,-2],[2,-4],[3,-5],[2,-3],[4,-4],[5,-5],[3,-3],[0,-6],[0,-5],[1,-5],[0,-5],[1,-4],[0,-3],[0,-5],[1,-1],[1,-3],[1,-1],[-1,0],[-2,-3],[-1,-1],[-1,-1],[1,-1],[-3,-5],[-1,-1],[0,-1],[0,0],[0,-4],[-1,-5],[-1,-7],[3,-2],[3,-1],[4,-2],[3,2],[5,3],[5,2],[5,3],[5,3],[5,2],[5,3],[5,2],[5,3],[4,3],[5,2],[5,3],[5,2],[5,3],[5,3],[5,2],[5,3]],[[564,420],[0,1],[0,0],[0,2],[0,1],[1,0],[1,1],[1,0],[3,0],[1,1],[1,2],[2,1],[1,1],[0,1],[-1,1],[0,0],[1,1],[1,1],[2,1],[3,2],[2,1],[1,1],[0,1],[2,1],[0,0],[0,2],[0,1],[0,0],[1,1],[0,1],[1,1],[1,1],[1,0],[1,1],[1,1],[2,0],[0,1],[1,0],[0,1],[0,1],[0,1],[1,1],[0,1],[1,1],[-3,-1],[0,0],[-1,0],[-1,2],[-1,0],[-1,0],[-1,-1],[-5,0],[-3,-1],[-1,-1],[-2,0],[-2,1],[-1,2],[0,0],[-2,1],[-1,0],[-2,0],[-3,-1],[-2,0],[-1,1],[-2,1],[-1,0],[-2,1],[-2,0],[-1,1],[-1,0],[-1,-1],[-1,0],[-1,0],[-2,0],[-1,1],[0,1],[-1,1],[-1,3],[-1,0],[0,0],[0,0],[-5,-1],[-3,0],[-1,0],[-2,-1],[-1,0],[0,1],[-1,-1],[-2,-1],[-2,0],[-1,0],[-1,0],[-1,-1],[-1,-1],[-2,-2],[-2,-1],[-1,-1],[-1,-1],[-1,0],[-2,0],[-2,1],[-3,1],[-2,4],[-1,2],[-1,0],[-1,1],[1,1],[0,2],[0,3],[0,2],[-1,0],[0,-1],[-1,0],[-1,0],[-1,0],[-1,1],[0,0],[0,-1],[-1,0],[0,0],[-1,0],[0,0],[-1,0],[0,0],[-3,-1],[-1,0],[0,0],[-2,1],[0,0],[-3,0],[-2,0],[-1,0],[-1,1],[0,0],[0,1],[-1,2],[0,0],[0,1],[0,1],[0,1],[0,1],[-1,1],[-1,2],[0,1],[-1,1],[-1,-1],[0,-1],[0,-1],[0,0],[0,-1],[0,0],[0,-1],[0,0],[0,-1],[-1,-1],[0,0],[-1,-1],[0,0],[-1,0],[0,0],[-1,-1],[-1,-1],[-2,-2],[-1,-1],[-1,-1],[-1,-2],[-1,-1],[0,-1],[0,0],[1,0],[0,0],[0,0],[0,-1],[-1,-1],[0,-1],[-1,-1],[-2,-1],[0,-1],[0,0],[-1,-4],[0,-1],[0,-1],[-1,0],[0,-1],[0,0],[0,-1],[0,0],[1,-1],[0,-4],[0,0],[-1,0],[0,0],[0,0],[-1,-1],[0,0],[0,-1],[0,0],[1,-1],[0,0],[2,-1],[0,0],[0,0],[0,-1],[1,-2],[2,-2],[0,0],[1,-1],[0,-2],[1,-1],[0,0],[0,-1],[2,-1],[1,-2],[1,0],[1,1],[1,0],[2,-1],[0,0],[2,-1],[2,0],[0,-1],[1,-1],[0,0],[1,0],[0,0],[0,1],[1,1],[1,1],[0,0],[1,-1],[2,0],[0,-1],[2,-1],[1,0],[1,0],[0,-1],[2,0],[1,0],[2,0],[3,-1],[2,0],[1,0],[1,0],[0,-1],[0,-1],[1,0],[2,-2],[1,-1],[0,-1],[0,0],[0,0],[1,0],[-1,-1],[-1,-1],[0,0],[0,-1],[0,0],[0,0],[1,-1],[1,0],[3,0],[2,0],[1,0],[1,-1],[2,0],[1,0],[3,0],[2,-2],[1,0],[0,0],[0,-1],[1,0],[1,-1],[1,-2],[0,0],[3,-3],[1,0],[0,0],[1,-2],[1,-1],[0,0],[1,0],[0,0],[1,-1],[0,-1],[0,-1],[0,0],[0,-1],[0,0],[2,-1],[1,-1],[0,0],[1,0],[0,0],[1,0],[0,-1],[1,0],[2,-1],[1,0],[1,1],[1,0],[0,0],[1,1],[0,1],[3,3],[1,1],[2,2],[0,1],[1,2],[1,2],[-1,1],[0,2],[0,1],[-1,2],[0,0],[0,1],[0,0],[1,1],[-1,1],[1,0],[1,1],[2,0],[2,0],[1,0]],[[58,333],[-1,0],[-1,0],[0,0],[0,-1],[0,0],[2,-1],[1,0],[1,1],[-1,0],[-1,1]],[[75,354],[0,1],[-2,0],[0,-1],[-1,-1],[0,-1],[0,-1],[0,0],[0,0],[1,0],[0,0],[1,1],[0,1],[1,1]],[[60,335],[0,0],[-1,0],[-1,-1],[1,0],[0,0],[1,0],[0,0],[0,1]],[[81,341],[1,0],[0,0],[0,0],[1,1],[0,0],[0,1],[-1,1],[-1,-1],[-1,0],[1,-1],[0,-1]],[[66,356],[0,0],[-1,0],[0,-1],[-1,0],[0,-1],[2,0],[0,0],[1,1],[-1,1]],[[69,337],[0,0],[0,0],[0,0],[-2,0],[0,0],[-1,1],[-1,-1],[1,-1],[0,0],[1,0],[2,1]],[[81,336],[0,1],[-1,-1],[0,0],[0,-1],[1,-1],[0,0],[0,2],[0,0]],[[78,353],[0,0],[-1,-1],[0,-1],[0,0],[1,0],[0,0],[1,0],[0,1],[-1,1]],[[404,461],[0,-1],[0,-1],[1,-1],[1,-2],[1,-2],[0,-2],[0,-2],[1,-1],[1,-1],[2,-2],[1,-1],[1,-1],[0,0],[1,-1],[1,0],[1,-2],[0,-1],[1,0],[0,0],[2,-1],[1,-1],[0,0],[0,1],[1,0],[0,0],[2,0],[0,0],[1,-1],[0,-1],[0,0],[1,0],[1,1],[1,1],[1,1],[1,0],[0,1],[1,2],[0,0],[0,1],[1,-1],[1,0],[1,0],[1,-1],[0,-1],[0,0],[0,-2],[1,0],[0,-1],[2,-1],[1,0],[-1,-1],[0,0],[0,-1],[0,-1],[0,0],[2,-2],[0,-1],[0,-1],[2,-2],[0,-3],[0,-1],[1,-1],[1,-2],[2,0],[1,-1],[0,0],[1,-1],[0,-1],[0,-1],[1,-2],[0,-1],[0,-1],[1,-1],[2,-1],[0,0],[0,-1],[1,-1],[0,-2],[0,0],[0,-1],[1,-1],[1,-2],[1,-3],[1,-3],[2,-2],[1,-1],[1,0],[1,0],[1,-1],[2,-1],[1,-1],[0,0],[0,0],[0,-1],[0,-1],[1,-2],[0,-1],[0,-1],[0,-1],[-1,-1],[0,0],[0,0],[-1,-1],[-2,0],[-1,0],[0,-1],[0,0],[0,-1],[0,-1],[-1,-5],[2,0],[2,1],[1,0],[0,2],[1,1],[1,1],[1,1],[1,3],[0,1],[0,1],[1,2],[1,0],[0,2],[0,0],[0,1],[-1,2],[0,1],[0,2],[0,3],[1,2],[1,2],[1,1],[1,1],[1,2],[1,1],[-1,0],[-2,0],[-1,0],[-1,0],[-1,0],[-2,0],[-2,0],[-3,0],[-1,0],[-1,1],[-1,1],[-1,1],[1,1],[0,0],[1,2],[1,1],[1,1],[2,2],[2,1],[0,1],[1,0],[0,0],[1,1],[2,2],[1,2],[1,3],[1,2],[1,0],[0,1],[0,0],[0,1],[0,0],[0,1],[-1,2],[-2,1],[0,1],[0,0],[-1,1],[0,2],[-1,1],[0,0],[-2,2],[-1,2],[0,1],[0,0],[0,0],[-2,1],[0,0],[-1,1],[0,0],[0,1],[0,0],[1,1],[0,0],[0,0],[1,0],[0,0],[0,4],[-1,1],[0,0],[0,1],[0,0],[0,1],[1,0],[0,1],[0,1],[1,4],[0,0],[0,1],[2,1],[1,1],[0,1],[1,1],[0,1],[0,0],[0,0],[-1,0],[0,0],[0,1],[1,1],[1,2],[1,1],[1,1],[2,2],[1,1],[1,1],[0,0],[1,0],[0,0],[1,1],[0,0],[1,1],[0,1],[0,0],[0,1],[0,0],[0,1],[0,0],[0,1],[0,1],[1,1],[0,1],[0,0],[-1,0],[0,1],[0,1],[0,1],[0,1],[0,1],[0,0],[0,0],[0,1],[-1,-1],[-1,-1],[-2,-1],[-1,0],[-2,0],[-1,0],[0,-1],[-1,0],[-1,0],[0,0],[-1,0],[0,0],[-1,0],[0,-1],[-1,0],[-1,0],[0,0],[0,0],[-1,0],[-1,-1],[-1,1],[-2,0],[-2,0],[-3,0],[-2,0],[-3,0],[0,-1],[-1,0],[0,0],[-3,0],[-2,0],[-1,-1],[-1,0],[-1,0],[-2,0],[-1,0],[-2,0],[-4,0],[-2,0],[0,1],[0,0],[0,0],[-2,0],[-3,0],[-3,0],[-2,0],[-4,0],[-1,0],[0,0],[0,-1],[0,0],[-1,0],[1,-2],[0,-2],[0,-2],[1,-2],[0,-2],[-1,0],[-2,-3],[1,0],[-1,0],[0,-1],[-1,-1],[0,0],[1,-1],[1,0],[0,0],[-1,-1],[0,0],[0,-1],[0,0],[-1,0],[0,0],[-1,0],[0,0],[0,1],[0,0],[0,0],[-1,0],[-1,0],[0,0],[0,0],[-2,-1],[-1,0],[0,-2],[-1,0],[0,-1],[0,-1],[0,-1],[0,0],[0,0],[-1,0],[0,0],[-1,-1],[0,0],[0,1],[0,0],[-1,0],[-1,0],[0,-1],[1,-1],[0,0]],[[629,534],[0,1],[-1,2],[0,0],[0,0],[1,0],[-1,1],[0,0],[0,1],[0,0],[0,0],[1,1],[1,0],[1,0],[1,0],[0,1],[0,0],[0,1],[0,1],[0,0],[-1,1],[-1,0],[0,0],[0,1],[0,0],[-1,1],[-1,1],[0,0],[0,1],[-1,1],[-1,0],[0,2],[-1,1],[-2,2],[-2,1],[0,0],[-3,0],[-1,-1],[0,-2],[-1,-2],[0,-1],[0,-1],[0,-3],[0,-1],[0,-1],[0,-1],[0,-1],[-1,-1],[-1,-1],[0,-1],[0,0],[0,0],[0,-1],[0,-1],[0,0],[1,1],[1,0],[1,1],[0,1],[1,0],[2,-1],[1,0],[0,0],[1,0],[1,-1],[0,-1],[0,-2],[0,0],[2,0],[0,1],[0,0],[1,-1],[0,0],[0,0],[2,-1],[1,1],[0,0],[0,0]],[[325,396],[-3,0],[-1,1],[0,0],[0,-1],[0,0],[-4,-1],[-2,0],[-2,-1],[0,1],[-1,0],[0,0],[-1,0],[0,1],[0,0],[-1,0],[0,1],[-1,0],[0,0],[0,-1],[-1,0],[-1,0],[-1,0],[-1,0],[-2,0],[-3,0],[0,0],[-1,0],[-3,0],[-3,0],[-3,0],[-2,0],[0,0],[-1,0],[0,0],[-1,3],[0,1],[0,1],[1,1],[0,0],[0,0],[0,1],[0,0],[0,1],[0,0],[0,1],[0,1],[1,2],[0,1],[-1,0],[0,1],[1,1],[0,1],[0,0],[-1,1],[0,0],[-1,-1],[0,-1],[0,0],[-1,-1],[0,0],[-1,-1],[-1,-1],[0,0],[-1,0],[-1,0],[-2,-1],[-2,0],[-1,1],[-1,0],[-2,1],[-1,0],[-1,1],[0,0],[-1,0],[-1,-1],[-1,1],[-1,-1],[-1,-1],[0,0],[-1,-1],[0,-1],[-1,-1],[0,-1],[-1,0],[-1,-1],[-1,0],[-1,0],[-1,-1],[0,0],[1,-1],[0,-1],[0,-1],[0,-2],[-1,-1],[1,-1],[1,0],[0,-1],[1,-2],[0,-1],[0,-1],[0,0],[0,-1],[-1,-1],[1,-1],[0,0],[1,-1],[0,0],[2,0],[2,-1],[1,0],[0,-1],[1,0],[0,-1],[1,0],[0,-1],[0,-1],[0,-1],[0,-1],[0,0],[2,-2],[0,-1],[0,-1],[0,0],[-1,-1],[1,-1],[1,-1],[0,0],[1,-1],[1,0],[1,0],[3,2],[1,0],[0,0],[1,0],[1,-1],[0,-1],[0,-2],[0,-1],[1,0],[2,0],[0,0],[1,0],[0,0],[0,-1],[0,0],[0,-2],[1,-1],[2,-2],[1,0],[1,0],[3,1],[1,0],[1,-3],[1,0],[1,-1],[0,0],[1,0],[2,-1],[2,-1],[2,-1],[0,0],[1,-1],[2,-1],[1,-1],[1,0],[1,0],[0,1],[1,0],[1,-1],[3,1],[2,1],[0,0],[0,1],[0,2],[0,1],[0,1],[1,2],[1,0],[-1,1],[1,1],[0,1],[1,1],[1,2],[1,0],[0,0],[1,0],[0,1],[1,0],[1,0],[0,0],[0,1],[1,1],[1,0],[0,1],[-1,0],[-1,-1],[0,1],[0,1],[0,2],[0,0],[1,0],[2,2],[2,2],[1,0],[1,0],[1,0],[1,0],[1,-1],[1,0],[0,0],[0,0],[1,1],[1,1],[0,1],[0,0],[-1,0],[-1,1],[0,0],[0,0],[0,0],[0,1],[1,1],[2,2],[0,1],[0,0],[-1,2],[0,1],[-3,2],[-1,0],[-3,0],[0,-1],[-1,0],[-1,0],[0,1],[0,0],[0,0],[-1,1],[0,0],[-1,0],[0,0],[0,1],[0,0],[-1,0],[0,1],[0,0],[0,0],[0,1],[-1,-1],[0,0],[0,1],[-1,0],[0,0]],[[575,695],[0,1],[0,1],[0,0],[0,1],[1,1],[0,0],[1,1],[0,1],[1,1],[2,3],[0,0],[1,1],[1,2],[0,0],[0,1],[1,3],[1,2],[1,1],[2,2],[3,1],[2,1],[2,1],[1,0],[0,1],[1,1],[0,1],[0,1],[2,0],[1,1],[1,0],[0,0],[0,1],[0,1],[0,1],[0,1],[0,1],[0,1],[0,0],[2,2],[0,1],[1,2],[0,0],[1,1],[1,0],[4,0],[2,1],[2,1],[0,0],[1,0],[0,0],[0,2],[0,0],[0,0],[0,1],[1,0],[1,0],[1,1],[0,0],[-2,1],[-1,0],[-1,2],[-1,1],[-2,0],[-1,1],[-2,0],[-2,1],[-2,2],[-1,1],[0,1],[0,0],[-1,1],[0,0],[0,1],[-1,0],[-1,0],[0,0],[0,1],[-1,0],[-1,1],[-1,0],[-1,1],[0,0],[-1,0],[0,1],[-1,1],[0,1],[-2,5],[-1,1],[-1,1],[-1,1],[-1,1],[0,0],[-3,1],[-1,0],[-1,1],[-1,0],[0,2],[-1,2],[0,2],[-1,2],[-1,2],[0,0],[-1,1],[-1,0],[-1,0],[-2,0],[-1,0],[-1,1],[-1,0],[-2,0],[-2,-1],[-1,0],[-1,-1],[-1,0],[-1,0],[-1,0],[-1,-1],[-1,-1],[-2,-1],[-1,-1],[-1,0],[-2,0],[-1,0],[0,0],[-1,1],[0,1],[-1,2],[0,1],[-1,2],[-1,2],[0,1],[-1,0],[-1,1],[-2,2],[-1,2],[-1,0],[-1,1],[-1,0],[-1,0],[0,1],[-1,1],[0,0],[-2,0],[0,0],[-4,0],[-1,0],[-1,-1],[-1,1],[-1,0],[0,-1],[-1,-2],[0,-2],[1,-1],[1,-1],[0,-1],[1,0],[-1,-1],[0,-1],[0,-1],[-1,-2],[-1,-3],[-1,-3],[-1,-1],[0,-1],[-4,-2],[0,-1],[0,0],[0,-2],[0,-4],[0,-3],[0,-3],[0,-3],[0,-4],[0,-3],[0,-3],[0,-3],[0,-3],[2,0],[3,0],[4,0],[1,0],[0,0],[0,-2],[0,-5],[0,-4],[0,-5],[0,-4],[0,-5],[0,-4],[0,-4],[0,-5],[0,-2],[3,0],[3,-1],[5,0],[4,-1],[3,-1],[4,0],[1,0],[0,0],[1,0],[2,2],[1,2],[0,0],[0,1],[0,-1],[1,0],[2,-2],[0,0],[1,-1],[1,-1],[2,0],[1,-1],[0,0],[1,1],[1,0],[2,-2],[1,0],[4,-1],[0,0]],[[332,446],[0,-1],[2,0],[0,-1],[-1,-2],[-1,0],[0,-1],[0,-1],[0,0],[0,-1],[0,-1],[1,0],[0,-4],[0,-4],[0,-3],[0,-2],[-1,-3],[0,-3],[0,-3],[0,0],[-2,-2],[0,-1],[0,-1],[0,-1],[0,-2],[0,-2],[-1,0],[-1,-1],[-2,-2],[-2,-1],[0,0],[0,0],[0,-4],[0,0],[1,-2],[0,-1],[0,0],[1,0],[0,-1],[0,0],[1,1],[0,-1],[0,0],[0,0],[0,-1],[1,0],[0,0],[0,-1],[0,0],[1,0],[0,0],[1,-1],[0,0],[0,0],[0,-1],[1,0],[1,0],[0,1],[3,0],[1,0],[3,-2],[0,-1],[1,-2],[0,0],[1,-1],[-1,-2],[0,-1],[1,0],[1,0],[1,0],[0,-1],[1,0],[1,0],[0,0],[0,0],[3,2],[1,2],[1,0],[0,1],[1,0],[1,1],[1,1],[-1,1],[0,1],[0,1],[1,2],[0,1],[1,0],[0,0],[0,1],[0,2],[0,1],[1,1],[0,0],[0,2],[0,0],[-1,0],[0,0],[-1,0],[0,1],[0,1],[0,0],[0,1],[0,2],[-1,1],[-1,0],[0,0],[-1,1],[0,0],[0,1],[-1,1],[-1,1],[0,0],[0,2],[0,1],[-1,1],[-1,0],[-2,0],[0,3],[0,2],[0,2],[0,1],[0,1],[0,2],[-1,2],[1,0],[0,1],[0,1],[0,1],[0,1],[0,0],[0,0],[0,1],[0,2],[0,1],[0,1],[0,0],[0,1],[0,1],[0,1],[0,0],[0,1],[0,2],[0,0],[-5,1],[-5,0],[-2,1]],[[450,557],[0,1],[-1,0],[-2,0],[-1,2],[-1,1],[0,0],[-1,0],[0,1],[0,0],[0,0],[0,1],[0,2],[0,3],[0,1],[-1,0],[-1,0],[-1,0],[0,0],[0,-1],[0,-1],[0,-1],[0,-2],[-1,-1],[-1,-2],[0,0],[1,0],[1,-2],[0,0],[1,0],[1,-1],[0,0],[0,-1],[1,0],[2,-1],[0,0],[1,-1],[1,0],[0,0],[1,1],[1,1],[0,0]],[[562,622],[0,1],[0,2],[0,2],[1,0],[0,1],[-1,0],[0,1],[0,0],[0,1],[0,1],[0,1],[0,2],[0,1],[0,2],[0,1],[0,1],[-1,1],[0,2],[0,0],[1,2],[0,0],[-1,0],[-1,0],[-2,0],[-3,0],[-3,0],[-3,0],[-3,0],[-2,0],[-3,0],[0,2],[0,3],[0,4],[0,3],[0,4],[0,3],[0,3],[0,4],[0,3],[0,3],[1,3],[1,3],[1,1],[1,0],[1,2],[1,1],[2,2],[2,2],[3,2],[2,2],[-3,0],[-5,1],[-3,1],[-4,1],[-2,0],[-3,1],[-1,0],[-1,-1],[-2,0],[-2,1],[-1,0],[-2,0],[-1,-1],[-1,-1],[-2,0],[-3,0],[-3,0],[-2,0],[-2,-1],[-1,1],[-2,-1],[-1,0],[-1,-1],[-1,-1],[-1,-1],[-1,-1],[0,0],[0,0],[-3,0],[-3,0],[-2,0],[-4,0],[-4,0],[-4,0],[-3,0],[-4,0],[-4,0],[-4,0],[-4,0],[-2,0],[-2,0],[-2,0],[-1,0],[0,0],[0,0],[-2,-1],[-1,-1],[-1,-1],[-1,-1],[-1,0],[-1,0],[-1,-1],[-1,0],[-1,1],[-1,0],[-1,1],[-1,1],[-1,0],[-2,0],[-1,0],[-1,0],[-1,0],[-1,0],[-1,0],[-2,0],[1,-4],[0,-1],[0,-3],[0,-5],[0,-1],[-1,-1],[1,0],[1,-1],[1,-1],[0,-1],[1,-3],[2,-6],[1,-7],[1,-3],[1,-3],[3,-4],[1,-3],[2,-1],[2,-2],[2,-2],[1,-2],[1,-3],[0,-4],[1,-4],[0,-1],[-1,-2],[0,-2],[-1,-1],[-1,-1],[-1,-1],[-1,-3],[-1,-2],[-1,-1],[0,-2],[0,-1],[-1,-2],[-1,-2],[0,-1],[1,0],[0,-1],[0,1],[0,0],[0,1],[3,-4],[0,0],[0,-1],[0,-1],[0,-1],[-3,-6],[-2,-6],[-1,-3],[-3,-3],[-1,-3],[-1,-2],[0,0],[0,-1],[1,0],[2,0],[2,-1],[2,-1],[1,0],[1,0],[1,0],[1,0],[0,0],[3,0],[1,0],[2,0],[2,0],[0,0],[3,0],[2,0],[1,0],[4,0],[3,0],[3,0],[4,0],[2,0],[1,0],[2,1],[0,1],[0,0],[1,1],[0,0],[0,1],[0,1],[0,1],[1,2],[0,1],[1,2],[1,1],[0,1],[0,1],[1,1],[0,1],[1,1],[1,1],[1,3],[2,2],[0,0],[1,0],[1,0],[2,0],[1,0],[0,0],[1,-1],[2,0],[1,0],[1,-1],[1,0],[3,1],[0,0],[2,0],[2,0],[1,-3],[0,0],[0,-1],[1,-1],[0,-1],[0,-1],[0,-2],[2,-1],[2,0],[1,-1],[2,0],[3,0],[1,0],[0,0],[0,2],[0,1],[0,0],[0,1],[3,0],[3,0],[4,0],[2,0],[0,0],[1,0],[0,1],[0,2],[-1,3],[1,2],[1,3],[0,3],[-1,2],[0,3],[0,3],[0,2],[1,1],[1,1],[2,2],[0,3],[1,1],[-1,1],[0,1],[1,1],[-1,1],[0,1],[-1,0],[1,1],[0,2],[0,0],[0,0],[1,0],[1,0],[1,-1],[0,0],[1,0],[2,0],[3,0],[0,0],[3,-1],[1,0],[1,0],[1,0],[1,0],[1,0],[0,0],[0,-1],[1,0]],[[404,101],[0,1],[0,1],[-1,0],[-1,1],[0,1],[-2,1],[0,1],[0,0],[1,1],[0,0],[1,1],[-1,2],[0,2],[-1,2],[0,1],[1,1],[0,1],[0,1],[0,2],[1,1],[0,1],[-1,2],[0,1],[0,2],[-1,1],[0,1],[-1,1],[-1,1],[-1,1],[-1,0],[-1,2],[-2,2],[0,0],[0,2],[0,1],[0,2],[1,2],[1,2],[0,1],[0,1],[2,1],[2,1],[0,0],[1,2],[1,2],[0,2],[2,2],[2,1],[2,1],[1,2],[1,0],[0,3],[1,2],[0,3],[1,3],[1,4],[0,2],[1,2],[1,3],[-2,1],[-1,0],[1,2],[2,2],[1,2],[0,1],[1,2],[0,2],[1,1],[0,2],[0,5],[0,6],[1,3],[-1,2],[-1,3],[0,1],[0,2],[1,2],[0,1],[0,2],[0,1],[-2,1],[-2,1],[0,1],[0,2],[0,1],[1,2],[2,3],[2,3],[1,1],[0,2],[1,3],[1,1],[0,1],[1,1],[0,0],[1,1],[2,-1],[5,1],[4,1],[0,1],[1,1],[2,3],[1,2],[1,2],[-6,4],[-5,3],[-5,4],[-6,3],[-5,3],[-5,4],[-6,3],[-5,3],[-3,3],[-3,2],[-2,2],[-3,3],[-2,1],[-3,3],[-1,1],[-3,3],[-1,0],[-4,1],[-4,1],[-3,1],[-3,0],[-2,1],[-3,0],[-2,1],[-3,0],[0,0],[-1,0],[0,0],[-1,0],[-1,-1],[0,0],[0,-1],[0,0],[0,-1],[1,0],[0,-1],[0,0],[0,0],[0,-1],[0,-1],[0,-2],[0,0],[0,0],[-1,-1],[-1,-1],[-2,0],[0,0],[-2,-1],[-2,0],[0,0],[-2,-2],[0,0],[-3,-1],[-1,0],[-1,0],[-1,-1],[0,-1],[0,-1],[-1,0],[-3,-2],[-1,0],[0,-1],[0,-1],[0,-1],[0,0],[0,-1],[-2,-1],[-3,-2],[-4,-3],[-3,-2],[-3,-2],[-4,-3],[-3,-2],[-3,-3],[-4,-2],[-3,-2],[-4,-3],[-3,-2],[-3,-2],[-4,-3],[-3,-2],[-3,-3],[-4,-2],[-3,-2],[-3,-2],[-2,-2],[-2,-1],[-3,-2],[-1,-1],[-2,-1],[-2,-2],[-2,-1],[-2,-1],[-2,-2],[-2,-1],[-2,-1],[-2,-1],[-2,-2],[-2,-1],[-2,-1],[-2,-1],[-1,-2],[-2,-1],[-2,-1],[-2,-1],[0,-3],[0,-2],[0,-3],[0,-2],[0,-3],[0,-1],[0,-2],[0,-1],[0,0],[1,-1],[2,-1],[0,-1],[1,0],[3,-2],[0,0],[3,-3],[1,0],[1,0],[1,0],[0,-1],[2,-1],[0,-1],[1,0],[0,0],[2,1],[2,0],[1,0],[0,0],[0,-1],[1,0],[0,-1],[0,-1],[0,0],[0,0],[1,0],[1,0],[1,0],[1,0],[1,0],[3,-1],[1,0],[2,-1],[2,-1],[1,-1],[1,-2],[1,-2],[2,-1],[1,0],[1,-1],[2,-1],[2,-1],[2,-1],[1,0],[2,0],[0,-1],[1,0],[0,-1],[-1,0],[0,-1],[-1,0],[0,0],[0,0],[0,-1],[0,-1],[0,0],[0,-1],[-1,-1],[0,-1],[0,-1],[1,0],[0,0],[1,-1],[1,1],[2,-1],[4,-1],[0,-1],[0,-1],[1,-1],[0,0],[0,0],[2,0],[2,-1],[1,0],[2,0],[2,0],[2,1],[2,0],[2,0],[2,0],[0,0],[0,-1],[0,-1],[0,-1],[1,-1],[1,-1],[-1,-1],[0,-1],[-1,0],[-1,-1],[-1,-1],[-1,-1],[0,-2],[-1,-2],[0,-1],[0,-3],[-1,-2],[0,-1],[0,-1],[0,-1],[0,-3],[-1,-2],[1,-1],[0,0],[0,-1],[-1,-1],[0,0],[0,-1],[0,-1],[0,0],[-1,-1],[-2,-2],[-1,0],[0,-1],[2,0],[1,0],[3,-1],[2,-2],[1,-1],[1,-1],[2,-1],[1,-1],[5,-3],[1,0],[2,1],[1,-1],[1,0],[1,-2],[2,-2],[2,-1],[3,-1],[2,-1],[3,-1],[7,-1],[4,0],[2,0],[3,-2],[1,-1],[6,0],[3,-1],[10,0],[1,0],[1,1],[2,2],[1,0],[1,0],[4,-2],[3,-1],[2,-1],[1,-1],[1,-1],[1,2],[4,1],[2,-1],[1,0],[0,-2],[2,1],[2,1],[2,1],[1,0],[2,0],[5,-1]]],"transform":{"scale":[1,1],"translate":[0,0]}}
