{"type":"Topology","objects":{"countries":{"type":"GeometryCollection","geometries":[{"id":"PA","type":"MultiPolygon","arcs":[[[0]],[[1]]]},{"id":"AT","type":"Polygon","arcs":[[2]]},{"id":"IN","type":"Polygon","arcs":[[3]]},{"id":"AR","type":"MultiPolygon","arcs":[[[4]],[[5]]]},{"id":"SO","type":"MultiPolygon","arcs":[[[6]],[[7]]]}]}},"arcs":[[[8,62],[0,342],[164,0],[142,0],[2,-12],[-5,-10],[-11,-19],[-1,-22],[6,-13],[4,-25],[0,-14],[-17,-11],[-13,-21],[1,-14],[7,-22],[1,-4],[-15,-3],[-11,-9],[-16,-7],[-19,-4],[-14,-7],[-3,-11],[-11,1],[-5,-9],[-7,-8],[-7,-9],[-13,-12],[-6,-11],[-1,-14],[-18,-19],[-16,-12],[-11,-6],[-14,-3],[-14,5],[-8,4],[-14,5],[-13,3],[-17,5],[-27,2],[0,-36]],[[992,62],[0,342],[-89,0],[-1,-57],[8,-4],[8,-13],[0,-16],[-11,-16],[-8,-6],[-11,-22],[-2,6],[-3,12],[-9,-5],[-2,-10],[-11,-3],[-11,0],[-17,-4],[-13,-3],[-14,-5],[-15,-3],[-5,-13],[9,-18],[-3,-29],[-2,-11],[11,-1],[9,-4],[10,-4],[11,-11],[2,-9],[-4,-8],[2,-9],[2,-6],[-2,-3],[8,2],[7,7],[7,5],[2,-12],[3,-8],[11,-4],[10,-7],[6,-11],[2,-7],[-10,-1],[-8,-7],[5,-6],[28,-2],[11,0],[11,6],[5,6],[-1,11],[9,-7],[9,-7],[8,-11],[11,-1],[16,-6],[11,-7]],[[314,404],[77,0],[109,0],[55,0],[0,-68],[-6,-7],[-9,-18],[-7,-22],[4,-16],[-12,-30],[1,-14],[-15,-5],[-16,3],[-17,1],[-14,-11],[-10,-16],[2,-18],[8,-17],[9,-8],[10,-17],[-8,-2],[0,-5],[0,-13],[20,0],[2,-7],[-10,-6],[13,-4],[7,-4],[5,-4],[7,-2],[3,-6],[0,-5],[-17,-1],[-19,-2],[-13,10],[0,8],[-11,-16],[-14,-22],[-14,5],[-24,-5],[-19,11],[-10,6],[-15,-6],[-8,-6],[-8,-5],[0,0],[-3,33],[3,5],[-14,5],[-11,3],[11,6],[-16,8],[-11,5],[-11,9],[-6,11],[-13,10],[2,15],[-5,-4],[-6,-8],[-13,2],[-14,0],[-8,9],[27,12],[2,13],[9,5],[0,11],[11,6],[11,-5],[11,-4],[27,3],[25,17],[5,13],[17,8],[16,6],[8,8],[-11,16],[-5,22],[-19,11],[-14,22],[-11,11],[-13,6],[-9,13],[-8,14],[0,27]],[[555,336],[0,68],[109,0],[109,0],[41,0],[89,0],[0,-33],[-1,-16],[1,49],[0,-33],[-1,-16],[-2,-7],[-8,-2],[-11,-4],[-7,-6],[-8,-4],[-5,-4],[-8,-1],[-14,3],[-16,6],[-9,-2],[-4,-6],[2,-17],[8,-13],[13,-9],[14,-11],[8,-4],[-5,-4],[-11,-1],[-14,-3],[-11,-1],[-11,-2],[-9,-2],[-5,-5],[-3,-8],[-3,-8],[1,-3],[-5,-2],[-6,-11],[-4,-11],[-2,-15],[-10,-2],[-5,-12],[-3,-4],[-8,1],[-5,5],[-12,8],[-5,9],[-8,15],[-9,-19],[-3,-11],[-8,-9],[-11,-7],[-13,-1],[-7,-1],[-5,-4],[-7,1],[-9,-3],[-8,-5],[6,9],[4,5],[9,2],[4,-3],[7,4],[-5,10],[-8,8],[-11,5],[-14,6],[-5,1],[5,-2],[8,-2],[9,6],[-9,13],[0,6],[-11,10],[-11,22],[-2,9],[2,17],[-13,21],[-6,5],[-5,10],[-11,11],[-19,4]],[[500,8],[492,0],[0,46],[-5,-2],[-22,-2],[-28,-1],[-27,-4],[-27,-3],[-41,-3],[-33,-5],[-8,-3],[-14,-3],[-41,4],[-27,7],[-28,4],[-27,4],[-14,5],[-41,2],[-19,-4],[-13,-4],[-33,6],[-22,5],[-22,8],[0,-57]],[[8,8],[492,0],[0,57],[-22,2],[-27,-6],[-17,-3],[6,-9],[-22,-4],[-22,-7],[-19,-8],[-19,-9],[-17,-5],[-27,-3],[-22,-1],[-24,1],[-28,2],[-27,2],[-36,4],[-5,6],[-22,14],[-22,9],[-13,-1],[-20,-2],[-21,-2],[-17,8],[-16,5],[-19,2],[-14,1],[0,-53]],[[8,404],[492,0],[0,28],[0,0],[-27,5],[-14,8],[-27,6],[-28,-3],[-27,-11],[-27,-19],[-9,-3],[-10,1],[-28,16],[-22,8],[-27,0],[-36,2],[-46,0],[-55,2],[-54,4],[-55,-44]],[[500,404],[492,0],[-27,33],[-28,-5],[-27,-5],[-27,-5],[-28,-1],[-27,1],[-27,-1],[-28,0],[-27,1],[-33,5],[-22,-1],[-27,-3],[-27,-1],[-28,1],[-27,4],[-27,3],[-28,2],[-27,0],[0,-28]]],"transform":{"scale":[1,1],"translate":[0,0]}}
