{"type":"Topology","objects":{"countries":{"type":"GeometryCollection","geometries":[{"id":"VU","type":"MultiPolygon","arcs":[[[0]],[[1]],[[2]],[[3]],[[4]],[[5]],[[6]],[[7]],[[8]],[[9]],[[10]],[[11]],[[12]],[[13]]]},{"id":"FM","type":"MultiPolygon","arcs":[[[14]],[[15]],[[16]],[[17]],[[18]]]},{"id":"MH","type":"MultiPolygon","arcs":[[[19]],[[20]],[[21]],[[22]],[[23]]]},{"id":"MP","type":"MultiPolygon","arcs":[[[24]],[[25]],[[26]],[[27]],[[28]],[[29]]]},{"id":"GU","type":"Polygon","arcs":[[30]]},{"id":"AS","type":"Polygon","arcs":[[31]]},{"id":"PN","type":"Polygon","arcs":[[32]]},{"id":"TO","type":"MultiPolygon","arcs":[[[33]],[[34]],[[35]]]},{"id":"SB","type":"MultiPolygon","arcs":[[[36]],[[37]],[[38]],[[39]],[[40]],[[41]],[[42]],[[43]],[[44]],[[45]],[[46]],[[47]],[[48]],[[49]],[[50]],[[51]],[[52]],[[53]],[[54]],[[55]],[[56]]]},{"id":"WS","type":"MultiPolygon","arcs":[[[57]],[[58]]]},{"id":"PG","type":"MultiPolygon","arcs":[[[59]],[[60]],[[61]],[[62]],[[63]],[[64]],[[65]],[[66]],[[67]],[[68]],[[69]],[[70]],[[71]],[[72]],[[73]],[[74]],[[75]],[[76]],[[77]],[[78]],[[79]],[[80]],[[81]],[[82]],[[83]],[[84]]]},{"id":"PW","type":"MultiPolygon","arcs":[[[85]],[[86]]]},{"id":"NZ","type":"MultiPolygon","arcs":[[[87]],[[88]],[[89]],[[90]],[[91]],[[92]],[[93]],[[94]],[[95]],[[96]],[[97]],[[98]],[[99]]]},{"id":"NU","type":"Polygon","arcs":[[100]]},{"id":"CK","type":"Polygon","arcs":[[101]]},{"id":"NR","type":"Polygon","arcs":[[102]]},{"id":"KI","type":"MultiPolygon","arcs":[[[103]],[[104]],[[105]],[[106]],[[107]],[[108]],[[109]],[[110]],[[111]],[[112]],[[113]],[[114]],[[115]],[[116]],[[117]],[[118]],[[119]],[[120]],[[121]]]},{"id":"WF","type":"MultiPolygon","arcs":[[[122]],[[123]]]},{"id":"PF","type":"MultiPolygon","arcs":[[[124]],[[125]],[[126]],[[127]],[[128]],[[129]],[[130]],[[131]],[[132]],[[133]],[[134]],[[135]],[[136]],[[137]],[[138]],[[139]],[[140]],[[141]],[[142]],[[143]],[[144]]]},{"id":"NC","type":"MultiPolygon","arcs":[[[145]],[[146]],[[147]],[[148]],[[149]],[[150]]]},{"id":"FJ","type":"MultiPolygon","arcs":[[[151]],[[152]],[[153]],[[154]],[[155]],[[156]],[[157]],[[158]],[[159]],[[160]],[[161]],[[162]],[[163]],[[164]],[[165]],[[166]],[[167]],[[168]],[[169]],[[170]]]},{"id":"AU","type":"MultiPolygon","arcs":[[[171]],[[172]],[[173]],[[174]],[[175]],[[176]],[[177]],[[178]],[[179]],[[180]],[[181]],[[182]],[[183]],[[184]],[[185]],[[186]],[[187]],[[188]],[[189]],[[190]],[[191]],[[192]],[[193]],[[194]],[[195]],[[196]],[[197]],[[198]],[[199]],[[200]],[[201]],[[202]],[[203]],[[204]],[[205]],[[206]],[[207]],[[208]],[[209]],[[210]],[[211]],[[212]]]},{"id":"CX","type":"MultiPolygon","arcs":[[[213]],[[214]],[[215]]]}]}},"arcs":[[[518,267],[0,3],[1,0],[0,-1],[0,0],[0,-1],[1,0],[0,0],[0,0],[0,1],[0,0],[0,0],[1,2],[0,1],[0,0],[-1,1],[-1,0],[-1,0],[0,0],[0,0],[-1,-1],[0,-1],[0,-1],[-1,-3],[0,0],[0,-1],[1,0],[0,0],[1,1]],[[522,277],[1,0],[0,0],[0,0],[1,1],[0,0],[1,0],[0,0],[0,1],[0,0],[0,1],[-1,0],[-1,0],[0,0],[0,0],[0,0],[-1,-1],[0,-1],[0,-1],[0,0],[-1,0],[0,0],[0,-1],[0,-1],[0,0],[0,0],[1,0],[0,2]],[[530,282],[0,0],[0,0],[-1,0],[-1,0],[0,0],[0,-1],[0,0],[0,0],[0,-1],[0,0],[0,1],[1,0],[0,0],[0,0],[1,1]],[[529,278],[-1,0],[-1,0],[-1,0],[0,0],[1,-1],[0,0],[1,-1],[0,1],[0,1],[1,0],[0,0],[0,0]],[[530,287],[1,1],[0,0],[-1,1],[-1,0],[-1,0],[1,0],[0,-1],[-1,0],[0,1],[0,0],[0,-1],[1,-1],[0,0],[0,0],[0,0],[1,0]],[[526,272],[0,0],[-1,0],[-1,0],[1,-1],[2,0],[-1,1]],[[528,276],[0,0],[0,-1],[0,-2],[0,-1],[0,0],[1,3],[-1,0],[0,1]],[[528,271],[0,0],[0,0],[-1,-2],[0,-1],[1,0],[0,2],[0,1]],[[521,274],[0,0],[-1,-1],[0,0],[1,0],[0,1]],[[524,263],[-1,0],[0,0],[-1,0],[0,0],[1,-1],[0,0],[1,0],[0,1]],[[523,260],[0,0],[0,0],[-1,0],[0,-1],[1,0],[0,0],[0,1],[0,0],[0,0],[0,0],[0,0]],[[540,307],[0,1],[-1,0],[0,-1],[0,0],[1,0],[0,0],[0,0]],[[537,302],[0,1],[-1,0],[0,-1],[-1,0],[0,-1],[1,0],[0,0],[0,1],[1,0]],[[536,298],[0,0],[-1,0],[-1,-1],[0,0],[0,-1],[0,-1],[0,0],[1,0],[0,1],[1,0],[-1,1],[1,0],[0,1]],[[491,123],[0,0],[0,0],[0,0],[0,0],[0,0]],[[315,93],[-1,0],[0,0],[0,0],[0,-1],[1,0],[0,0],[0,1],[0,0],[0,0]],[[410,108],[0,0],[0,0],[0,0],[0,0],[0,0],[0,0],[0,0],[0,0],[0,0],[0,0],[0,0],[0,0]],[[412,108],[0,0],[0,0],[0,0],[0,-1],[0,0],[0,0],[0,1],[0,0]],[[458,112],[-1,0],[0,0],[0,0],[-1,-1],[1,0],[0,0],[1,0],[0,1],[0,0],[0,0]],[[538,119],[0,0],[0,0],[0,0],[0,0],[0,-1],[1,0],[0,0],[0,0],[0,0],[-1,1]],[[533,109],[-1,0],[0,0],[-1,-1],[0,0],[1,0],[1,1]],[[552,110],[0,1],[1,0],[0,0],[0,0],[0,0],[0,0],[-1,0],[0,0],[0,-1]],[[549,110],[1,0],[1,0],[0,0],[-1,0],[0,0],[0,0],[-1,0],[0,0],[-1,0],[0,0],[1,0]],[[519,81],[0,0],[-1,0],[1,0],[0,0],[0,0],[0,0]],[[368,25],[0,0],[0,0],[0,0],[0,0],[0,0],[0,0]],[[368,43],[0,0],[0,0],[0,0],[0,0],[0,0],[0,0],[0,0]],[[365,59],[0,0],[0,0],[-1,0],[0,0],[1,0],[0,0],[0,0]],[[369,30],[-1,0],[1,-1],[0,0],[0,1],[0,0]],[[369,52],[0,0],[-1,0],[0,0],[0,-1],[1,0],[0,0],[0,0],[0,1],[0,0]],[[368,53],[0,0],[-1,0],[0,0],[1,-1],[0,0],[0,1]],[[361,66],[0,0],[0,-1],[0,0],[0,-1],[1,0],[0,-1],[0,0],[1,0],[0,0],[-1,1],[-1,2]],[[678,264],[-1,0],[0,-1],[1,0],[0,0],[1,0],[-1,0],[0,1]],[[979,339],[0,1],[0,-1],[0,0],[0,0],[0,0],[0,0],[0,0],[0,0]],[[646,315],[0,0],[0,-1],[1,0],[0,1],[-1,0],[0,0],[-1,-1],[0,0],[0,0],[0,0],[0,0],[1,0],[0,0],[0,0],[0,1]],[[655,295],[0,1],[-1,0],[0,0],[0,-1],[0,0],[1,0],[0,0],[0,0],[0,0]],[[648,316],[0,1],[0,-1],[0,0],[0,0],[0,0]],[[468,221],[-1,0],[0,0],[0,0],[0,0],[0,-1],[0,1],[0,0],[1,0]],[[519,244],[-1,0],[0,0],[0,0],[0,-1],[1,0],[0,1],[0,0]],[[513,238],[0,0],[0,0],[-1,0],[0,0],[-1,0],[0,0],[0,0],[0,0],[0,0],[0,-1],[1,0],[1,0],[0,0],[1,0],[-1,0],[0,1]],[[474,245],[-1,0],[0,0],[0,0],[-1,-1],[0,0],[-1,0],[0,0],[-1,0],[0,-1],[0,0],[0,0],[0,0],[0,0],[3,1],[1,1],[0,0]],[[481,229],[0,1],[0,0],[-1,0],[0,0],[0,0],[0,-1],[0,0],[0,-1],[-1,-1],[1,0],[1,2]],[[464,226],[0,0],[0,0],[-1,0],[0,-1],[0,0],[1,0],[0,0],[0,0],[0,0],[0,1],[0,0]],[[471,225],[0,0],[1,0],[0,0],[1,1],[-1,0],[0,0],[0,0],[0,0],[0,0],[-1,-1],[0,0],[-1,0],[1,0]],[[454,219],[0,1],[1,1],[0,1],[-1,0],[0,0],[0,-1],[-1,0],[0,0],[0,-1],[-1,0],[0,0],[-1,0],[0,0],[-1,0],[0,0],[0,-1],[1,0],[0,-1],[1,0],[0,-1],[1,1],[0,1],[0,0],[1,0]],[[457,224],[0,0],[0,-1],[0,0],[0,0],[0,0],[0,1]],[[456,223],[0,0],[-1,0],[0,-1],[0,0],[0,0],[0,0],[0,0],[1,-1],[0,1],[1,0],[-1,0],[0,0],[0,0],[0,1]],[[451,223],[0,0],[0,0],[-1,-1],[0,-1],[1,0],[0,0],[0,0],[0,1],[0,0],[0,0],[0,1]],[[446,217],[0,0],[0,0],[0,0],[0,-1],[-1,0],[0,-1],[0,0],[1,0],[0,0],[1,1],[0,0],[-1,1],[0,0]],[[446,219],[0,0],[-1,-1],[0,0],[0,-1],[0,0],[1,1],[0,1]],[[450,218],[0,1],[-1,0],[-1,-1],[0,-1],[1,0],[0,0],[1,0],[0,0],[0,1],[0,0],[0,0]],[[440,211],[0,0],[-1,0],[0,0],[1,-1],[0,1],[0,0]],[[453,223],[0,0],[0,0],[-1,0],[0,0],[0,0],[1,0],[0,0],[0,0]],[[468,227],[2,1],[0,0],[2,0],[2,1],[0,0],[1,1],[0,0],[0,0],[1,1],[-1,0],[0,0],[-1,1],[-1,-1],[-1,0],[-2,0],[-1,0],[-1,-1],[0,0],[0,-1],[-1,0],[0,-1],[0,-1],[0,0],[1,0],[0,0]],[[469,221],[0,1],[-1,-1],[-1,-1],[-2,0],[0,-1],[-1,0],[-1,-1],[-1,0],[0,-1],[0,0],[-1,0],[-1,-1],[0,0],[0,-1],[-1,0],[0,-1],[2,1],[1,1],[1,0],[0,0],[0,1],[1,0],[1,0],[0,1],[1,0],[3,2],[-1,1],[1,0],[0,0]],[[452,213],[0,0],[0,1],[-1,-1],[0,0],[0,0],[-1,0],[-1,0],[-1,-1],[-2,-2],[-1,-1],[0,-1],[0,0],[0,0],[1,0],[1,1],[2,1],[0,0],[1,1],[0,1],[1,1],[0,0],[1,0],[0,0]],[[475,220],[2,2],[0,0],[0,1],[0,0],[0,1],[0,0],[1,1],[0,1],[0,0],[1,0],[0,1],[1,1],[0,1],[0,0],[-1,0],[-1,-1],[-1,-1],[0,0],[-1,-1],[-1,-1],[0,-3],[0,0],[-1,-2],[0,0],[0,0],[1,0],[0,0],[0,0]],[[482,235],[1,0],[0,0],[1,0],[1,0],[0,1],[1,1],[0,1],[1,0],[-1,0],[-1,0],[0,0],[-1,0],[-1,0],[0,-1],[-2,-1],[0,0],[-1,-1],[0,0],[0,-1],[-1,0],[0,0],[0,0],[1,0],[0,0],[2,1],[0,0],[0,0]],[[666,257],[1,1],[0,1],[0,1],[-1,-1],[-1,1],[0,0],[-1,-1],[-1,-1],[0,0],[1,0],[1,-1],[1,0]],[[673,261],[-2,0],[-1,0],[-1,0],[0,-1],[-1,0],[1,0],[1,0],[2,0],[0,1],[0,0],[1,0],[0,0],[0,0]],[[420,194],[-1,1],[0,0],[0,-1],[-1,0],[0,-1],[0,-1],[0,0],[0,-1],[0,-1],[-1,-1],[-2,-2],[0,-1],[-1,0],[0,-1],[-1,0],[0,0],[-1,0],[0,-1],[-2,-1],[-1,0],[0,-1],[-3,-1],[0,-1],[-1,0],[-1,0],[1,0],[0,-1],[0,0],[1,1],[1,0],[0,1],[1,0],[1,1],[1,0],[1,0],[1,1],[1,1],[0,0],[1,1],[1,1],[1,0],[4,4],[1,1],[0,1],[0,0],[-1,0],[0,1],[0,1],[0,0]],[[412,191],[1,0],[1,0],[0,0],[1,0],[1,1],[0,1],[0,0],[0,1],[0,0],[-1,1],[0,1],[0,0],[-1,0],[-1,0],[0,1],[0,0],[1,1],[0,1],[0,0],[-1,1],[-1,0],[-1,0],[-1,0],[-1,0],[0,1],[0,0],[0,1],[-1,0],[-1,1],[0,0],[-1,0],[-1,1],[0,0],[-1,0],[0,0],[-1,1],[-1,0],[0,0],[-2,0],[-2,0],[-1,0],[-1,0],[0,0],[-1,-1],[-1,0],[0,0],[-1,0],[-1,0],[-2,-1],[0,-1],[-1,0],[-1,0],[-1,0],[0,-1],[0,-1],[1,0],[1,0],[0,0],[0,0],[1,0],[0,0],[2,0],[1,0],[0,0],[1,0],[1,0],[1,0],[0,0],[2,0],[0,-1],[1,-2],[0,-1],[0,0],[1,0],[0,1],[0,0],[-1,1],[0,0],[1,1],[0,1],[1,0],[1,0],[0,-1],[1,1],[1,0],[0,0],[1,-1],[0,0],[1,0],[0,-1],[0,0],[1,-1],[1,-1],[1,0],[0,0],[1,0],[1,-1],[0,0],[0,-1],[-1,-2],[0,-1],[0,0],[0,0],[1,0],[1,0],[0,0],[0,0]],[[335,226],[0,0],[0,-2],[0,-1],[0,-2],[0,-1],[0,-2],[0,-1],[0,-2],[0,-1],[0,-2],[0,-1],[0,-1],[-1,-1],[0,0],[0,-1],[0,-1],[1,-1],[0,-1],[0,-1],[0,-2],[0,-1],[0,-2],[0,-1],[0,-2],[0,-1],[0,-1],[0,-2],[0,-1],[0,-2],[0,-1],[0,-2],[0,-1],[0,-2],[0,-1],[0,-1],[0,-1],[0,-1],[0,0],[0,0],[1,0],[0,0],[4,2],[1,0],[0,1],[0,0],[1,0],[1,1],[3,0],[2,1],[1,0],[1,0],[2,1],[1,0],[1,1],[1,0],[0,1],[1,1],[1,0],[0,0],[1,0],[1,0],[0,0],[1,0],[0,0],[0,0],[1,1],[0,0],[1,1],[1,0],[0,1],[1,1],[1,0],[1,0],[3,3],[0,0],[0,2],[0,2],[0,1],[1,0],[2,0],[1,1],[5,2],[0,0],[1,0],[1,0],[0,0],[1,0],[0,1],[1,0],[1,1],[0,0],[0,1],[0,0],[1,1],[-1,1],[0,0],[0,1],[-3,0],[-2,0],[-1,0],[0,1],[0,0],[1,2],[1,1],[0,1],[1,0],[1,1],[0,1],[2,1],[0,0],[1,0],[1,1],[1,1],[0,1],[0,1],[0,0],[0,1],[1,0],[1,1],[0,1],[1,1],[0,1],[1,-1],[2,0],[1,0],[0,0],[0,0],[1,1],[-1,1],[0,1],[1,0],[1,1],[0,0],[2,0],[1,0],[1,1],[0,0],[0,0],[-1,0],[0,0],[-1,1],[0,0],[0,1],[1,0],[0,0],[1,0],[0,1],[1,0],[1,0],[0,0],[2,1],[1,0],[1,0],[-1,0],[-1,0],[-1,0],[0,0],[0,1],[1,1],[0,0],[0,0],[-1,1],[0,0],[-1,0],[-1,0],[-1,-1],[0,0],[-1,0],[0,-1],[-1,0],[-1,-1],[0,0],[-2,0],[-3,0],[0,0],[-1,-1],[-1,0],[0,0],[-1,0],[-1,0],[-1,0],[0,0],[-1,0],[0,0],[-1,0],[-1,0],[-1,-1],[0,0],[-1,-1],[0,0],[-1,-1],[0,-1],[-2,-1],[0,0],[-1,-1],[0,-1],[0,-1],[0,1],[-1,-1],[-1,0],[0,-1],[-1,-1],[0,-1],[-2,-1],[0,-1],[0,-1],[-1,0],[0,0],[0,-1],[0,0],[-2,0],[0,-1],[-1,0],[-1,0],[0,0],[-2,0],[0,0],[-1,-1],[-1,0],[0,0],[-1,0],[0,-1],[0,0],[-1,0],[-1,0],[0,0],[-1,0],[0,0],[0,0],[0,0],[-1,0],[0,1],[0,0],[-1,0],[-1,0],[-1,-1],[0,0],[0,-1],[-1,0],[0,0],[0,0],[2,3],[-1,0],[0,0],[0,1],[0,0],[0,0],[-1,0],[-1,0],[0,0],[0,0],[0,0],[0,1],[-1,0],[-1,1],[-1,0],[-2,0],[0,0],[-1,0],[-1,0],[0,0],[-1,0],[0,-1],[0,0],[-1,0],[0,0],[-1,0],[1,0],[1,0],[0,1],[0,0],[1,0],[2,0],[1,1],[0,0],[1,0],[1,1],[0,0],[1,1],[0,0],[0,1],[0,1],[-1,0],[-1,1],[-2,0],[-1,1],[-1,0],[-1,0],[0,-1],[-1,0],[0,0],[-2,0],[-2,0],[-1,0],[0,0],[-1,0],[-1,0],[-1,0],[0,0],[-1,0]],[[385,202],[-1,0],[0,0],[0,0],[-1,-1],[0,-1],[0,0],[0,0],[2,1],[0,0],[0,1],[0,0]],[[370,194],[0,0],[0,0],[0,0],[0,-1],[0,0],[0,0],[1,0],[0,1],[-1,0]],[[418,183],[0,1],[-1,-1],[0,0],[0,-1],[1,0],[0,1]],[[414,182],[0,0],[-1,0],[0,-1],[0,0],[0,0],[1,0],[0,1]],[[397,172],[0,0],[0,0],[-1,0],[0,-1],[0,0],[0,-1],[0,0],[1,1],[0,1]],[[406,232],[1,0],[0,0],[1,-1],[0,1],[0,1],[-1,0],[-1,0],[0,-1],[-1,0],[0,-1],[-1,-1],[0,0],[1,0],[0,1],[1,1],[0,0],[0,0]],[[401,228],[0,1],[0,-1],[-1,-1],[0,0],[0,-1],[1,1],[0,0],[0,1],[0,0]],[[407,223],[0,0],[-1,0],[0,-1],[0,0],[0,0],[0,-1],[0,0],[1,0],[0,0],[0,0],[0,1],[0,1]],[[429,242],[0,0],[0,0],[-1,0],[0,0],[-1,0],[0,0],[1,0],[0,0],[1,0],[0,0]],[[353,221],[0,0],[-1,0],[-1,-1],[2,0],[0,0],[0,1],[0,0]],[[379,199],[-1,0],[0,0],[-1,-1],[1,0],[0,0],[1,0],[0,1],[0,0]],[[378,175],[2,0],[0,0],[0,0],[0,0],[1,0],[0,0],[-1,0],[0,0],[0,1],[-1,0],[-1,0],[0,0],[-1,0],[-1,0],[-1,0],[0,0],[-1,0],[0,0],[0,0],[0,0],[1,0],[0,-1],[0,0],[1,0],[0,-1],[2,1]],[[402,180],[-2,0],[0,0],[-1,-1],[0,0],[0,-1],[-1,0],[1,0],[1,0],[2,0],[0,1],[0,0],[0,0],[0,1]],[[403,227],[1,1],[0,0],[0,0],[1,1],[0,0],[0,0],[0,1],[0,0],[0,0],[0,0],[-1,0],[-1,-1],[-1,0],[0,0],[0,0],[0,-1],[0,0],[0,-1],[0,0],[1,0]],[[417,225],[1,0],[1,0],[0,0],[0,0],[1,0],[0,1],[0,0],[0,0],[0,0],[0,0],[0,0],[-1,0],[-1,0],[0,0],[0,0],[0,-1],[-1,0],[0,0],[0,0]],[[424,243],[1,0],[0,1],[0,0],[-1,0],[0,0],[-1,-1],[0,0],[-1,0],[0,0],[0,-1],[0,0],[0,0],[0,0],[2,1]],[[353,222],[0,1],[-1,-1],[-1,-1],[0,0],[0,0],[0,0],[1,0],[1,1]],[[384,177],[-1,0],[0,0],[0,0],[0,0],[0,0],[0,0],[1,0]],[[413,181],[0,0],[-1,-1],[1,0],[0,0],[0,1],[0,0]],[[405,236],[0,1],[-1,0],[0,-1],[0,0],[1,0],[0,0]],[[425,190],[0,0],[-1,0],[1,-1],[0,0],[0,1]],[[441,208],[0,1],[0,0],[0,0],[-1,0],[0,0],[-1,1],[0,-1],[-1,0],[-1,0],[0,0],[-1,-1],[0,-1],[0,-1],[0,0],[-1,-1],[-1,0],[0,-1],[-1,0],[0,-1],[0,0],[-1,-1],[0,0],[0,-2],[0,-1],[1,0],[0,1],[0,0],[1,0],[1,1],[1,1],[0,0],[0,0],[1,1],[0,0],[1,1],[0,1],[0,0],[1,0],[1,0],[0,1],[1,1],[0,0],[0,1]],[[432,199],[0,0],[-1,-1],[0,0],[0,-1],[0,0],[0,-1],[1,0],[0,1],[0,0],[0,1],[0,1],[0,0]],[[265,139],[0,0],[0,0],[0,0],[0,0],[0,0],[0,0],[0,0],[0,0]],[[289,108],[0,0],[0,0],[0,-1],[0,0],[0,-1],[0,0],[1,0],[0,0],[0,1],[-1,1],[0,0]],[[563,483],[1,0],[1,-1],[0,0],[1,-1],[1,-1],[1,0],[1,0],[0,0],[0,0],[0,0],[-1,1],[0,0],[1,0],[-1,1],[0,0],[0,1],[1,0],[0,-1],[0,0],[0,-1],[0,0],[0,0],[0,-1],[1,1],[0,0],[0,-1],[1,0],[0,1],[0,0],[0,0],[0,1],[0,0],[-1,1],[0,0],[0,0],[1,-1],[1,0],[0,0],[-1,1],[0,0],[-1,1],[0,0],[0,1],[0,0],[0,0],[0,1],[0,1],[0,0],[1,0],[0,1],[0,0],[0,1],[-1,1],[-1,1],[-1,0],[0,1],[0,1],[-2,2],[0,0],[-1,3],[-1,1],[-1,1],[0,0],[-2,1],[0,1],[-1,0],[-1,0],[1,1],[0,0],[0,0],[0,1],[0,0],[-1,0],[0,0],[1,0],[0,0],[0,1],[1,0],[0,1],[1,0],[1,0],[0,1],[0,0],[0,1],[0,0],[-1,0],[0,0],[-1,0],[-1,0],[-1,0],[0,0],[-1,0],[1,-1],[0,0],[-1,0],[0,0],[0,0],[0,1],[0,0],[-1,0],[0,0],[-1,-1],[-1,-1],[0,1],[1,1],[0,0],[0,1],[-1,0],[-1,1],[0,0],[-1,0],[0,1],[-1,0],[-1,0],[0,0],[0,1],[-1,0],[0,0],[0,0],[0,3],[-1,1],[0,1],[0,2],[-1,0],[0,0],[1,0],[0,1],[-1,1],[0,1],[-1,1],[0,2],[-1,1],[0,1],[0,0],[0,0],[0,1],[0,0],[0,0],[0,0],[-2,1],[-1,0],[0,1],[-1,1],[-2,2],[-1,1],[0,1],[0,0],[-3,1],[-2,0],[0,0],[-1,-1],[-1,0],[-1,1],[0,0],[-1,0],[-1,0],[0,0],[0,-1],[0,0],[0,-1],[0,0],[-1,-1],[0,0],[-1,0],[-1,0],[0,0],[-1,-1],[-1,0],[-1,-1],[0,0],[-1,1],[0,0],[-2,0],[-2,0],[0,0],[-1,-1],[2,-2],[0,0],[-1,1],[-1,0],[1,-1],[0,0],[0,-1],[-1,1],[-1,0],[0,0],[0,-1],[0,0],[2,-1],[1,0],[1,0],[-2,-1],[0,0],[0,-1],[1,0],[0,0],[-1,0],[0,-1],[0,0],[1,0],[0,-1],[0,0],[0,-1],[1,1],[1,1],[-1,-1],[0,0],[1,-1],[0,0],[0,0],[-1,0],[0,0],[0,-1],[0,0],[0,-1],[1,0],[0,0],[0,0],[0,-1],[0,0],[1,-1],[1,1],[0,0],[0,-1],[0,0],[0,-1],[0,0],[1,0],[0,-1],[1,-1],[1,1],[0,0],[0,0],[0,-1],[0,-1],[1,-1],[1,-1],[1,-2],[1,0],[1,-1],[1,0],[0,0],[2,-1],[0,0],[1,0],[0,1],[0,-1],[0,-1],[1,-1],[1,0],[1,-1],[1,0],[1,0],[0,-1],[0,0],[0,0],[0,0],[0,0],[1,-1],[1,-1],[0,0],[0,0],[1,-1],[0,0],[0,0],[1,0],[0,0],[-1,0],[1,-1],[0,0],[1,0],[0,1],[0,-1],[0,0],[0,-1],[1,0],[0,1],[0,-1],[0,0],[1,-1],[1,-1],[0,0],[0,1],[0,1],[0,-1],[0,0],[0,-1],[1,-2],[1,0],[0,-1],[0,0],[0,0],[0,0],[0,-1],[0,-1],[1,-1],[0,-1],[0,-2],[1,0],[1,0],[0,-1],[1,0],[1,-1],[0,-1],[1,-3],[0,-2],[1,-2],[1,-1],[2,-1],[0,0],[1,0],[1,0],[-2,0],[0,1],[0,0],[0,1],[1,0],[0,1],[1,0],[0,1],[1,1],[0,1],[0,1]],[[569,479],[-1,1],[0,-1],[0,0],[0,-1],[1,0],[0,0],[0,1],[0,0]],[[518,526],[0,1],[0,0],[-1,0],[0,0],[0,-1],[-1,1],[0,-1],[0,0],[1,0],[1,0],[0,0]],[[519,521],[1,1],[-1,0],[0,0],[0,-1],[0,0]],[[528,538],[0,1],[-1,0],[0,0],[1,0],[0,1],[0,0],[0,0],[0,1],[0,0],[-1,0],[-1,1],[-1,0],[0,0],[-1,0],[-1,1],[0,0],[0,-1],[1,-1],[0,0],[0,-1],[1,0],[0,-1],[0,0],[0,-1],[0,-1],[1,0],[2,1]],[[580,438],[0,0],[0,0],[0,-1],[-1,0],[0,0],[0,-1],[0,0],[0,0],[0,0],[1,0],[0,1],[0,1]],[[564,426],[0,0],[1,0],[0,-1],[0,0],[0,1],[1,0],[1,0],[0,1],[1,0],[0,0],[0,0],[1,0],[1,1],[0,0],[0,0],[0,1],[0,0],[1,0],[0,0],[1,0],[0,0],[0,1],[0,0],[0,0],[1,0],[0,1],[0,1],[0,0],[0,1],[0,0],[-1,0],[0,0],[1,1],[0,1],[1,1],[1,2],[0,1],[0,0],[0,0],[0,1],[0,1],[0,1],[-1,0],[0,1],[1,0],[0,0],[1,0],[0,0],[0,0],[1,0],[1,1],[0,0],[1,0],[0,1],[0,1],[1,0],[0,0],[0,-1],[0,-1],[0,-1],[0,-1],[0,0],[0,-1],[0,0],[-1,-1],[0,0],[0,0],[1,-1],[0,1],[0,0],[1,2],[1,0],[0,0],[0,1],[1,1],[0,2],[0,2],[1,1],[0,0],[0,0],[0,0],[0,0],[0,1],[1,0],[0,0],[1,0],[2,1],[1,1],[3,1],[1,0],[0,0],[1,0],[1,-1],[0,-1],[1,-1],[0,0],[1,-1],[0,0],[1,0],[2,0],[0,0],[1,1],[0,0],[0,1],[0,1],[-1,1],[0,2],[0,2],[0,1],[-1,1],[-1,0],[0,0],[-1,2],[0,1],[0,1],[0,0],[0,0],[0,1],[0,0],[-1,-1],[0,0],[-1,0],[-1,0],[-1,0],[0,0],[-2,1],[0,0],[0,0],[-1,1],[0,1],[0,1],[0,1],[1,0],[-1,2],[-1,3],[0,0],[-1,1],[0,1],[-1,1],[-1,1],[0,1],[-1,1],[-1,2],[0,1],[-1,1],[-1,1],[-1,0],[-1,2],[-1,0],[0,0],[-1,0],[0,0],[0,-1],[0,-1],[-1,0],[-1,1],[0,0],[-1,-1],[0,-1],[1,0],[-1,0],[0,0],[0,0],[0,0],[0,1],[-1,0],[0,-1],[0,0],[0,0],[0,0],[1,-2],[1,-2],[2,-2],[0,-1],[0,-2],[0,-1],[-1,-1],[-1,-1],[-1,-1],[-1,0],[-1,-1],[0,0],[-1,-1],[-2,-1],[-1,0],[-1,-1],[0,-1],[0,0],[0,-1],[0,0],[0,0],[0,-1],[2,-1],[1,0],[1,0],[0,0],[1,-1],[0,0],[1,-1],[0,-2],[0,-1],[0,-2],[1,-1],[0,-1],[0,-1],[0,0],[1,-1],[0,0],[-1,-1],[0,-2],[-1,0],[1,-1],[0,0],[-1,0],[0,-1],[-1,-1],[1,0],[0,0],[0,1],[1,-1],[0,0],[0,0],[1,0],[-1,-2],[-1,0],[0,1],[0,0],[-1,0],[0,-1],[-1,0],[0,-1],[0,0],[-1,-3],[0,0],[1,1],[0,0],[1,0],[-1,-1],[0,0],[0,-1],[0,0],[0,0],[0,-1],[-1,0],[0,0],[0,0],[0,0],[0,0],[-1,-1],[-1,-1],[0,-1],[0,1],[0,0],[0,1],[1,2],[0,0],[0,0],[0,1],[0,-1],[-1,-1],[0,0],[-4,-6],[1,-1],[0,0],[0,-1],[1,0],[-1,0],[0,0],[0,1],[-1,0],[0,1],[0,0],[-1,-1],[0,0],[0,0],[0,-1],[0,0],[-1,0],[0,-1],[1,-1],[0,0],[-1,-1],[-1,-1],[-1,-2],[-1,-1],[1,-1],[1,0],[0,1],[0,1],[1,0],[0,2],[0,0],[1,0],[0,1]],[[535,600],[0,1],[0,0],[-1,0],[0,0],[0,-1],[0,0],[1,0],[0,0]],[[514,581],[0,0],[0,0],[-1,0],[0,0],[0,0],[-1,0],[0,0],[0,0],[0,0],[1,-1],[0,-2],[0,0],[1,0],[0,0],[0,0],[0,0],[0,1],[0,0],[0,1],[0,0],[0,0],[0,1]],[[639,507],[0,0],[-1,0],[0,1],[0,-1],[-1,0],[0,0],[0,0],[0,1],[0,0],[0,0],[0,1],[1,0],[0,1],[0,0],[-1,0],[0,1],[-1,0],[0,-1],[0,0],[0,0],[0,-1],[1,-1],[-1,0],[0,0],[-1,0],[-1,0],[1,-1],[1,0],[0,0],[3,0]],[[639,513],[0,0],[0,-1],[0,0],[0,0],[0,0],[0,1]],[[665,222],[0,0],[0,0],[0,0],[0,0],[0,0],[0,0],[0,0],[0,0]],[[674,227],[0,0],[0,0],[0,0],[0,0],[0,0],[0,0],[0,0],[0,0]],[[684,299],[0,0],[-1,0],[1,-1],[0,0],[0,0],[0,0],[0,1]],[[756,315],[0,0],[-1,0],[0,0],[0,0],[0,0],[0,0],[1,0],[0,0],[0,0],[0,0]],[[519,164],[0,1],[0,0],[0,-1],[0,0],[0,0],[0,0],[0,0]],[[562,138],[0,1],[-1,0],[1,-1],[0,0],[0,0]],[[561,139],[0,0],[-1,0],[1,0],[0,0],[0,0],[0,0],[0,0]],[[562,148],[0,0],[0,-1],[0,0],[0,0],[0,0],[0,0],[0,0],[0,1]],[[562,148],[0,0],[0,0],[0,0],[0,0],[0,0],[0,0],[0,0],[0,0]],[[562,153],[1,1],[0,0],[0,0],[-1,1],[0,0],[0,-1],[1,0],[-1,0],[0,0],[0,0],[0,-1],[0,0],[0,0]],[[573,166],[0,1],[0,-1],[0,0],[-1,-1],[0,0],[0,0],[0,0],[0,0],[1,0],[0,1],[0,0]],[[575,169],[0,1],[0,0],[0,-1],[0,0],[-1,0],[1,0],[0,0],[0,0]],[[562,151],[0,0],[0,0],[1,0],[0,0],[0,0],[0,0],[0,0],[0,0],[0,0],[-1,0]],[[538,167],[0,0],[-1,0],[0,0],[1,0],[0,0],[0,0]],[[667,193],[0,0],[0,0],[0,0],[0,0],[0,0],[0,0],[0,0],[0,0],[0,0],[0,0],[0,0],[0,0],[0,0]],[[675,183],[0,0],[0,0],[0,0],[0,0],[0,0],[0,0]],[[674,192],[0,0],[0,0],[0,0],[0,0],[0,0],[0,0],[0,0],[0,0]],[[651,194],[0,0],[0,0],[0,0],[0,0],[0,0],[0,0],[0,0],[0,0],[0,0],[0,0],[0,0],[0,0],[0,0]],[[790,190],[0,0],[0,0],[0,0],[-1,-1],[0,0],[1,0],[0,0],[0,0],[0,0],[0,1]],[[812,242],[0,1],[0,0],[0,-1],[0,0],[0,0],[0,0],[0,0],[0,0]],[[783,201],[0,0],[0,0],[0,0],[0,0],[0,0],[0,0],[0,0],[0,0],[0,0]],[[773,147],[1,1],[0,0],[-2,0],[-1,-1],[1,0],[0,0],[0,1],[1,-1],[0,0],[-1,-1],[0,0],[1,1],[0,0]],[[759,133],[0,0],[0,1],[0,0],[0,0],[0,-1],[0,0],[0,0],[0,0],[-1,0],[0,0],[0,0],[0,0],[0,0],[1,0]],[[671,180],[0,0],[0,1],[0,0],[0,0],[0,0],[0,0],[0,0],[0,0],[0,0],[0,0],[0,0],[0,0],[0,0],[0,0],[0,-1],[0,0],[0,0],[0,0],[0,0],[0,0],[0,0],[0,0],[0,0]],[[639,256],[0,0],[0,0],[0,0],[0,-1],[0,1],[0,0]],[[626,263],[-1,0],[0,0],[0,0],[0,0],[0,0],[0,0],[1,0],[0,0]],[[815,281],[-1,0],[0,0],[0,-1],[0,0],[1,0],[0,0],[0,1]],[[826,287],[0,0],[0,0],[0,0],[0,0],[0,0],[0,0],[1,0],[-1,0]],[[815,282],[0,0],[-1,0],[1,-1],[0,0],[0,1],[0,0],[0,0]],[[830,288],[1,1],[0,0],[0,1],[-1,0],[0,-1],[0,0],[-1,0],[-1,0],[0,-1],[0,-1],[0,0],[1,0],[0,0],[1,1],[0,0]],[[903,230],[1,0],[0,0],[0,1],[-1,0],[0,0],[-1,0],[0,-1],[1,0]],[[903,232],[-1,0],[0,0],[0,-1],[1,0],[0,1]],[[906,236],[-1,0],[0,-1],[1,0],[0,0],[0,1],[0,0]],[[896,224],[-1,0],[0,0],[-1,0],[0,-1],[0,0],[2,0],[0,1],[0,0],[0,0]],[[896,228],[-1,0],[0,0],[0,-1],[1,0],[0,0],[0,1]],[[890,290],[0,0],[0,0],[0,0],[0,-1],[0,0],[0,0],[1,0],[0,-1],[0,0],[1,0],[-1,0],[0,1],[-1,0],[0,0],[0,1],[0,0]],[[899,224],[0,0],[0,0],[0,0],[0,0],[0,0],[1,0],[0,0],[-1,0]],[[891,294],[0,0],[0,0],[0,-1],[0,0],[0,1]],[[890,292],[0,0],[0,0],[0,0],[-1,-1],[0,0],[0,0],[1,1],[0,0]],[[922,295],[0,0],[0,0],[0,0],[0,0],[-1,-1],[0,0],[0,0],[0,0],[0,0],[1,0],[0,1],[0,0]],[[918,293],[0,0],[-1,0],[0,0],[1,0]],[[907,312],[-1,0],[1,0],[-1,0],[0,0],[0,0],[1,0],[0,0]],[[878,277],[0,0],[0,-1],[0,0],[0,1]],[[872,280],[0,1],[-1,0],[0,-1],[0,0],[0,0],[1,0]],[[871,281],[-1,0],[0,-1],[0,0],[0,0],[1,1]],[[860,275],[0,0],[0,0],[0,-1],[-1,0],[1,0],[0,1]],[[857,278],[0,0],[0,0],[0,0],[0,0],[-1,-1],[0,0],[0,0],[0,-1],[0,1],[1,0],[0,1],[0,0]],[[500,308],[0,0],[1,0],[1,1],[3,2],[1,0],[1,1],[0,0],[1,0],[0,1],[0,0],[0,1],[1,0],[0,1],[1,0],[1,1],[0,0],[1,0],[0,1],[1,0],[2,1],[1,1],[1,1],[0,1],[1,0],[1,1],[1,1],[-1,0],[0,1],[-1,0],[0,0],[-2,-1],[0,0],[0,0],[0,0],[-1,-1],[-1,0],[0,0],[-1,-1],[0,0],[0,0],[-1,-1],[-1,0],[0,-1],[-1,0],[-2,-1],[0,0],[-1,-1],[-2,-1],[0,-1],[-1,0],[-1,-2],[-1,0],[-1,-1],[0,-1],[-1,0],[-1,-2],[0,0],[0,-1],[0,0],[0,0],[-1,-1],[1,0],[0,0],[1,1]],[[523,326],[0,0],[0,0],[0,0],[0,0],[0,-1],[0,0],[0,1]],[[469,301],[0,0],[0,-2],[1,0],[0,1],[-1,1]],[[527,317],[0,0],[1,0],[-1,1],[0,0],[-1,0],[0,0],[0,0],[0,-1],[-1,-1],[1,0],[1,0],[0,0],[0,0],[0,1]],[[516,311],[0,0],[0,-1],[0,0],[1,-1],[0,0],[0,0],[0,0],[0,0],[0,1],[0,0],[0,0],[0,1],[-1,0]],[[522,315],[0,0],[-1,-1],[-1,0],[0,-1],[0,0],[0,0],[1,-1],[0,0],[-1,-1],[0,0],[1,0],[0,0],[1,0],[0,1],[0,1],[1,1],[0,0],[-1,1]],[[612,277],[-1,1],[-1,1],[0,0],[-1,1],[0,1],[0,0],[1,-1],[1,0],[0,0],[0,0],[0,0],[0,0],[0,1],[0,0],[0,0],[-1,0],[-1,1],[-1,0],[0,0],[-1,0],[0,0],[0,-1],[0,0],[-1,0],[-1,1],[0,0],[-1,1],[0,-1],[-1,1],[0,0],[-1,0],[0,-1],[0,0],[-1,0],[0,-1],[1,0],[0,0],[0,-1],[0,1],[1,0],[0,0],[0,-1],[1,0],[0,-1],[1,0],[1,0],[1,0],[0,0],[1,-1],[1,0],[0,-1],[1,0],[0,0],[1,0],[1,0],[0,0]],[[600,286],[0,0],[0,0],[0,0],[1,1],[0,1],[1,0],[0,0],[0,1],[0,0],[0,1],[0,1],[0,0],[-1,1],[0,0],[0,0],[-1,0],[-1,0],[0,1],[-1,0],[-1,0],[0,0],[-1,-1],[-1,0],[-1,0],[-1,0],[0,-1],[-1,-1],[0,0],[0,0],[1,0],[0,-1],[0,0],[0,0],[1,0],[0,0],[-1,-1],[0,0],[1,-1],[1,0],[1,-1],[1,0],[2,0],[0,0],[0,0],[1,0]],[[612,282],[1,-1],[0,0],[0,0],[0,1],[-1,1],[0,0],[0,-1]],[[612,283],[-1,0],[0,0],[0,-1],[1,0],[0,0],[0,1]],[[601,298],[0,0],[-1,1],[0,-1],[0,0],[-1,1],[0,0],[0,0],[0,0],[-1,0],[-1,0],[1,0],[0,0],[0,0],[1,-1],[0,0],[1,0],[0,0],[1,0],[0,0]],[[619,291],[0,0],[0,0],[0,-1],[-1,0],[1,0],[0,0],[0,1]],[[621,292],[0,1],[-1,-1],[0,0],[0,0],[1,0],[0,0]],[[624,290],[0,0],[0,0],[0,0],[0,0],[0,0],[0,0]],[[619,285],[0,1],[0,-1],[0,0],[0,0],[0,0],[0,-1],[0,0],[0,1],[1,0],[0,0],[0,0],[-1,0]],[[622,299],[0,0],[0,0],[0,0],[0,0],[0,0],[0,0],[0,0],[0,0],[0,0],[0,0],[0,0],[0,0],[0,0]],[[613,298],[0,0],[0,0],[0,0],[0,0],[0,0],[0,0],[0,0],[0,0],[0,0],[0,0],[0,0],[0,0],[0,0]],[[592,284],[0,0],[0,0],[0,0],[0,0],[1,0],[0,0],[-1,0]],[[608,286],[0,0],[-1,-1],[1,0],[0,0],[0,0],[0,1]],[[607,291],[0,1],[0,-1],[0,0],[0,-1],[0,0],[0,1],[0,0],[0,0]],[[604,289],[-1,0],[0,-1],[0,0],[1,0],[0,0],[0,1]],[[612,280],[0,0],[0,0],[0,-1],[0,0],[1,0],[-1,0],[0,1],[0,0],[0,0]],[[612,277],[0,0],[0,0],[0,0],[0,0],[0,0]],[[591,250],[0,0],[0,0],[0,0],[0,0],[0,0],[0,0],[0,0],[0,0]],[[574,319],[0,0],[-1,0],[0,-1],[1,0],[0,0],[0,1]],[[621,311],[0,0],[0,0],[0,0],[0,0],[0,0],[0,0],[0,0],[0,0],[0,0],[0,0]],[[350,246],[0,1],[0,1],[0,0],[0,1],[0,0],[1,0],[0,1],[1,1],[0,1],[0,1],[1,1],[0,2],[0,1],[0,2],[0,1],[1,1],[0,1],[0,2],[1,0],[1,1],[1,-1],[1,-1],[0,0],[2,0],[0,1],[1,1],[2,1],[1,1],[1,0],[0,1],[0,1],[0,0],[0,1],[0,1],[0,1],[1,2],[0,1],[0,1],[0,2],[0,0],[0,1],[1,1],[0,0],[1,1],[1,1],[0,1],[1,0],[0,1],[1,2],[0,2],[0,3],[0,1],[0,1],[1,1],[1,1],[0,1],[-1,1],[1,1],[1,1],[1,0],[0,1],[1,0],[1,0],[1,1],[0,0],[1,0],[1,0],[0,0],[1,0],[0,1],[1,1],[1,1],[1,0],[0,1],[1,0],[0,0],[1,0],[1,1],[1,1],[1,0],[1,1],[0,0],[1,1],[-1,0],[0,0],[-1,1],[1,1],[1,1],[1,1],[1,1],[0,1],[1,1],[0,1],[1,1],[0,1],[0,2],[1,2],[0,0],[1,1],[0,0],[0,0],[1,1],[1,0],[0,0],[-1,-2],[1,-1],[0,0],[0,0],[1,1],[0,1],[2,1],[1,0],[0,0],[0,0],[0,-1],[0,0],[1,0],[0,1],[0,3],[0,2],[1,2],[0,1],[1,0],[0,1],[1,1],[1,0],[1,1],[1,1],[1,0],[1,0],[0,1],[1,2],[1,1],[1,1],[0,0],[1,1],[0,0],[1,1],[0,1],[1,1],[1,0],[0,2],[1,2],[0,1],[0,0],[1,0],[0,1],[0,2],[0,6],[0,2],[0,1],[2,3],[0,1],[0,1],[1,2],[0,2],[0,1],[0,2],[-1,1],[0,2],[0,2],[-1,3],[0,1],[-1,2],[-1,3],[0,1],[0,2],[0,1],[0,1],[0,2],[-1,3],[-2,2],[0,2],[0,1],[-1,0],[-1,1],[0,1],[0,1],[-1,0],[0,0],[0,0],[0,0],[-1,1],[-1,0],[-1,2],[-1,1],[0,1],[-1,0],[0,1],[0,1],[-1,0],[0,0],[0,1],[0,1],[0,1],[0,1],[-1,-1],[0,1],[0,0],[0,0],[1,0],[-1,1],[-1,1],[-1,1],[0,1],[0,2],[-1,1],[1,1],[-1,0],[0,1],[0,-1],[0,1],[0,0],[0,0],[0,1],[0,0],[0,0],[-1,0],[0,0],[-2,3],[0,1],[-1,2],[0,1],[0,1],[-1,2],[0,2],[0,1],[-1,2],[0,2],[1,1],[-1,1],[0,1],[0,1],[-1,0],[0,0],[-1,1],[-1,1],[-1,0],[-3,0],[-5,0],[-1,1],[-1,0],[-2,1],[-2,2],[-4,4],[-3,0],[0,0],[-1,0],[0,0],[0,1],[0,1],[1,0],[0,-1],[1,1],[0,1],[0,1],[0,0],[-1,0],[0,0],[0,0],[-1,-1],[-1,-1],[0,-1],[-1,1],[0,0],[-1,-1],[0,-1],[-1,0],[0,0],[-1,-1],[-1,0],[0,-1],[1,0],[0,-1],[0,0],[0,-1],[-1,0],[-1,0],[0,1],[0,0],[-2,1],[-1,0],[-1,-1],[1,0],[1,0],[0,-1],[1,0],[0,-1],[0,-1],[-1,-1],[-1,0],[-2,2],[-1,0],[0,0],[1,0],[0,0],[1,1],[-1,0],[-1,1],[-1,0],[-1,1],[-2,2],[-1,1],[-1,0],[-2,0],[0,0],[-1,-1],[-2,-1],[-2,-1],[-1,-1],[-1,0],[-1,1],[-2,-2],[-1,0],[-1,1],[-1,0],[0,0],[-2,-2],[-1,0],[-3,-1],[-2,-1],[-1,-2],[-2,-3],[-1,-1],[0,-1],[0,-1],[0,-1],[1,-1],[0,-1],[-1,-3],[-1,-2],[-1,-1],[-2,-1],[-1,-2],[0,0],[-1,-1],[1,1],[0,-1],[1,0],[0,1],[1,0],[0,-1],[0,-1],[0,0],[0,0],[-1,-1],[-1,1],[0,0],[-1,1],[0,0],[-1,0],[0,0],[-2,1],[-1,0],[-1,0],[0,-1],[1,-1],[0,-1],[1,-2],[0,-3],[0,-1],[-2,-1],[0,-2],[-1,-1],[0,1],[0,1],[-1,1],[0,2],[-2,4],[-1,0],[0,0],[-2,0],[-1,0],[0,0],[-1,1],[0,-1],[1,-2],[0,0],[1,0],[1,0],[0,0],[1,-2],[0,-1],[0,-1],[0,-1],[0,-1],[0,-1],[1,-2],[1,-2],[1,-1],[0,-1],[0,-1],[-1,-1],[1,0],[0,-1],[0,-3],[0,-1],[-1,0],[0,1],[0,1],[-1,1],[-1,1],[0,1],[-1,2],[-1,2],[-1,0],[0,0],[-1,1],[-1,0],[-1,1],[-1,1],[-1,0],[-2,3],[-1,2],[0,0],[0,0],[0,1],[0,0],[0,2],[0,0],[0,0],[-1,-1],[-1,1],[0,0],[-1,-2],[-1,0],[0,-1],[-1,0],[0,0],[-1,0],[0,-1],[0,0],[1,0],[0,0],[1,1],[0,0],[0,0],[0,-2],[-1,-2],[0,0],[0,-2],[0,0],[-1,-1],[-2,-1],[0,-2],[0,-1],[-1,-1],[-1,0],[-2,0],[-1,-2],[0,-2],[0,0],[1,0],[0,-1],[0,-1],[-2,-1],[-1,-1],[-1,0],[-1,-1],[-1,0],[-2,0],[-3,-2],[0,0],[-3,1],[-1,0],[-3,-3],[-2,-1],[-1,0],[-1,0],[-1,0],[-1,0],[-1,0],[-4,0],[-4,1],[-3,0],[-2,0],[-3,2],[-3,1],[-3,1],[-2,1],[-2,0],[-2,0],[-5,0],[-1,0],[-3,2],[-1,0],[-1,1],[-4,2],[-1,1],[-1,0],[-1,0],[-1,1],[-1,3],[-1,1],[-1,2],[-1,1],[-1,0],[-2,1],[-1,-1],[0,0],[-2,0],[-4,1],[-1,-1],[-1,0],[-1,0],[-2,-1],[-5,1],[-2,0],[0,0],[-2,0],[-2,1],[-1,0],[-1,1],[-1,2],[-2,1],[-1,0],[-1,0],[-3,2],[-3,2],[-1,0],[-1,1],[-1,0],[-1,0],[-3,0],[-2,0],[-2,-1],[-2,-1],[-2,0],[-2,-3],[-1,-1],[-2,-1],[0,0],[-1,1],[-1,-1],[0,-1],[0,-1],[0,-2],[0,-2],[1,0],[0,1],[2,0],[1,-1],[0,-2],[1,-1],[0,-2],[0,-3],[0,0],[0,0],[0,-2],[0,-4],[0,-2],[-2,-3],[-1,-3],[-1,-1],[0,-2],[-1,-3],[0,-1],[0,-3],[0,-2],[0,0],[-1,-3],[-2,-2],[0,-1],[0,-1],[0,-1],[-1,-2],[-2,-1],[0,-1],[0,-4],[-1,-1],[-2,-4],[-3,-4],[0,-1],[-1,-1],[0,0],[1,1],[0,0],[0,0],[0,0],[0,-1],[0,0],[1,0],[0,1],[1,1],[0,1],[1,1],[0,0],[1,-1],[0,-1],[-1,-1],[0,0],[-1,-1],[0,-2],[-1,-1],[0,-1],[0,0],[1,0],[0,1],[1,1],[0,1],[0,0],[0,1],[0,0],[0,0],[1,0],[0,-1],[0,0],[1,2],[0,1],[1,0],[0,0],[1,-1],[-1,-1],[1,-1],[0,-1],[-2,-3],[-1,-3],[-1,-1],[-1,-2],[-1,-1],[0,-1],[0,-2],[0,-1],[0,-2],[1,-1],[1,-2],[0,-1],[0,-1],[1,-1],[0,-1],[-1,-1],[0,-1],[1,-3],[1,-3],[0,0],[1,0],[0,0],[0,2],[0,1],[0,2],[0,-1],[1,0],[1,0],[0,-1],[1,-3],[1,0],[1,-1],[2,-1],[2,-1],[1,-1],[2,-1],[0,-1],[1,0],[5,-3],[0,0],[1,0],[1,0],[1,0],[1,0],[1,0],[2,0],[1,-1],[2,-1],[1,0],[2,-1],[2,0],[2,-2],[2,0],[2,0],[1,-1],[3,0],[2,0],[3,-2],[1,0],[1,-1],[1,-1],[1,-2],[1,-1],[0,-1],[1,-1],[0,-1],[1,-1],[1,0],[2,-2],[0,0],[0,-1],[0,0],[0,-1],[-1,-1],[0,-2],[0,-1],[0,0],[1,-2],[0,0],[1,-1],[1,0],[0,-1],[1,0],[0,-1],[1,-1],[0,-1],[1,0],[0,2],[1,1],[1,1],[1,2],[0,1],[1,1],[0,0],[0,0],[0,-1],[0,-1],[0,-1],[0,-1],[0,0],[1,0],[0,1],[1,0],[0,0],[0,-1],[0,0],[0,-1],[-1,0],[0,0],[0,-1],[-1,0],[0,-1],[-1,-1],[1,0],[0,0],[0,0],[1,-1],[-1,-1],[1,0],[0,0],[1,2],[0,0],[1,-1],[0,0],[1,0],[0,0],[1,1],[1,0],[1,0],[1,0],[1,0],[-1,0],[0,-1],[-1,0],[-1,0],[0,0],[0,-1],[0,0],[0,0],[1,0],[0,0],[0,-1],[0,-1],[1,0],[0,-1],[-1,1],[0,1],[-1,-1],[0,-1],[0,-1],[0,-1],[1,0],[0,0],[1,0],[0,-1],[0,0],[0,-1],[0,1],[2,0],[0,1],[1,0],[0,-1],[0,0],[-1,0],[0,0],[-1,-1],[0,0],[0,0],[1,-1],[0,0],[0,0],[0,0],[0,-1],[1,1],[1,0],[0,0],[1,0],[0,0],[0,0],[-1,-1],[0,0],[-1,-1],[0,-1],[1,0],[0,-1],[1,0],[0,0],[1,0],[0,0],[0,-1],[0,-1],[1,0],[0,0],[0,1],[0,1],[0,0],[0,0],[0,0],[0,-1],[1,1],[0,0],[0,0],[0,1],[1,-1],[0,0],[0,-1],[1,-1],[0,0],[0,-1],[0,0],[0,0],[0,-1],[0,0],[1,0],[0,1],[0,0],[0,0],[1,0],[0,-1],[1,1],[0,0],[1,0],[1,-1],[0,-1],[0,0],[1,-1],[0,0],[1,1],[1,1],[2,0],[0,1],[1,1],[1,0],[1,2],[2,1],[0,1],[0,0],[-1,1],[0,1],[0,2],[0,0],[1,-1],[0,0],[0,1],[0,-1],[0,0],[0,-1],[0,0],[0,-1],[1,0],[0,0],[0,-1],[0,0],[1,0],[1,0],[0,0],[3,1],[1,0],[0,1],[0,1],[0,-1],[0,-1],[0,-1],[1,1],[1,0],[1,1],[0,0],[0,0],[0,0],[0,0],[0,-1],[0,-1],[1,0],[1,0],[-1,0],[0,0],[-1,-1],[0,0],[1,-1],[0,0],[-1,0],[-1,0],[-1,-1],[1,-1],[1,-2],[1,0],[0,0],[0,-1],[0,-1],[0,0],[1,-1],[0,-1],[1,0],[1,0],[0,0],[1,-1],[-1,-1],[0,-1],[0,-1],[1,0],[1,-1],[0,-1],[1,0],[0,0],[0,-1],[0,0],[0,-1],[1,1],[0,0],[1,1],[0,-1],[0,0],[0,-1],[0,0],[1,0],[0,-1],[0,0],[0,0],[1,0],[1,-1],[0,0],[0,0],[0,1],[1,1],[2,0],[1,-1],[1,0],[0,1],[1,-1],[1,0],[1,0],[0,1],[0,-1],[1,-1],[0,0],[1,0],[0,0],[-1,0],[0,-1],[0,-1],[0,0],[1,-1],[-2,-1],[-1,0],[-1,0],[-1,0],[-1,-1],[0,-1],[0,0],[1,0],[0,0],[1,0],[0,1],[0,-1],[0,0],[1,0],[0,0],[2,1],[1,1],[0,0],[1,-1],[1,0],[0,1],[1,1],[0,0],[2,1],[0,0],[1,0],[1,0],[1,0],[2,1],[1,1],[1,0],[0,0],[1,0],[1,-1],[1,1],[0,0],[1,1],[2,0],[1,-1],[1,0],[1,-1],[1,0],[0,-1],[1,0],[-1,1],[0,0],[1,0],[0,0],[-1,1],[-1,1],[0,0],[0,0],[1,0],[0,0],[1,0],[0,0],[1,1],[0,1],[1,0],[0,0],[1,-1],[-1,-1],[0,0],[0,-1],[1,-1],[1,0],[1,1],[0,1],[1,0],[1,0],[0,1],[-3,3],[0,1],[0,0],[1,1],[-1,1],[-1,1],[0,-1],[-1,0],[0,0],[-1,0],[-1,1],[0,2],[0,2],[0,1],[-1,1],[0,1],[-1,0],[-1,2],[0,1],[-1,1],[0,0],[0,1],[1,0],[2,2],[1,0],[2,1],[0,1],[0,1],[2,0],[0,1],[1,0],[0,-1],[0,0],[0,0],[0,1],[0,0],[0,1],[1,0],[1,0],[0,0],[1,0],[1,1],[1,0],[1,1],[1,1],[2,1],[1,1],[1,1],[2,1],[1,0],[1,0],[2,0],[0,1],[1,1],[0,0],[0,2],[2,0],[2,1],[1,1],[0,0],[1,0],[1,0],[2,0],[1,-1],[2,-1],[0,-1],[1,-2],[1,-2],[1,-2],[0,-2],[1,-1],[0,-1],[0,-2],[1,-3],[0,-1],[0,-2],[0,-2],[0,-1],[0,-2],[0,-1],[-1,0],[0,-1],[1,-2],[0,-1],[0,-1],[0,-3],[1,0],[0,-1],[1,0],[0,0],[0,0],[0,-1],[0,0],[0,0],[-1,0],[0,-1],[0,0],[0,-1],[1,-2],[0,-1],[0,1],[1,0],[0,-1],[0,0],[0,-2],[1,-3],[0,-2],[1,-1],[1,0],[0,-1],[1,0],[0,0],[0,1],[0,0],[1,1],[0,1],[1,1],[0,1],[0,0],[0,2],[0,1],[1,1],[0,0],[1,0],[0,0]],[[421,350],[-1,0],[0,0],[0,-2],[0,0],[0,-1],[1,0],[-1,-1],[1,-1],[1,-1],[0,0],[-1,-1],[0,0],[0,-1],[1,0],[0,0],[0,0],[0,1],[1,1],[0,1],[-2,3],[0,2],[0,0]],[[324,280],[0,1],[-1,0],[0,0],[0,0],[-1,0],[0,0],[0,0],[0,-1],[0,0],[1,-1],[1,0],[1,0],[0,0],[1,1],[-1,0],[-1,0]],[[304,260],[1,0],[0,0],[0,-1],[1,0],[0,1],[0,0],[-1,0],[0,0],[0,1],[0,1],[0,0],[0,0],[1,1],[0,-1],[0,0],[0,1],[0,0],[-1,0],[-1,0],[-1,0],[-1,0],[0,0],[0,-1],[0,0],[0,-1],[0,-1],[1,0],[0,-1],[1,0],[0,0],[0,0],[0,1]],[[260,244],[1,0],[0,1],[0,0],[0,0],[-1,0],[-1,0],[-1,0],[-1,0],[0,0],[0,-1],[1,0],[0,0],[0,-1],[0,0],[0,-1],[1,0],[0,0],[0,0],[0,1],[1,1],[0,0]],[[261,242],[1,0],[1,0],[1,0],[0,0],[1,-1],[0,0],[1,0],[0,0],[1,1],[0,0],[0,0],[1,0],[-1,1],[0,1],[-1,-1],[0,1],[-3,2],[-2,-1],[-1,-1],[0,-1],[0,-2],[-1,0],[0,0],[1,0],[0,0],[0,0],[1,0],[0,1]],[[137,352],[0,1],[-1,-3],[-1,-1],[1,-1],[0,0],[1,3],[0,0],[0,1],[0,0],[0,0]],[[311,433],[1,0],[1,0],[1,0],[0,1],[0,0],[0,0],[-2,0],[-1,0],[0,1],[0,0],[-1,1],[-1,-1],[-1,0],[-1,0],[0,0],[-1,1],[-1,-1],[-1,0],[-1,-1],[0,-1],[1,0],[3,-1],[2,0],[1,0],[1,0],[0,0],[0,1],[0,0]],[[367,456],[-1,1],[-1,-1],[0,0],[0,0],[1,0],[1,0]],[[365,457],[1,1],[0,0],[-1,0],[-1,0],[1,-1],[0,0],[0,0]],[[392,308],[0,0],[0,0],[-1,0],[1,-1],[0,0],[0,1],[0,0]],[[391,307],[0,0],[0,0],[0,-1],[0,0],[0,0],[0,1],[0,0]],[[407,332],[0,1],[0,0],[1,0],[-1,0],[1,1],[0,0],[0,1],[0,0],[-1,-1],[-1,-1],[0,-1],[1,0]],[[402,323],[0,0],[0,0],[0,0],[0,0],[0,0],[1,0],[-1,0]],[[398,322],[0,1],[0,-1],[0,-1],[0,0],[0,1],[0,0]],[[424,363],[-1,3],[0,0],[0,-1],[0,-1],[0,-1],[1,0],[0,0]],[[423,362],[0,1],[0,-1],[0,-1],[0,-1],[0,0],[0,0],[0,2],[0,0]],[[344,237],[-1,1],[0,-1],[0,0],[0,0],[0,-1],[1,1]],[[344,233],[0,1],[-1,0],[0,-1],[0,0],[1,0],[0,0]],[[343,233],[0,0],[0,0],[0,-1],[0,1],[0,0]],[[372,292],[0,1],[1,1],[0,0],[-1,0],[0,0],[0,-1],[-1,0],[0,0],[1,0],[0,-1],[0,0],[0,0]],[[304,242],[-1,0],[0,0],[0,0],[1,-1],[0,0],[0,-1],[0,0],[1,-1],[0,0],[0,2],[-1,1]],[[302,244],[-1,0],[0,-1],[2,0],[0,0],[0,0],[-1,1],[0,0]],[[307,274],[0,1],[-1,-1],[0,0],[0,0],[0,-1],[0,0],[0,0],[1,0],[0,1],[0,0]],[[305,273],[0,0],[0,-1],[1,0],[0,1],[-1,0]],[[304,273],[-1,0],[0,0],[0,0],[0,-1],[0,0],[1,0],[0,1]],[[324,284],[0,0],[0,0],[0,0],[0,-1],[1,1],[0,0],[-1,0]],[[301,260],[0,0],[-1,0],[0,-1],[0,0],[0,0],[1,0],[0,0],[0,1],[0,0]],[[275,241],[0,1],[-1,-2],[1,0],[-1,0],[1,-1],[0,0],[0,0],[0,1],[0,0],[0,1]],[[223,265],[-1,1],[0,-1],[0,0],[0,-1],[1,1],[0,0],[0,0]],[[218,271],[0,1],[0,0],[0,-1],[-1,0],[1,0],[0,-1],[0,0],[0,1],[0,0],[0,0]],[[153,312],[0,0],[-1,0],[0,0],[1,-1],[0,0],[0,0],[0,1]],[[364,479],[0,0],[1,-1],[0,0],[1,1],[0,0],[1,0],[0,0],[0,1],[1,0],[0,0],[1,0],[0,1],[2,1],[2,0],[1,0],[1,0],[0,-1],[1,1],[0,0],[0,0],[0,-1],[1,0],[0,-1],[1,0],[1,0],[0,0],[1,0],[0,0],[1,1],[0,-1],[1,-1],[0,0],[1,0],[1,0],[0,-1],[1,0],[1,1],[1,1],[0,2],[0,0],[0,1],[0,1],[0,1],[0,1],[0,1],[0,1],[0,1],[0,1],[0,0],[0,1],[0,0],[0,1],[0,0],[0,1],[0,-1],[0,0],[0,0],[0,-1],[-1,0],[0,0],[0,-1],[0,0],[0,0],[0,0],[0,1],[0,0],[-1,0],[0,1],[0,0],[0,1],[0,1],[-1,1],[0,1],[0,0],[0,2],[0,1],[0,2],[0,0],[-1,1],[0,0],[-1,-1],[0,-1],[0,-1],[1,1],[0,-1],[0,0],[0,0],[-1,-1],[0,0],[-1,0],[0,1],[0,1],[0,0],[-1,-1],[0,-1],[0,0],[0,1],[0,0],[0,1],[-1,0],[0,0],[0,1],[0,1],[0,0],[-2,-1],[0,0],[0,1],[1,0],[0,1],[-1,0],[0,2],[0,1],[-1,0],[-1,0],[-1,-1],[-1,0],[-1,0],[-1,0],[-1,-1],[0,0],[0,-1],[1,0],[1,0],[0,0],[0,0],[-1,0],[-1,-1],[-1,0],[0,0],[-1,-2],[0,0],[-1,-1],[0,0],[0,0],[-2,-4],[0,-1],[0,-2],[1,1],[0,1],[1,1],[0,-1],[0,-1],[-1,-1],[0,0],[0,-1],[-1,1],[0,0],[0,-1],[0,-1],[-1,-2],[-1,-1],[-1,-3],[0,0],[0,0],[-1,-2],[0,-1],[0,-1],[0,-2],[0,-1],[1,1],[2,1]],[[356,472],[-1,0],[0,0],[0,-1],[0,-1],[0,0],[0,-1],[0,-1],[1,0],[0,-1],[0,0],[1,1],[0,1],[0,1],[0,1],[0,0],[-1,1],[0,0]],[[385,469],[1,2],[0,0],[1,0],[0,1],[-1,0],[1,1],[0,0],[0,0],[-1,0],[-1,1],[0,-1],[0,0],[0,0],[-1,-2],[0,0],[0,-1],[-1,0],[0,0],[0,0],[1,-1],[1,0]],[[380,504],[0,1],[-1,-1],[0,1],[-1,-1],[0,0],[1,0],[0,0],[0,-1],[0,0],[0,0],[0,-1],[1,0],[0,1],[0,1]],[[385,497],[0,0],[0,0],[0,-1],[0,0],[0,0],[1,0],[0,0],[-1,1],[0,0]],[[381,502],[-1,0],[0,0],[0,-1],[0,0],[0,0],[0,0],[0,-1],[0,1],[1,1]],[[362,476],[-1,1],[0,-1],[0,0],[1,-1],[0,0],[0,1]],[[387,474],[1,1],[0,0],[-1,1],[0,0],[0,-1],[-1,0],[-1,0],[0,0],[0,0],[0,-1],[1,1],[1,-1]],[[386,476],[0,1],[-1,-1],[0,0],[1,0],[0,0],[0,0]],[[462,627],[0,0],[0,0],[0,-3],[0,0],[0,1],[0,2]],[[84,236],[0,0],[0,0],[-1,0],[0,-1],[1,0],[0,0],[0,0],[0,1]],[[21,248],[0,0],[0,0],[0,0],[0,0],[0,0],[0,0],[0,-1],[0,0],[0,1],[0,0],[0,0],[0,0],[0,0]],[[22,248],[0,0],[0,0],[-1,0],[0,0],[1,0],[0,0],[0,0],[0,0],[0,0],[0,0],[0,0]]],"transform":{"scale":[1,1],"translate":[0,0]}}
