{"type":"Topology","objects":{"countries":{"type":"GeometryCollection","geometries":[{"id":"VE","type":"MultiPolygon","arcs":[[[0]],[[1]],[[2]],[[3]],[[4]]]},{"id":"UY","type":"Polygon","arcs":[[5]]},{"id":"SR","type":"Polygon","arcs":[[6]]},{"id":"PE","type":"Polygon","arcs":[[7]]},{"id":"PY","type":"Polygon","arcs":[[8]]},{"id":"GY","type":"Polygon","arcs":[[9]]},{"id":"EC","type":"MultiPolygon","arcs":[[[10]],[[11]],[[12]],[[13]],[[14]],[[15]],[[16]],[[17]],[[18]]]},{"id":"CO","type":"MultiPolygon","arcs":[[[19]],[[20]]]},{"id":"CL","type":"MultiPolygon","arcs":[[[21]],[[22]],[[23]],[[24]],[[25]],[[26]],[[27]],[[28]],[[29]],[[30]],[[31]],[[32]],[[33]],[[34]],[[35]],[[36]],[[37]],[[38]],[[39]],[[40]],[[41]],[[42]],[[43]],[[44]],[[45]],[[46]],[[47]],[[48]],[[49]],[[50]],[[51]]]},{"id":"BR","type":"MultiPolygon","arcs":[[[52]],[[53]],[[54]],[[55]],[[56]],[[57]],[[58]],[[59]],[[60]],[[61]],[[62]],[[63]],[[64]],[[65]],[[66]],[[67]],[[68]]]},{"id":"BO","type":"Polygon","arcs":[[69]]},{"id":"AR","type":"MultiPolygon","arcs":[[[70]],[[71]],[[72]],[[73]]]}]}},"arcs":[[[622,129],[-2,1],[0,-1],[1,0],[0,0],[1,-1],[0,0],[0,0],[1,0],[-1,1],[0,0]],[[584,105],[0,2],[0,0],[-1,1],[-1,0],[0,0],[-1,0],[-1,-1],[0,1],[-2,-1],[-1,0],[1,-1],[1,0],[1,0],[0,0],[1,1],[1,0],[0,-1],[1,-1],[1,0]],[[567,109],[0,0],[-2,0],[0,-1],[0,0],[1,0],[1,0],[0,1]],[[619,133],[0,0],[0,-1],[0,-1],[1,-1],[0,0],[1,0],[0,1],[0,0],[0,1],[-1,0],[-1,1]],[[631,137],[3,2],[0,1],[-1,0],[-1,1],[0,0],[-1,2],[-2,0],[-1,1],[-1,1],[0,0],[-2,0],[0,1],[-1,2],[0,0],[-1,1],[0,0],[1,2],[0,0],[0,1],[0,1],[1,0],[0,1],[1,-1],[1,0],[0,1],[1,0],[0,0],[-1,1],[0,1],[-2,1],[-1,1],[-1,0],[-1,0],[-1,0],[0,0],[-1,1],[0,0],[-2,0],[0,0],[-1,1],[0,0],[0,1],[1,1],[0,1],[0,2],[0,0],[-1,1],[-1,1],[-1,1],[0,1],[3,2],[2,3],[3,3],[0,0],[1,0],[0,1],[0,1],[0,1],[0,1],[0,0],[-1,1],[-1,0],[-1,1],[-1,1],[0,1],[-1,0],[0,0],[-2,0],[-1,0],[-1,1],[-1,0],[-1,2],[-3,1],[-3,1],[-1,0],[-3,-1],[0,1],[-1,0],[-1,1],[-1,0],[0,0],[0,1],[-1,3],[-1,1],[-1,0],[-1,-1],[-1,-1],[-2,-2],[0,0],[-1,0],[-2,1],[-1,0],[0,-1],[-1,0],[-2,0],[-1,1],[-1,-1],[-1,-1],[0,0],[-1,-1],[0,0],[-3,0],[-1,0],[-1,0],[0,-1],[-1,0],[-1,0],[0,0],[2,2],[0,1],[1,1],[4,3],[0,1],[0,1],[0,1],[0,2],[1,2],[2,3],[0,1],[0,1],[0,1],[0,0],[0,0],[1,1],[3,0],[1,0],[2,0],[1,1],[-1,1],[0,1],[0,0],[-2,0],[-1,1],[-2,1],[-1,0],[0,0],[-1,1],[0,0],[0,2],[-1,1],[-1,1],[-1,1],[-1,0],[-1,0],[0,1],[-1,0],[-1,1],[-1,1],[-1,0],[-1,0],[-1,1],[-1,1],[-1,1],[-1,1],[-1,0],[0,1],[-1,2],[-1,0],[0,-1],[0,-1],[0,-1],[-1,-1],[0,0],[-1,0],[-1,1],[-1,1],[-1,0],[-1,1],[-1,0],[-1,0],[-1,0],[-1,0],[-2,-2],[-3,-3],[0,-1],[0,0],[-1,-1],[0,-2],[-1,0],[0,-1],[-1,-2],[0,-1],[-1,-1],[1,0],[-1,-1],[0,0],[-1,-2],[0,0],[0,-1],[0,0],[-1,-1],[-1,-1],[-1,-1],[-1,0],[0,0],[0,-1],[-1,0],[0,0],[-1,-1],[-2,1],[0,-1],[1,0],[3,-4],[2,-2],[0,0],[0,0],[0,-1],[0,0],[-2,-3],[-1,0],[0,-1],[-1,-1],[-1,-2],[-1,-2],[0,-1],[0,-1],[0,-1],[-1,0],[0,-2],[0,-3],[0,-3],[0,-1],[1,-2],[1,0],[0,-2],[0,-2],[1,-1],[1,-1],[0,-2],[0,-1],[0,0],[-1,-1],[-2,0],[-2,0],[-1,0],[-2,1],[-4,1],[-3,0],[-3,0],[-2,0],[-1,1],[-1,0],[0,0],[-1,-1],[0,1],[-1,0],[-2,-2],[-1,-2],[-3,-3],[-2,-2],[-1,-1],[0,1],[-1,0],[-2,-1],[-1,0],[0,0],[-2,-1],[-1,0],[-1,1],[-2,1],[-1,0],[-2,0],[-2,0],[-2,0],[-3,0],[-1,1],[-1,-1],[-1,0],[-1,-2],[-1,-1],[-1,-1],[-1,0],[-1,0],[0,-1],[0,-1],[0,-2],[0,-1],[0,-1],[0,-1],[1,-1],[-1,-1],[0,-1],[0,-2],[-2,-1],[-2,-1],[-1,-3],[-1,-3],[-1,0],[0,0],[-1,0],[-1,-1],[0,0],[-1,0],[-1,0],[-1,1],[-1,0],[0,-1],[1,-1],[1,-2],[0,-1],[1,-2],[1,-1],[0,-3],[0,-2],[1,-4],[1,-3],[0,-1],[2,-2],[0,-1],[1,-1],[2,-1],[3,-6],[0,-1],[3,-1],[3,-1],[1,0],[1,-1],[0,0],[0,1],[-1,1],[-1,0],[-4,2],[-1,0],[0,1],[0,1],[0,0],[2,3],[0,1],[2,1],[0,0],[-1,0],[1,2],[1,2],[0,1],[-1,2],[-1,2],[-1,2],[-1,1],[-1,4],[1,2],[1,1],[1,1],[1,1],[0,0],[0,1],[1,2],[1,0],[0,0],[1,0],[3,-1],[1,0],[0,-1],[2,-2],[0,-2],[0,-2],[-1,-2],[-2,-2],[0,-1],[-2,-2],[-1,-2],[-1,-1],[0,-1],[0,-2],[0,-1],[0,-1],[3,-1],[5,-3],[3,-1],[4,-2],[1,-1],[1,-1],[0,0],[2,1],[1,0],[1,-1],[-1,-2],[-1,0],[-4,1],[0,-1],[0,0],[-1,-2],[0,-2],[1,-1],[1,-1],[1,0],[1,1],[1,0],[0,1],[1,2],[1,2],[0,1],[1,1],[1,0],[1,0],[3,-1],[3,1],[2,0],[3,2],[3,1],[1,2],[0,1],[1,1],[-1,1],[0,1],[1,2],[2,0],[3,1],[3,-1],[6,-1],[2,-1],[9,0],[1,0],[1,1],[0,0],[3,3],[2,0],[2,1],[2,0],[3,1],[1,0],[1,0],[1,-1],[8,-4],[4,0],[1,-1],[1,0],[-2,-1],[-4,0],[-1,1],[0,-1],[1,0],[4,-1],[5,0],[3,-1],[2,0],[1,0],[3,0],[6,0],[4,0],[0,0],[-2,1],[-2,0],[-2,1],[-4,0],[-2,0],[1,1],[0,1],[0,0],[0,0],[1,1],[1,0],[0,1],[0,2],[-1,0],[1,0],[1,-1],[0,0],[0,-1],[0,0],[1,1],[1,3],[1,2],[0,-1],[1,0],[0,0],[0,-1],[1,1],[0,0],[0,0],[0,-1],[0,-1],[0,0],[1,0],[0,0],[1,0],[1,1],[1,1],[0,1],[1,0],[0,1],[0,0],[0,-1],[0,0],[0,-1],[2,0],[0,-1],[1,1],[3,2],[0,1],[3,0],[2,1],[1,2],[-1,1],[-1,0],[-1,1],[0,1],[0,1],[-1,0],[0,1],[0,1],[-1,1],[-1,2],[-4,0],[1,1],[1,0],[2,1],[1,-1],[2,0],[2,-1],[1,0],[4,1],[1,-1],[0,0],[3,0],[1,1]],[[689,596],[0,1],[-1,0],[0,2],[-2,2],[-1,2],[-2,1],[-1,2],[-1,-1],[-1,1],[-5,2],[-1,0],[-1,0],[-2,-1],[-2,-1],[-2,0],[-2,1],[-1,0],[0,0],[-1,0],[-1,-1],[-3,-1],[-3,-3],[-3,0],[-3,1],[0,-1],[0,0],[-1,-1],[-2,-2],[-2,-2],[0,-2],[0,-3],[1,-2],[0,-1],[0,0],[1,-1],[1,0],[0,-1],[0,-1],[0,-1],[0,-2],[-1,-1],[1,-2],[0,-1],[0,0],[0,-1],[0,-1],[0,0],[0,-1],[0,-1],[0,0],[1,-1],[0,-1],[0,0],[0,-1],[0,0],[0,-1],[0,0],[1,-2],[0,-1],[1,-1],[0,0],[-1,-1],[0,0],[1,-1],[0,0],[0,-2],[0,-1],[0,-1],[1,-1],[1,-1],[0,-1],[0,0],[0,1],[2,0],[2,0],[0,0],[0,-1],[1,-1],[1,0],[1,0],[1,1],[3,3],[2,2],[0,1],[1,0],[0,1],[0,2],[0,0],[0,1],[1,0],[0,-1],[1,0],[0,0],[1,-1],[0,0],[0,0],[1,-1],[0,0],[0,1],[1,0],[1,1],[0,1],[0,0],[0,1],[1,0],[0,1],[1,0],[1,0],[1,1],[3,1],[0,1],[0,1],[1,1],[2,1],[1,1],[1,0],[0,0],[1,1],[0,0],[1,0],[0,1],[0,1],[0,1],[1,1],[1,1],[1,1],[1,1],[1,0],[0,1],[-1,1],[-1,1],[-1,1],[-1,0],[0,0],[0,1],[0,4],[0,1],[0,0],[0,0],[0,1],[1,0],[0,0]],[[701,176],[-1,1],[-2,1],[-1,2],[0,1],[0,1],[0,0],[0,2],[0,0],[0,1],[0,2],[0,0],[0,1],[0,2],[0,0],[1,0],[0,1],[0,1],[1,2],[0,0],[1,1],[1,1],[0,1],[0,0],[1,0],[-1,1],[0,1],[0,1],[-2,2],[0,1],[0,1],[0,2],[0,0],[-1,1],[-2,3],[-1,1],[0,1],[-1,0],[0,0],[0,0],[-1,0],[0,-1],[0,0],[0,-1],[-1,0],[-1,0],[0,0],[-1,0],[0,-1],[0,-1],[-1,0],[0,1],[-1,0],[0,0],[-1,0],[-1,0],[-1,1],[0,0],[-3,0],[-1,0],[-2,-1],[0,0],[-1,0],[0,0],[0,0],[0,1],[-1,1],[0,0],[-1,0],[0,1],[1,0],[1,1],[0,1],[1,1],[0,0],[-1,1],[0,1],[-1,0],[-2,-1],[-2,0],[-1,0],[0,-1],[0,0],[-1,0],[-1,0],[0,-1],[-1,-1],[-1,-1],[0,0],[0,-1],[-1,-1],[0,-1],[0,0],[-1,0],[0,-1],[0,-1],[0,0],[0,0],[-1,-1],[0,0],[0,0],[-1,-1],[0,0],[0,-1],[0,-1],[0,0],[0,-1],[0,0],[0,-1],[-1,0],[0,-1],[0,-1],[0,0],[-1,0],[-1,0],[0,0],[-1,0],[-1,0],[0,-1],[0,0],[0,-1],[-1,-1],[-1,-1],[-1,-1],[0,-1],[-1,-2],[-1,-1],[0,-1],[1,-1],[1,-1],[0,-1],[0,-1],[1,-1],[0,-1],[0,0],[-1,-1],[0,0],[1,-1],[0,-1],[0,0],[1,0],[1,0],[0,-1],[1,0],[2,0],[1,0],[0,0],[0,-1],[1,0],[0,-1],[0,0],[1,0],[-1,0],[0,0],[0,0],[-1,-1],[1,-1],[0,-1],[0,0],[1,-1],[0,0],[0,-1],[1,-1],[0,-1],[1,-2],[1,0],[6,1],[2,0],[4,1],[0,2],[0,-1],[0,-2],[1,0],[2,-1],[3,1],[3,-1],[4,1],[6,1],[2,1],[1,0],[0,1],[0,2],[0,1],[-1,1]],[[522,289],[0,0],[0,1],[-1,0],[-1,-1],[0,1],[-1,0],[-1,-1],[0,-1],[-1,0],[-1,0],[-1,0],[-1,0],[-1,1],[-1,0],[0,1],[-1,1],[-2,0],[-1,0],[-1,1],[-1,0],[-1,1],[-1,0],[-2,0],[-1,1],[-1,0],[-1,1],[-2,1],[-1,1],[-1,1],[-1,2],[-1,0],[-2,1],[0,0],[0,0],[0,1],[0,1],[-1,2],[0,1],[0,1],[0,2],[-1,1],[-1,1],[0,1],[1,1],[0,1],[0,1],[1,0],[0,1],[-1,1],[0,0],[-1,0],[-2,2],[-2,2],[-1,0],[0,1],[0,1],[0,1],[1,0],[0,1],[0,1],[0,0],[-1,0],[0,0],[-1,1],[0,0],[0,0],[0,0],[0,1],[0,0],[0,0],[0,1],[0,0],[0,0],[1,1],[1,0],[0,1],[1,0],[0,0],[0,1],[-1,0],[0,1],[1,0],[0,0],[1,1],[0,1],[0,0],[1,1],[0,0],[0,1],[1,0],[1,0],[0,1],[0,0],[0,0],[1,1],[0,1],[1,0],[1,1],[1,1],[1,1],[0,1],[-1,2],[-1,2],[2,-1],[2,0],[2,1],[2,0],[1,0],[0,0],[1,1],[0,1],[0,1],[1,0],[0,1],[0,1],[1,0],[2,0],[3,0],[3,-1],[1,0],[1,-2],[1,0],[1,-1],[1,-1],[0,0],[1,-1],[1,-1],[0,0],[0,0],[1,0],[0,0],[0,1],[0,1],[0,0],[0,1],[-1,1],[1,1],[0,3],[0,1],[0,3],[0,3],[0,1],[1,0],[0,0],[1,0],[1,1],[1,0],[0,0],[1,-1],[1,0],[1,-1],[2,0],[1,0],[1,0],[2,2],[1,2],[1,2],[1,1],[2,2],[1,2],[1,2],[2,3],[-1,0],[0,1],[0,1],[0,0],[-1,0],[-1,1],[0,1],[0,1],[0,4],[0,1],[0,1],[0,1],[0,0],[0,1],[1,2],[0,1],[1,1],[0,0],[0,1],[-1,0],[0,0],[0,2],[-1,0],[0,1],[-1,0],[0,1],[0,0],[0,1],[-1,1],[0,0],[-1,1],[1,1],[0,1],[2,1],[0,1],[-1,1],[0,1],[-1,2],[0,0],[0,1],[2,4],[0,1],[1,0],[1,0],[1,0],[1,1],[0,0],[0,0],[-1,1],[-1,0],[0,1],[0,0],[0,1],[0,1],[-1,0],[0,1],[-1,1],[-1,1],[0,1],[-1,0],[0,1],[-1,1],[0,0],[0,1],[0,0],[1,0],[0,1],[0,1],[-1,0],[-1,1],[-1,1],[0,0],[0,1],[0,1],[0,1],[0,1],[-1,1],[-1,1],[-1,1],[-1,0],[-1,0],[0,0],[-1,-1],[-3,-2],[-2,-1],[-1,0],[-3,-2],[0,-1],[-1,-2],[0,0],[-1,-1],[-3,-1],[-1,0],[-1,-1],[-1,0],[-2,-2],[-1,-1],[-1,0],[-3,-1],[-2,-1],[-3,-1],[-2,0],[-3,-1],[-1,-1],[-4,-2],[-2,0],[-2,-2],[-6,-2],[-1,-1],[-1,-1],[-1,-1],[-2,-2],[-2,-1],[-2,-1],[-1,-1],[-2,-2],[0,-1],[-1,-1],[-1,-2],[-1,-1],[1,0],[1,0],[0,-3],[-1,-2],[-2,-2],[-1,-2],[-1,-1],[-1,-1],[-1,-2],[-1,-2],[-2,-1],[-1,0],[0,-1],[-1,-1],[0,-1],[-1,-3],[-1,-1],[-4,-2],[0,-1],[-1,-2],[-1,-2],[-4,-5],[-1,-2],[-2,-3],[-1,-1],[-1,-3],[-2,-2],[-1,-2],[-1,-2],[-1,-2],[-2,-2],[-1,-2],[-2,-1],[-1,-1],[-1,-1],[-3,-4],[-1,-2],[-2,-2],[-1,-1],[-2,-2],[-1,-1],[-8,-3],[-3,-1],[-1,0],[-1,-2],[0,0],[1,-1],[1,0],[1,0],[0,-1],[0,-1],[-1,-2],[-3,-3],[0,-1],[1,-1],[-2,-1],[-1,-1],[-1,-1],[0,-4],[1,-1],[3,-4],[1,-2],[1,-1],[2,-2],[1,-2],[1,0],[0,1],[0,0],[0,0],[0,1],[1,0],[0,1],[0,0],[0,1],[0,0],[0,0],[1,1],[0,1],[-1,0],[0,0],[0,1],[-1,0],[-1,0],[0,0],[-1,1],[1,1],[0,0],[0,0],[1,0],[0,2],[-1,0],[0,1],[1,0],[0,0],[1,-1],[1,0],[0,-1],[1,0],[1,0],[1,1],[1,0],[1,0],[1,0],[1,0],[0,0],[1,0],[0,2],[1,1],[1,1],[1,0],[0,1],[1,0],[1,0],[1,-1],[0,0],[0,-1],[1,0],[0,0],[0,-1],[0,-1],[0,0],[2,-1],[0,-1],[0,0],[0,-1],[0,0],[0,-1],[0,0],[0,-1],[0,-1],[1,-1],[0,-1],[0,0],[0,-1],[0,-1],[1,-1],[0,0],[0,-1],[0,-1],[0,-1],[0,-1],[0,0],[1,0],[0,0],[0,1],[0,0],[1,0],[0,0],[0,-1],[0,0],[0,0],[0,-1],[0,0],[1,-1],[1,-2],[1,-1],[2,-1],[1,-1],[2,-1],[2,-1],[3,-1],[2,-1],[2,-2],[1,-1],[2,-2],[1,-1],[2,-3],[1,-2],[1,-1],[1,-1],[0,-3],[1,-3],[0,-1],[0,0],[0,0],[1,0],[0,0],[1,0],[0,0],[-1,-3],[0,-1],[0,0],[0,-1],[0,0],[-2,-1],[0,-1],[-1,-1],[-1,0],[0,-1],[0,0],[0,0],[1,0],[1,0],[1,0],[0,-1],[1,-1],[0,0],[1,0],[1,1],[1,0],[0,1],[1,0],[1,0],[0,0],[0,0],[1,1],[0,0],[1,0],[1,1],[1,0],[0,1],[1,1],[0,1],[1,1],[0,0],[0,0],[1,1],[0,1],[1,0],[1,0],[1,1],[1,0],[1,1],[0,0],[1,0],[1,0],[1,1],[0,1],[1,0],[0,1],[0,1],[0,1],[1,0],[1,1],[1,0],[1,0],[0,0],[0,1],[1,1],[0,1],[0,1],[0,0],[0,1],[1,0],[1,1],[0,0],[1,0],[1,0],[1,0],[0,-1],[1,0],[0,0],[1,1],[1,0],[2,0],[0,-1],[1,0],[1,-1],[1,0],[0,0],[1,-1],[1,-1],[0,0],[1,0],[2,1],[0,0],[1,0],[0,1],[2,0],[1,-1],[1,0],[1,-1],[0,0],[1,0],[2,1],[1,1],[1,0],[0,0],[2,1],[0,0],[1,0],[1,1],[0,0],[1,0],[1,1],[0,0],[0,0],[-1,2],[-2,2],[-1,3],[-2,3],[-1,2],[0,0],[2,1],[1,0],[1,0],[0,-1],[1,0],[0,1],[1,0],[0,1],[1,1],[0,0],[1,1],[1,1]],[[649,454],[1,1],[0,0],[0,1],[0,0],[1,1],[0,0],[0,1],[0,1],[0,0],[0,0],[1,1],[0,0],[0,0],[0,1],[0,0],[0,1],[0,0],[0,0],[1,1],[0,1],[-1,1],[0,1],[0,0],[0,1],[0,0],[-1,1],[0,0],[0,1],[1,1],[0,0],[-1,1],[0,0],[0,1],[0,0],[0,1],[0,0],[0,1],[0,0],[1,1],[0,0],[1,-1],[0,0],[1,1],[1,0],[1,0],[1,0],[0,0],[1,0],[1,1],[1,0],[1,0],[1,0],[0,0],[1,0],[1,0],[0,-1],[1,0],[0,0],[1,-1],[0,0],[1,1],[0,1],[1,0],[0,0],[1,1],[1,0],[1,0],[0,0],[1,0],[0,1],[0,1],[1,1],[0,0],[0,1],[0,0],[0,1],[0,1],[0,1],[0,0],[0,1],[1,1],[0,1],[0,0],[0,1],[0,0],[0,1],[0,0],[0,1],[0,1],[1,0],[0,1],[0,1],[0,1],[0,0],[1,1],[1,0],[1,0],[1,-1],[0,0],[2,0],[0,-1],[1,0],[0,0],[1,0],[1,1],[1,1],[1,0],[0,1],[-1,0],[0,1],[0,1],[0,2],[-1,4],[-1,2],[1,0],[-1,1],[-1,3],[0,1],[-1,4],[0,4],[-1,2],[-1,1],[0,0],[-1,1],[0,0],[0,1],[-1,0],[-1,0],[0,1],[0,0],[-2,0],[0,1],[-1,0],[0,1],[-1,0],[0,1],[0,0],[0,1],[-1,1],[-1,0],[0,-1],[-1,0],[-1,-1],[-1,1],[-1,0],[-1,1],[0,1],[-1,0],[0,-1],[-1,0],[-1,0],[-1,0],[-1,0],[-1,0],[-1,0],[-2,-1],[-4,-1],[-4,0],[-4,0],[0,-1],[0,-1],[1,0],[0,-1],[1,-1],[0,0],[1,0],[0,-1],[0,0],[0,0],[1,-1],[0,0],[0,-1],[0,0],[0,0],[0,0],[0,-2],[0,-1],[0,0],[1,-1],[0,0],[0,0],[0,-1],[0,0],[2,-1],[0,0],[0,-1],[0,0],[1,-2],[0,0],[0,-1],[1,0],[1,-1],[0,0],[0,-1],[0,-1],[0,0],[-2,-2],[-1,-1],[-2,-1],[-1,0],[-1,0],[0,0],[-1,-1],[-1,0],[-1,-1],[-5,-2],[-2,-2],[0,0],[-2,-2],[-2,-1],[-3,-1],[-1,0],[-2,-1],[-3,-1],[-2,-1],[-1,-1],[-1,-1],[-2,-1],[-1,0],[0,-1],[0,0],[-1,-1],[-2,-1],[-1,-1],[-1,-2],[-2,-2],[-1,-2],[-2,-1],[-1,-1],[0,0],[0,0],[0,-1],[1,-2],[1,-3],[1,-3],[1,-3],[0,-3],[-1,-3],[2,-2],[1,-1],[1,-2],[1,-3],[0,-1],[3,-1],[4,-1],[2,0],[4,-1],[4,-1],[5,0],[4,0],[4,2],[2,2],[3,2],[1,0],[0,1],[-1,2]],[[623,177],[-3,-3],[-2,-3],[-3,-2],[0,-1],[1,-1],[1,-1],[1,-1],[0,0],[0,-2],[0,-1],[-1,-1],[0,-1],[0,0],[1,-1],[0,0],[2,0],[0,0],[1,-1],[0,0],[1,0],[1,0],[1,0],[1,-1],[2,-1],[0,-1],[1,-1],[0,0],[-1,0],[0,-1],[-1,0],[-1,1],[0,-1],[-1,0],[0,-1],[0,-1],[0,0],[-1,-2],[0,0],[1,-1],[0,0],[1,-2],[0,-1],[2,0],[0,0],[1,-1],[1,-1],[2,0],[1,-2],[0,0],[1,-1],[1,0],[0,-1],[-3,-2],[1,0],[2,2],[1,0],[0,0],[0,0],[1,0],[2,1],[3,2],[5,4],[1,2],[1,1],[1,2],[1,0],[0,4],[-1,2],[-1,2],[0,2],[-1,2],[1,-1],[1,-2],[0,-1],[1,-2],[2,0],[1,1],[2,0],[1,0],[2,2],[2,2],[1,2],[2,0],[2,2],[0,1],[0,2],[0,4],[0,0],[-1,1],[0,0],[0,1],[-1,1],[1,1],[0,0],[0,0],[1,0],[-1,0],[0,0],[0,1],[-1,0],[0,1],[0,0],[-1,0],[-2,0],[-1,0],[0,1],[-1,0],[-1,0],[0,0],[0,1],[-1,1],[0,0],[1,1],[0,0],[0,1],[-1,1],[0,1],[0,1],[-1,1],[-1,1],[0,1],[1,1],[1,2],[0,1],[1,1],[1,1],[1,1],[0,1],[0,0],[0,1],[1,0],[1,0],[0,0],[1,0],[1,0],[0,0],[0,1],[0,1],[1,0],[0,1],[0,0],[0,1],[0,0],[0,1],[0,1],[0,0],[1,1],[0,0],[0,0],[1,1],[0,0],[0,0],[0,1],[0,1],[1,0],[0,0],[0,1],[1,1],[0,1],[0,0],[1,1],[1,1],[0,1],[1,0],[1,0],[0,0],[0,1],[-1,0],[0,0],[-1,0],[-1,0],[-1,0],[-2,0],[0,0],[0,-1],[-1,0],[0,-1],[-1,1],[-1,0],[-1,0],[0,0],[-1,1],[-1,1],[0,1],[-1,0],[-1,0],[-1,0],[-1,0],[-1,0],[0,0],[0,1],[-1,1],[0,0],[-1,0],[0,0],[0,0],[-1,-1],[-1,0],[0,0],[0,0],[-1,0],[0,1],[0,0],[-1,1],[0,0],[0,1],[0,0],[0,1],[-1,0],[-1,0],[-1,0],[-1,0],[0,1],[0,-1],[-1,0],[-1,-1],[-1,0],[-2,-1],[-1,-1],[0,0],[0,0],[-1,-1],[-1,-1],[-1,0],[-1,-1],[0,0],[0,-1],[0,0],[0,0],[-1,-1],[0,0],[1,-2],[-1,-2],[-1,-1],[0,0],[-1,-3],[0,-1],[0,-1],[0,-2],[0,-1],[1,-3],[1,0],[0,-1],[-1,-1],[0,-1],[2,-1],[0,0],[0,-1],[1,-1],[1,-1],[0,0],[0,-1],[-1,0],[0,0],[-1,-2],[0,0],[0,-1],[0,0],[0,-1],[0,0],[0,-1],[-2,-1],[0,0],[-1,0],[-1,0],[-1,0],[0,0],[0,-1],[0,0],[1,-1],[0,-1],[0,-1],[0,-1],[1,-1],[0,-1],[-1,0],[-1,-1],[0,-1],[-1,0],[0,0],[-1,1],[-1,0],[-1,0],[-1,0],[-1,0],[-1,0]],[[458,248],[0,1],[-1,0],[-1,0],[-1,0],[0,0],[0,0],[0,1],[1,0],[1,1],[0,1],[2,1],[0,0],[0,1],[0,0],[0,1],[1,3],[0,0],[-1,0],[0,0],[-1,0],[0,0],[0,0],[0,1],[-1,3],[0,3],[-1,1],[-1,1],[-1,2],[-2,3],[-1,1],[-2,2],[-1,1],[-2,2],[-2,1],[-3,1],[-2,1],[-2,1],[-1,1],[-2,1],[-1,1],[-1,2],[-1,1],[0,0],[0,1],[0,0],[0,0],[0,1],[0,0],[-1,0],[0,0],[0,-1],[0,0],[-1,0],[0,0],[0,1],[0,1],[0,1],[0,1],[0,0],[-1,1],[0,1],[0,1],[0,0],[0,1],[-1,1],[0,1],[0,1],[0,0],[0,1],[0,0],[0,1],[0,0],[0,1],[-2,1],[0,0],[0,1],[0,1],[0,0],[-1,0],[0,1],[0,0],[-1,1],[-1,0],[-1,0],[0,-1],[-1,0],[-1,-1],[-1,-1],[0,-2],[-1,0],[0,0],[-1,0],[-1,0],[-1,0],[-1,0],[-1,-1],[-1,0],[-1,0],[0,1],[-1,0],[-1,1],[0,0],[-1,0],[0,-1],[1,0],[0,-2],[-1,0],[0,0],[0,0],[-1,-1],[1,-1],[0,0],[1,0],[1,0],[0,-1],[0,0],[1,0],[0,-1],[-1,-1],[0,0],[0,0],[0,-1],[0,0],[0,-1],[-1,0],[0,-1],[0,0],[0,0],[0,-1],[-1,0],[1,0],[1,-1],[1,0],[0,-1],[1,-1],[0,-1],[1,-3],[1,-3],[-1,-1],[-1,-1],[0,-2],[0,-1],[-1,0],[0,1],[1,3],[-1,1],[0,1],[-1,0],[0,-3],[0,1],[-1,1],[-1,2],[0,0],[0,1],[-2,-1],[0,0],[-3,-2],[-2,0],[-1,-1],[-1,0],[0,-1],[1,-1],[1,0],[0,-2],[0,-1],[-1,-2],[0,-3],[-1,-1],[-1,-2],[0,-2],[3,-1],[0,0],[1,-2],[0,-2],[1,1],[1,0],[-1,-1],[-1,-1],[-1,-1],[2,-3],[1,0],[1,-2],[0,-2],[0,-2],[0,-2],[-1,-3],[0,0],[2,-1],[1,-1],[0,0],[2,-1],[1,-1],[3,-1],[4,-1],[0,-1],[0,-2],[0,0],[1,1],[1,0],[1,1],[1,0],[3,2],[1,0],[2,1],[2,0],[2,0],[0,1],[1,0],[0,0],[1,1],[1,0],[0,0],[1,2],[0,1],[1,0],[2,0],[0,0],[2,0],[0,0],[2,0],[0,0],[1,0],[0,0],[0,0],[1,0],[1,0],[1,0],[0,-1],[0,-1],[0,0],[1,-1],[1,0],[2,1],[1,0],[0,1],[1,1],[2,1],[1,0],[2,1],[2,0]],[[409,287],[0,1],[-1,0],[-1,0],[0,-1],[0,-1],[0,-1],[1,-1],[1,0],[1,0],[1,0],[-1,1],[-1,1],[0,0],[0,1]],[[415,238],[0,0],[-1,0],[1,-1],[0,0],[0,1]],[[292,285],[-1,0],[-2,-1],[0,-1],[1,-1],[2,-1],[1,1],[0,1],[0,1],[-1,0],[0,1]],[[302,284],[-1,1],[0,-1],[-1,0],[0,0],[1,-1],[0,0],[1,-1],[1,-1],[0,0],[0,0],[1,0],[-1,1],[0,1],[-1,1]],[[279,284],[-1,0],[-1,0],[-1,0],[0,-1],[0,0],[2,-1],[1,0],[0,1],[0,1]],[[292,291],[0,0],[-1,0],[0,-1],[1,0],[0,0],[1,0],[-1,1]],[[279,278],[1,1],[1,2],[3,1],[0,1],[0,1],[1,0],[1,1],[1,0],[-1,3],[-2,1],[-3,1],[0,0],[-1,-1],[-1,-1],[1,0],[1,-2],[2,-1],[0,-1],[-1,0],[-1,-2],[-2,0],[-1,-3],[-1,0],[0,1],[-1,-1],[0,0],[1,-1],[0,0],[1,-1],[1,1],[0,0]],[[288,280],[0,1],[-2,0],[-1,-1],[0,-1],[0,0],[2,0],[1,1],[0,0]],[[491,101],[0,0],[-1,1],[-1,0],[-3,1],[-3,1],[0,1],[-3,6],[-2,1],[-1,1],[0,1],[-2,2],[0,1],[-1,3],[-1,4],[0,2],[0,3],[-1,1],[-1,2],[0,1],[-1,2],[-1,1],[0,1],[1,0],[1,-1],[1,0],[1,0],[0,0],[1,1],[1,0],[0,0],[1,0],[1,3],[1,3],[2,1],[2,1],[0,2],[0,1],[1,1],[-1,1],[0,1],[0,1],[0,1],[0,2],[0,1],[0,1],[1,0],[1,0],[1,1],[1,1],[1,2],[1,0],[1,1],[1,-1],[3,0],[2,0],[2,0],[2,0],[1,0],[2,-1],[1,-1],[1,0],[2,1],[0,0],[1,0],[2,1],[1,0],[0,-1],[1,1],[2,2],[3,3],[1,2],[2,2],[1,0],[0,-1],[1,1],[0,0],[1,0],[1,-1],[2,0],[3,0],[3,0],[4,-1],[2,-1],[1,0],[2,0],[2,0],[1,1],[0,0],[0,1],[0,2],[-1,1],[-1,1],[0,2],[0,2],[-1,0],[-1,2],[0,1],[0,3],[0,3],[0,2],[1,0],[0,1],[0,1],[0,1],[1,2],[1,2],[1,1],[0,1],[1,0],[2,3],[0,0],[0,1],[0,0],[0,0],[-2,2],[-3,4],[-1,0],[0,1],[2,-1],[1,1],[0,0],[1,0],[0,1],[0,0],[1,0],[1,1],[1,1],[1,1],[0,0],[0,1],[0,0],[1,2],[0,0],[1,1],[-1,0],[1,1],[0,1],[1,2],[0,1],[1,0],[0,2],[1,1],[0,0],[0,1],[-2,1],[-1,0],[0,-1],[0,-2],[0,-2],[0,-1],[-1,-2],[-2,-2],[0,0],[-1,-1],[0,0],[-1,0],[-1,1],[0,0],[-1,2],[-1,1],[-1,1],[-1,0],[0,0],[-1,-1],[0,0],[-1,-1],[-1,-1],[0,1],[0,0],[0,1],[0,1],[1,0],[-1,0],[-3,1],[-2,0],[-3,0],[-2,0],[-3,0],[0,0],[-1,0],[-1,0],[-1,0],[0,0],[-1,0],[-1,1],[-1,0],[0,2],[1,2],[0,3],[0,0],[1,0],[0,0],[2,0],[0,0],[1,0],[0,0],[1,0],[0,0],[0,0],[1,0],[1,0],[0,1],[0,1],[1,0],[0,1],[0,0],[0,1],[0,0],[0,0],[0,0],[0,0],[-1,1],[0,0],[0,0],[-1,-1],[0,0],[0,0],[-1,0],[0,0],[-1,0],[0,0],[-1,0],[0,0],[0,1],[-1,0],[0,0],[-1,0],[0,0],[-1,0],[-1,1],[0,0],[-1,0],[0,1],[0,3],[0,2],[0,2],[1,1],[1,1],[1,1],[1,0],[1,1],[1,0],[0,0],[0,1],[0,0],[0,1],[0,0],[0,1],[0,0],[1,1],[0,0],[0,0],[0,1],[1,0],[0,0],[0,1],[0,0],[0,0],[1,1],[0,0],[0,1],[0,2],[-1,2],[0,2],[0,3],[-1,3],[0,4],[0,4],[-1,4],[0,3],[-1,4],[0,2],[0,1],[-1,-1],[-1,-1],[0,0],[-1,-1],[0,-1],[-1,0],[0,-1],[-1,0],[0,1],[-1,0],[-1,0],[-2,-1],[0,0],[1,-2],[2,-3],[1,-3],[2,-2],[1,-2],[0,0],[0,0],[-1,-1],[-1,0],[0,0],[-1,-1],[-1,0],[0,0],[-2,-1],[0,0],[-1,0],[-1,-1],[-2,-1],[-1,0],[0,0],[-1,1],[-1,0],[-1,1],[-2,0],[0,-1],[-1,0],[0,0],[-2,-1],[-1,0],[0,0],[-1,1],[-1,1],[0,0],[-1,0],[-1,1],[-1,0],[0,1],[-2,0],[-1,0],[-1,-1],[0,0],[-1,0],[0,1],[-1,0],[-1,0],[-1,0],[0,0],[-1,-1],[-1,0],[0,-1],[0,0],[0,-1],[0,-1],[-1,-1],[0,-1],[0,0],[-1,0],[-1,0],[-1,-1],[-1,0],[0,-1],[0,-1],[0,-1],[-1,0],[0,-1],[-1,-1],[-1,0],[-1,0],[0,0],[-1,-1],[-1,0],[-1,-1],[-1,0],[-1,0],[0,-1],[-1,-1],[0,0],[0,0],[-1,-1],[0,-1],[-1,-1],[0,-1],[-1,0],[-1,-1],[-1,0],[0,0],[-1,-1],[0,0],[0,0],[-1,0],[-1,0],[0,-1],[-1,0],[-1,-1],[-1,0],[0,0],[-1,1],[-2,0],[-2,-1],[-1,0],[-2,-1],[-1,-1],[0,-1],[-1,0],[-2,-1],[-1,0],[-1,1],[0,0],[0,1],[0,1],[-1,0],[-1,0],[-1,0],[0,0],[0,0],[-1,0],[0,0],[-2,0],[0,0],[-2,0],[0,0],[-2,0],[-1,0],[0,-1],[-1,-2],[0,0],[-1,0],[-1,-1],[0,0],[-1,0],[0,-1],[-2,0],[-2,0],[-2,-1],[-1,0],[-3,-2],[-1,0],[-1,-1],[-1,0],[-1,-1],[0,0],[-1,-1],[-1,-1],[0,-1],[2,-2],[2,1],[0,-2],[-1,-1],[0,-3],[0,-1],[1,-1],[1,0],[0,-1],[1,0],[0,0],[3,0],[0,-1],[0,0],[1,0],[0,-1],[1,-1],[0,0],[1,0],[0,-1],[0,0],[1,-1],[0,-1],[0,-1],[0,0],[0,0],[1,-1],[0,-1],[1,-1],[0,-1],[1,0],[0,-2],[1,-1],[1,-4],[0,0],[-1,0],[0,0],[-1,0],[0,-1],[0,-1],[-1,2],[-1,-1],[0,-1],[0,-1],[0,-1],[-1,1],[0,-1],[0,0],[1,-1],[0,-1],[1,0],[0,-2],[0,-1],[-1,-1],[0,-1],[-1,-2],[0,-2],[0,-1],[-1,-1],[-1,-2],[2,-2],[1,-1],[-2,-2],[-2,-2],[0,-2],[1,1],[0,-1],[0,-2],[0,-1],[-1,-1],[-1,0],[-1,-2],[-1,0],[0,-1],[-2,-2],[-1,-1],[0,-3],[1,0],[0,-1],[-1,-2],[0,0],[1,0],[0,0],[0,0],[1,1],[0,0],[1,1],[0,-1],[2,-2],[0,0],[0,-1],[1,-1],[1,-1],[0,0],[-1,-1],[-1,-2],[0,-1],[-1,0],[0,-1],[-1,-1],[0,-1],[0,-1],[1,0],[0,0],[1,2],[2,1],[2,1],[1,1],[0,0],[1,1],[0,0],[-1,1],[0,0],[0,1],[1,0],[1,0],[0,-1],[-1,-4],[0,-2],[-1,0],[-1,-1],[0,0],[1,-1],[2,-1],[4,-4],[2,-3],[1,-2],[1,-1],[2,0],[1,0],[1,-2],[-1,-1],[-1,-1],[1,-1],[0,-2],[0,-2],[0,-1],[0,0],[-1,1],[-1,0],[1,-1],[1,-1],[1,-3],[0,-1],[2,-2],[0,-1],[2,-1],[2,-2],[1,-1],[5,1],[1,0],[0,0],[-1,0],[-1,1],[0,0],[1,1],[1,1],[0,-1],[1,-2],[0,-2],[0,-2],[1,-1],[1,0],[2,0],[1,0],[2,0],[4,0],[7,-6],[3,-2],[2,-1],[1,-2],[1,-2],[1,-1],[1,0],[0,0],[0,-1],[3,-2],[1,0],[1,0],[3,1],[2,2],[0,2],[-1,1],[-1,1]],[[422,222],[0,0],[0,0],[-1,0],[1,-1],[0,0],[0,0],[0,1]],[[188,609],[-1,0],[0,0],[0,-1],[1,0],[1,0],[-1,1]],[[469,605],[-2,1],[0,0],[0,-1],[0,0],[1,0],[0,0],[0,0],[0,0],[1,0],[0,0],[0,0],[0,0]],[[529,439],[0,0],[1,0],[1,0],[1,-1],[1,-1],[1,-1],[0,-1],[0,-1],[0,-1],[0,-1],[0,0],[1,-1],[1,-1],[1,0],[0,1],[2,1],[0,2],[1,0],[2,1],[0,0],[-1,1],[0,0],[0,1],[1,0],[0,1],[0,1],[0,1],[1,1],[0,2],[0,1],[0,1],[1,0],[1,1],[1,0],[0,1],[1,1],[1,0],[0,1],[1,0],[0,0],[-1,0],[0,1],[-1,2],[0,0],[1,1],[0,1],[0,1],[0,0],[-1,1],[-1,0],[0,0],[1,1],[0,0],[0,1],[0,1],[-1,0],[0,0],[1,1],[0,0],[2,1],[0,0],[0,1],[0,0],[0,1],[0,1],[0,0],[0,0],[1,1],[1,1],[1,2],[1,2],[0,1],[1,2],[0,1],[0,1],[1,1],[0,1],[1,1],[0,1],[0,1],[0,2],[0,1],[0,0],[0,1],[1,0],[0,0],[1,0],[1,0],[2,0],[2,-1],[2,2],[-1,3],[-1,4],[-1,3],[0,0],[0,1],[-2,1],[-3,1],[-1,1],[-2,1],[0,1],[-1,0],[-1,1],[0,0],[0,1],[-1,1],[0,1],[1,1],[0,0],[0,1],[1,0],[0,0],[0,1],[0,0],[-1,0],[0,1],[-1,2],[0,1],[1,1],[0,1],[1,4],[1,0],[-1,2],[-1,1],[0,0],[0,1],[0,0],[1,2],[1,1],[1,1],[0,1],[0,0],[-1,1],[-1,0],[0,1],[-1,0],[-1,-1],[0,1],[-1,0],[0,1],[0,2],[-1,0],[0,1],[-1,2],[0,1],[0,1],[-1,1],[-1,1],[0,1],[0,0],[-1,0],[0,1],[-1,2],[0,1],[-1,1],[0,1],[0,3],[0,1],[-1,0],[-1,1],[0,1],[1,2],[0,3],[0,1],[0,1],[0,1],[1,0],[0,0],[0,1],[0,0],[0,1],[-1,1],[-1,0],[0,0],[0,0],[0,1],[-1,0],[0,2],[0,2],[-1,1],[1,0],[0,1],[0,0],[0,0],[-1,1],[0,0],[-1,0],[0,0],[0,1],[0,1],[0,1],[0,2],[0,1],[1,1],[1,1],[0,0],[1,0],[0,1],[0,0],[-1,1],[0,0],[0,1],[1,1],[0,0],[1,1],[0,1],[0,1],[1,2],[1,1],[0,0],[0,1],[-1,1],[0,1],[1,0],[0,1],[1,0],[0,0],[1,0],[0,1],[0,0],[0,1],[0,1],[0,2],[0,2],[0,1],[0,1],[0,1],[0,0],[0,0],[-1,1],[0,0],[0,0],[-1,1],[0,1],[0,1],[-1,1],[0,0],[0,1],[0,1],[0,1],[-1,2],[0,0],[-1,1],[0,0],[0,1],[1,0],[0,0],[0,1],[1,1],[0,1],[0,1],[0,2],[0,1],[0,0],[0,1],[-1,0],[-1,1],[0,1],[0,1],[-1,0],[0,0],[0,0],[-1,1],[0,0],[-1,1],[0,0],[0,1],[0,0],[-1,1],[0,1],[0,1],[1,1],[0,1],[0,1],[-1,1],[1,1],[0,1],[0,1],[0,1],[0,1],[1,1],[1,2],[0,1],[0,2],[0,1],[1,0],[0,1],[0,1],[0,0],[0,1],[-1,0],[-1,1],[-1,0],[0,1],[-1,0],[0,1],[0,2],[0,1],[0,1],[0,1],[0,1],[0,0],[0,1],[-1,0],[0,0],[-1,0],[0,0],[1,1],[0,1],[0,1],[0,0],[0,1],[0,1],[-1,0],[0,0],[0,1],[0,1],[1,0],[0,1],[0,0],[0,0],[-1,1],[0,1],[0,1],[0,1],[0,1],[0,1],[0,1],[0,3],[1,1],[0,2],[0,0],[0,1],[0,1],[1,2],[0,1],[0,1],[-1,0],[0,0],[-1,0],[0,0],[0,1],[0,0],[0,1],[0,1],[0,1],[0,0],[0,1],[0,1],[0,1],[0,2],[0,1],[1,1],[1,0],[1,0],[0,1],[0,0],[0,1],[-1,0],[0,1],[1,1],[1,1],[0,0],[0,1],[0,0],[0,2],[1,0],[-1,1],[0,1],[0,0],[0,1],[0,1],[0,1],[0,0],[4,1],[1,0],[0,0],[0,1],[0,1],[0,1],[-1,0],[-1,0],[-1,0],[0,1],[-1,0],[-2,0],[-1,0],[0,0],[1,1],[2,0],[1,1],[1,1],[1,1],[0,0],[1,1],[-1,2],[-1,1],[-1,0],[0,0],[0,2],[0,1],[1,1],[0,1],[0,1],[-1,0],[-1,1],[1,0],[0,1],[0,1],[1,1],[0,1],[0,1],[0,1],[-1,1],[-1,0],[0,2],[0,1],[1,0],[0,1],[0,1],[0,0],[-1,0],[0,1],[-2,2],[0,0],[0,1],[0,1],[-1,1],[0,2],[0,1],[1,0],[1,1],[0,1],[0,2],[-1,1],[-1,0],[0,1],[0,1],[0,1],[0,1],[0,0],[0,1],[-1,1],[-1,0],[0,1],[-1,1],[0,1],[0,1],[-2,0],[0,1],[-1,1],[0,2],[1,1],[0,1],[0,1],[0,2],[0,1],[1,1],[1,1],[0,1],[1,1],[0,1],[0,1],[1,0],[0,1],[1,-1],[1,-1],[0,0],[1,0],[1,-1],[0,1],[1,0],[0,0],[1,1],[0,2],[0,1],[0,1],[0,0],[0,1],[0,0],[0,1],[0,2],[0,1],[0,1],[1,1],[1,0],[1,1],[0,1],[0,1],[1,0],[1,0],[2,0],[4,0],[3,-1],[4,0],[2,1],[1,0],[2,0],[3,1],[1,0],[1,1],[1,0],[0,0],[-4,0],[-1,-1],[-1,0],[-1,1],[-1,2],[0,0],[-1,1],[-1,0],[-4,2],[-1,0],[-1,1],[0,1],[-1,1],[1,1],[-1,3],[0,2],[0,1],[0,1],[0,3],[0,0],[-2,1],[-1,0],[-2,-1],[-1,-1],[-2,0],[0,0],[-2,-2],[0,-1],[0,-1],[0,-1],[1,0],[1,0],[1,0],[1,0],[0,2],[0,0],[0,1],[0,0],[0,0],[0,-3],[3,-2],[0,-1],[1,-1],[0,-1],[0,0],[0,-1],[-2,0],[-3,3],[-2,1],[-1,1],[-1,1],[0,1],[0,1],[0,1],[-1,-1],[-2,-1],[-1,0],[0,-1],[1,-1],[0,-2],[0,-1],[0,-1],[1,0],[0,-1],[1,1],[0,0],[1,0],[2,-2],[1,0],[1,0],[2,0],[0,0],[0,-1],[-1,0],[-1,-1],[-3,0],[0,1],[-1,1],[-1,0],[0,-1],[-1,0],[0,0],[-1,1],[0,0],[0,1],[-1,1],[0,1],[0,1],[0,1],[0,0],[-1,1],[-1,0],[-1,-1],[0,-1],[-2,-1],[3,-1],[0,-1],[1,-1],[0,-1],[0,0],[-1,0],[0,1],[0,0],[-1,0],[-1,1],[-1,0],[-2,1],[0,-1],[-1,-1],[1,0],[-1,-2],[0,0],[-1,0],[0,-1],[-1,-1],[0,0],[0,-1],[0,0],[1,0],[0,1],[1,0],[1,0],[1,0],[0,0],[0,-1],[0,-1],[1,0],[0,1],[1,0],[1,0],[0,0],[1,0],[2,-2],[0,-1],[1,0],[0,0],[0,1],[0,0],[1,1],[0,0],[0,1],[0,1],[0,1],[0,0],[0,0],[0,0],[1,0],[0,-1],[0,0],[0,-1],[0,0],[-1,-2],[0,0],[0,-1],[0,-1],[1,0],[0,-1],[-1,-1],[-2,-1],[-2,-1],[-1,0],[0,0],[0,0],[1,0],[2,1],[1,1],[0,0],[1,1],[0,0],[-3,1],[-1,2],[-2,1],[-1,0],[0,-1],[-1,-1],[-1,-1],[0,0],[0,0],[-1,0],[0,0],[-1,-1],[-1,0],[1,-1],[1,0],[0,-3],[-1,-1],[-1,-1],[-1,1],[0,0],[-1,-1],[-1,0],[0,0],[-1,0],[-1,-1],[-2,-1],[0,-2],[-1,-1],[2,0],[1,0],[1,-1],[-1,-1],[-1,0],[1,-1],[0,-1],[1,0],[1,1],[1,1],[1,3],[0,0],[0,0],[3,1],[0,0],[0,-1],[0,-2],[1,0],[0,0],[0,0],[-1,-1],[1,-1],[-1,0],[0,1],[-1,3],[0,0],[-1,-1],[-1,-1],[0,0],[0,-2],[1,0],[0,0],[-2,-1],[-1,0],[0,0],[-1,-1],[-1,-1],[1,-1],[1,-1],[2,0],[1,0],[-1,-1],[0,0],[-1,0],[-1,-2],[0,0],[0,-2],[0,0],[1,0],[1,0],[1,0],[0,0],[0,-1],[-1,0],[-1,-1],[0,-1],[0,0],[0,-1],[0,-1],[0,-1],[1,0],[0,0],[0,-1],[-1,1],[0,1],[0,0],[0,1],[-1,1],[0,1],[0,1],[0,0],[-1,-1],[0,0],[0,0],[0,-4],[-1,-3],[0,-2],[1,-1],[0,0],[1,0],[0,0],[1,-1],[-2,0],[0,0],[-1,1],[-1,0],[0,-2],[-1,0],[0,-2],[0,-2],[1,0],[1,1],[3,-1],[3,2],[1,0],[0,-1],[-1,0],[-1,-1],[0,0],[0,-1],[0,-1],[-1,-2],[0,0],[-1,1],[0,1],[0,1],[-2,1],[-1,0],[-1,0],[0,-1],[0,-1],[0,0],[-1,0],[-1,0],[0,-1],[0,-1],[1,0],[0,0],[1,0],[0,1],[1,0],[1,-1],[0,0],[-1,-1],[0,0],[-1,0],[-1,-1],[0,-1],[2,-2],[0,0],[-1,-1],[1,-1],[-1,-1],[-1,-1],[-1,0],[0,0],[0,0],[0,1],[0,0],[0,0],[-1,0],[-1,-1],[-2,0],[0,-1],[0,0],[0,-2],[0,0],[-1,1],[-2,1],[-1,0],[0,1],[0,0],[0,0],[1,0],[0,1],[0,1],[0,0],[0,0],[-2,0],[0,-1],[0,-1],[0,-1],[1,-2],[1,0],[1,-1],[1,-2],[1,-1],[-1,0],[0,-1],[-1,-2],[3,-1],[1,1],[1,-1],[1,0],[0,0],[1,-1],[1,0],[0,-1],[0,0],[0,-1],[-1,-1],[0,0],[1,-1],[0,0],[1,0],[1,1],[-1,0],[0,1],[0,3],[0,1],[-1,0],[1,1],[-1,1],[-2,1],[0,0],[0,1],[1,0],[1,-1],[1,-1],[0,-1],[1,-2],[0,0],[1,-1],[0,1],[0,1],[0,1],[0,4],[-1,1],[0,1],[0,0],[1,0],[0,-1],[0,-1],[1,-1],[0,-1],[0,-1],[0,-2],[0,-1],[0,-1],[-1,0],[-1,-1],[0,-1],[0,-1],[2,0],[1,-2],[1,0],[0,0],[2,1],[0,0],[0,0],[0,-1],[-1,0],[-1,-1],[-2,0],[0,-2],[1,-1],[0,0],[2,-1],[2,-2],[0,-2],[0,-1],[-1,-1],[-1,-1],[-1,0],[-2,-1],[1,-1],[-1,-2],[2,0],[0,-3],[-1,-2],[0,-1],[1,-2],[0,0],[0,-1],[1,-1],[0,0],[0,-1],[-1,-1],[0,-2],[1,-1],[1,0],[0,0],[-1,-1],[-1,-2],[0,0],[1,0],[0,-1],[1,1],[1,2],[0,-1],[0,-2],[-1,-2],[-1,0],[-1,0],[0,0],[0,-1],[0,0],[0,-1],[1,-1],[1,0],[1,-1],[0,-2],[0,1],[-1,1],[0,1],[-1,0],[0,-1],[-2,-1],[0,0],[-1,0],[0,1],[-1,2],[-1,0],[-2,1],[-1,-1],[-1,0],[0,0],[0,-1],[1,0],[0,-1],[-1,0],[-1,0],[0,-1],[-1,-1],[0,-2],[-1,-2],[1,-1],[0,-4],[0,-3],[1,-2],[0,-1],[1,-1],[1,-1],[1,-4],[-1,-2],[-2,-6],[-1,-1],[0,-2],[0,-2],[0,-1],[0,-2],[-2,-2],[0,-1],[1,-1],[-1,-2],[0,-1],[0,0],[2,0],[1,0],[0,-1],[1,-1],[0,-2],[0,-1],[0,-1],[1,0],[0,-2],[1,-1],[0,-5],[1,-1],[0,-1],[0,-2],[0,-1],[1,0],[0,-2],[0,-1],[2,-1],[0,-2],[1,-3],[0,-3],[0,-1],[0,-1],[0,-2],[1,-1],[0,-1],[1,-2],[0,-1],[0,-1],[0,-2],[-1,-2],[1,0],[0,-1],[1,-3],[0,-2],[0,-1],[-1,-2],[0,-4],[-1,-3],[-1,-4],[0,-1],[-1,-3],[0,-1],[0,-3],[2,-2],[1,-3],[0,-3],[-1,-2],[0,-1],[-1,-1],[-1,-3],[0,-1],[1,0],[1,-2],[0,-1],[1,-2],[0,-3],[0,-3],[0,-1],[1,-1],[0,0],[1,-1],[-1,-2],[0,-1],[1,-3],[0,-1],[1,-2],[0,-2],[0,-1],[0,-1],[0,-3],[-1,-1],[0,-1],[0,-2],[1,-1],[1,-1],[0,-2],[0,0],[-1,-4],[-1,-2],[0,-3],[1,-2],[-1,-2],[0,-1],[0,-1],[1,-1],[0,-1],[0,0],[-1,-1],[-1,-1],[0,-1],[0,-1],[0,-1],[1,0],[1,-1],[0,-1],[1,-3],[0,-4],[0,-3],[0,-1],[0,-2],[0,-2],[0,-1],[0,-1],[-1,-5],[0,-2],[0,-4],[0,-4],[-1,-1],[0,-1],[0,-1],[-1,-2],[-1,-5],[0,-2],[-1,-2],[0,-1]],[[570,804],[0,4],[0,3],[1,3],[0,3],[0,4],[0,3],[0,4],[0,2],[-1,0],[0,1],[-1,0],[-3,0],[-1,-1],[-1,-1],[0,0],[-1,1],[-1,0],[-1,1],[-1,-1],[0,0],[0,0],[-1,1],[-2,-1],[-1,0],[-3,0],[-1,-1],[-3,0],[0,0],[-1,-1],[1,0],[0,-1],[0,0],[1,0],[1,1],[0,-1],[0,0],[1,-1],[0,0],[2,1],[0,0],[1,-1],[0,0],[0,-1],[0,0],[1,0],[1,0],[0,1],[0,1],[1,0],[1,0],[1,0],[0,0],[-2,-2],[0,0],[-1,-1],[-1,0],[-1,-2],[0,-1],[0,-1],[2,-1],[-1,-1],[1,-1],[0,0],[1,3],[1,1],[-1,0],[-1,0],[1,2],[1,0],[1,1],[0,1],[1,0],[1,0],[1,0],[0,-1],[0,0],[1,1],[2,0],[0,1],[1,0],[0,1],[0,0],[0,0],[1,-1],[0,0],[0,0],[0,-1],[0,0],[-1,-1],[-5,-2],[-1,-1],[-1,-2],[0,-1],[0,-1],[1,0],[2,-1],[2,-2],[0,0],[0,-1],[0,0],[-1,0],[-1,0],[0,0],[-1,0],[-2,1],[-1,0],[0,-1],[-1,0],[-1,-2],[0,0],[0,-1],[1,-1],[0,0],[1,0],[0,0],[0,0],[1,-1],[-1,0],[0,0],[0,-1],[-1,0],[0,-1],[0,0],[1,0],[1,0],[0,1],[1,0],[0,-1],[1,0],[1,-2],[0,-1],[1,0],[0,-1],[2,2],[1,1],[2,-2],[0,0],[1,1],[0,0]],[[583,833],[-1,1],[0,0],[-1,1],[0,0],[-1,0],[0,-1],[0,0],[0,0],[0,0],[-1,0],[0,0],[-1,1],[0,0],[0,0],[-2,-1],[0,0],[-1,0],[0,-1],[-1,-1],[1,-1],[2,0],[3,0],[1,0],[1,1],[1,1],[0,0]],[[523,703],[-1,0],[-1,0],[0,0],[-1,0],[-1,0],[-1,-1],[0,0],[0,-1],[0,-1],[1,-2],[0,-3],[-1,-1],[0,-1],[0,-1],[0,0],[0,-1],[0,0],[1,-2],[0,0],[0,-1],[0,-1],[0,0],[0,-1],[0,0],[2,1],[2,0],[0,1],[0,0],[1,2],[0,0],[0,1],[-1,0],[0,1],[1,1],[-1,0],[0,0],[0,1],[-1,0],[0,0],[0,1],[1,1],[1,0],[0,1],[1,1],[0,0],[-1,1],[-1,1],[0,1],[0,1],[0,1]],[[524,767],[0,2],[0,2],[0,2],[0,0],[1,0],[0,0],[0,2],[0,0],[-1,1],[0,1],[0,0],[-1,0],[0,0],[-1,-1],[0,0],[0,-1],[0,-1],[0,0],[0,-1],[0,0],[0,-1],[0,-1],[0,0],[1,0],[-1,0],[0,0],[-1,1],[0,0],[0,1],[0,2],[0,1],[0,0],[-1,0],[-1,0],[-1,-1],[-1,1],[0,-2],[0,0],[1,-1],[0,-1],[0,0],[-1,-1],[0,0],[0,-1],[1,-1],[0,0],[1,1],[1,-1],[-1,-1],[0,0],[0,-1],[1,-1],[0,0],[0,-1],[0,-1],[0,0],[0,-1],[1,0],[0,0],[1,0],[1,0],[0,0],[0,1],[1,3]],[[516,764],[-1,0],[0,-2],[0,-3],[0,-1],[0,-1],[-1,-1],[1,0],[1,-1],[0,1],[1,2],[1,2],[0,2],[0,1],[-2,0],[0,1]],[[529,811],[0,0],[1,0],[0,0],[2,0],[1,0],[1,1],[1,0],[0,1],[1,0],[0,0],[1,1],[0,0],[2,1],[0,0],[-1,0],[-1,0],[-1,0],[0,0],[-1,0],[0,-1],[0,0],[-1,-1],[-1,-1],[-1,0],[-1,1],[0,-1],[-1,1],[-1,-1],[-1,-1],[0,-1],[-1,-1],[0,0],[0,0],[1,0],[1,1],[0,0],[0,1]],[[523,761],[-1,0],[0,0],[-2,1],[-1,-1],[0,-2],[0,0],[-1,-1],[0,-1],[-1,0],[0,-1],[0,-1],[0,0],[2,-1],[0,-1],[1,0],[0,2],[0,1],[1,0],[0,0],[0,1],[1,1],[0,0],[0,1],[0,0],[0,0],[1,2]],[[540,816],[1,1],[0,0],[0,0],[1,0],[2,0],[0,0],[0,1],[1,1],[1,1],[-1,0],[0,1],[0,1],[0,0],[-1,0],[0,1],[-1,0],[-1,1],[0,0],[-1,0],[0,0],[0,0],[0,-1],[0,0],[1,-1],[0,-1],[-1,0],[0,0],[-1,0],[0,0],[0,0],[0,1],[0,0],[0,0],[0,1],[-1,-1],[-1,0],[0,0],[0,-1],[0,-1],[0,-1],[0,0],[0,0],[-1,1],[-1,-1],[-1,-1],[-1,0],[1,-2],[2,0],[0,0],[2,1],[0,-1],[0,0],[0,-1],[0,0],[1,1],[0,0],[0,0],[0,0]],[[525,796],[0,2],[0,1],[1,0],[1,1],[0,0],[-1,2],[0,1],[-1,0],[0,-1],[-1,-1],[-1,-2],[0,-1],[0,-1],[1,0],[0,-1],[1,0]],[[564,832],[6,0],[2,-1],[1,0],[0,1],[-1,2],[0,0],[0,0],[2,0],[0,1],[0,0],[0,1],[0,0],[0,0],[1,1],[1,1],[0,0],[0,1],[0,1],[0,0],[-1,-1],[0,0],[-1,-1],[0,0],[-1,0],[-1,-1],[0,0],[-1,0],[-1,1],[0,-1],[0,0],[0,-1],[0,-1],[0,0],[0,0],[-1,0],[0,0],[-1,-1],[0,0],[-1,0],[0,2],[0,0],[0,1],[1,1],[0,0],[-1,0],[-1,0],[0,-1],[-1,0],[0,-1],[0,0],[0,-1],[0,0],[-1,0],[-1,0],[0,0],[0,0],[0,-1],[-1,0],[1,0],[0,-1],[0,-2],[1,1]],[[552,822],[1,1],[1,0],[0,0],[1,1],[-1,1],[0,0],[0,1],[0,0],[-1,-1],[-2,-1],[0,0],[-1,0],[-1,0],[0,1],[-1,0],[0,-1],[-1,-1],[-1,0],[0,-2],[1,0],[0,-1],[2,1],[1,0],[2,1]],[[524,714],[0,0],[-1,1],[-1,0],[0,1],[0,0],[1,1],[0,1],[1,1],[0,1],[0,0],[0,1],[1,1],[0,0],[0,1],[0,1],[0,0],[-1,0],[0,0],[0,0],[-1,1],[-1,-1],[0,-1],[-1,0],[0,-1],[-1,-2],[-1,0],[0,-2],[-2,-1],[1,0],[0,-2],[1,0],[1,-1],[0,1],[1,-1],[0,0],[0,-1],[0,-1],[1,-1],[0,0],[1,1],[0,0],[1,1],[0,0],[0,1]],[[530,718],[-2,1],[0,-1],[-1,0],[0,-1],[0,-1],[0,0],[0,-1],[1,0],[0,-1],[0,0],[0,-1],[0,0],[2,0],[1,1],[1,0],[0,1],[-1,1],[0,1],[-1,1]],[[514,720],[0,1],[0,0],[0,-1],[0,0],[0,-1],[0,0],[0,1],[0,0],[0,0]],[[520,785],[0,2],[-1,-1],[0,0],[0,0],[0,-1],[0,0],[0,-1],[0,-1],[1,0],[1,0],[0,0],[0,1],[-1,0],[0,0],[0,1]],[[519,764],[0,1],[-1,2],[-1,1],[-1,1],[0,0],[-1,0],[1,-1],[0,-1],[0,0],[0,-1],[0,0],[-1,0],[0,-1],[0,0],[1,0],[0,0],[1,-1],[1,0],[1,0],[0,0]],[[518,753],[-1,0],[0,0],[-1,-1],[1,0],[1,-1],[0,0],[1,1],[0,0],[-1,1],[0,0],[0,0]],[[516,706],[-1,0],[-1,0],[0,0],[1,0],[0,-1],[1,1],[0,0],[0,0],[0,0]],[[525,719],[0,0],[0,0],[0,-1],[-1,0],[0,-1],[0,0],[0,-1],[0,0],[0,0],[1,0],[0,0],[0,1],[0,1],[0,1]],[[526,792],[0,1],[0,0],[0,0],[-1,0],[0,0],[-1,0],[0,1],[-1,0],[0,0],[-1,1],[0,1],[-1,0],[0,0],[0,-2],[0,-1],[1,-1],[1,1],[1,-1],[1,-1],[1,0],[0,0],[0,1]],[[521,781],[-1,1],[-1,0],[-1,0],[1,-1],[0,-1],[0,0],[0,-1],[0,-1],[1,0],[0,0],[1,0],[1,1],[1,1],[-1,0],[-1,1]],[[523,708],[0,0],[0,0],[-1,0],[0,1],[0,0],[-2,0],[0,0],[0,-1],[2,0],[0,-1],[1,0],[0,1]],[[530,799],[0,0],[-1,0],[-1,0],[0,-1],[0,0],[-1,-1],[0,0],[1,0],[0,0],[1,1],[1,0],[0,0],[0,1],[0,0]],[[521,729],[0,0],[-1,0],[-1,0],[-1,0],[0,0],[0,-1],[1,-1],[0,-1],[0,-2],[0,0],[1,-1],[0,0],[1,1],[0,2],[0,1],[1,1],[0,0],[-1,1]],[[580,842],[-1,0],[0,0],[-1,0],[0,0],[0,0],[0,0],[0,0],[2,0],[0,0],[0,0],[0,0],[0,0]],[[587,834],[-1,0],[0,0],[0,0],[0,0],[0,0],[0,0],[0,-1],[0,0],[1,0],[0,1]],[[555,832],[1,0],[0,0],[1,1],[0,-1],[1,0],[1,0],[0,0],[1,2],[0,0],[0,1],[-1,0],[0,0],[0,0],[0,-1],[-1,0],[0,0],[-1,0],[0,0],[0,0],[-1,0],[0,0],[0,-1],[-1,0],[-1,-1],[0,0],[-1,0],[0,0],[0,0],[0,1],[-1,0],[0,-1],[0,0],[0,-1],[1,0],[1,0],[1,1],[0,0]],[[582,841],[-1,0],[0,0],[0,0],[-1,-1],[0,0],[0,0],[0,0],[0,-1],[1,0],[0,0],[0,0],[0,1],[1,0],[0,1],[0,0]],[[553,225],[3,3],[2,2],[1,0],[1,0],[1,0],[1,0],[1,-1],[1,0],[1,-1],[1,-1],[1,0],[0,0],[1,1],[0,1],[0,1],[0,1],[1,0],[1,-2],[0,-1],[1,0],[1,-1],[1,-1],[1,-1],[1,-1],[1,0],[1,0],[1,-1],[1,-1],[1,0],[0,-1],[1,0],[1,0],[1,-1],[1,-1],[1,-1],[0,-2],[0,0],[1,-1],[0,0],[1,0],[2,-1],[1,-1],[2,0],[0,0],[0,-1],[1,-1],[-1,-1],[-2,0],[-1,0],[-3,0],[-1,-1],[0,0],[0,0],[0,-1],[0,-1],[0,-1],[-2,-3],[-1,-2],[0,-2],[0,-1],[0,-1],[0,-1],[-4,-3],[-1,-1],[0,-1],[-2,-2],[0,0],[1,0],[1,0],[0,1],[1,0],[1,0],[3,0],[0,0],[1,1],[0,0],[1,1],[1,1],[1,-1],[2,0],[1,0],[0,1],[1,0],[2,-1],[1,0],[0,0],[2,2],[1,1],[1,1],[1,0],[1,-1],[1,-3],[0,-1],[0,0],[1,0],[1,-1],[1,0],[0,-1],[3,1],[1,0],[3,-1],[3,-1],[1,-2],[1,0],[1,-1],[1,0],[2,0],[0,0],[1,0],[0,-1],[1,-1],[1,-1],[1,0],[1,-1],[0,0],[0,-1],[0,-1],[0,-1],[0,-1],[-1,0],[0,0],[1,0],[1,0],[1,0],[1,0],[1,0],[1,-1],[0,0],[1,0],[0,1],[1,1],[1,0],[0,1],[-1,1],[0,1],[0,1],[0,1],[-1,1],[0,0],[0,1],[0,0],[1,0],[1,0],[1,0],[0,0],[2,1],[0,1],[0,0],[0,1],[0,0],[0,1],[0,0],[1,2],[0,0],[1,0],[0,1],[0,0],[-1,1],[-1,1],[0,1],[0,0],[-2,1],[0,1],[1,1],[0,1],[-1,0],[-1,3],[0,1],[0,2],[0,1],[0,1],[1,3],[0,0],[1,1],[1,2],[-1,2],[0,0],[1,1],[0,0],[0,0],[0,1],[0,0],[1,1],[1,0],[1,1],[1,1],[0,0],[0,0],[1,1],[2,1],[1,0],[1,1],[1,0],[0,1],[0,-1],[1,0],[1,0],[1,0],[1,0],[0,-1],[0,0],[0,-1],[0,0],[1,-1],[0,0],[0,-1],[1,0],[0,0],[0,0],[1,0],[1,1],[0,0],[0,0],[1,0],[0,0],[1,-1],[0,-1],[0,0],[1,0],[1,0],[1,0],[1,0],[1,0],[0,-1],[1,-1],[1,-1],[0,0],[1,0],[1,0],[1,-1],[0,1],[1,0],[0,1],[0,0],[2,0],[1,0],[1,0],[1,0],[0,0],[1,0],[0,-1],[0,1],[1,0],[2,0],[2,1],[1,0],[0,-1],[1,-1],[0,0],[-1,-1],[0,-1],[-1,-1],[-1,0],[0,-1],[1,0],[0,0],[1,-1],[0,-1],[0,0],[0,0],[1,0],[0,0],[2,1],[1,0],[3,0],[0,0],[1,-1],[1,0],[1,0],[0,0],[1,0],[0,-1],[1,0],[0,1],[0,1],[1,0],[0,0],[1,0],[1,0],[0,1],[0,0],[0,1],[1,0],[0,0],[1,0],[0,1],[1,0],[1,1],[1,0],[1,0],[0,0],[1,0],[1,-1],[1,0],[1,-1],[0,0],[1,0],[0,0],[0,0],[1,1],[1,0],[1,0],[0,0],[1,-1],[1,0],[0,1],[0,1],[1,0],[0,0],[1,0],[1,0],[1,0],[0,0],[1,-1],[1,0],[1,-1],[0,0],[1,-1],[1,-1],[0,-1],[1,-2],[1,-1],[0,0],[0,-1],[0,-1],[1,-1],[0,0],[1,-1],[1,-1],[0,-1],[2,-2],[0,-1],[1,0],[0,-1],[0,0],[1,-1],[0,0],[1,-1],[1,0],[0,-1],[1,-2],[1,-1],[1,0],[1,2],[1,1],[2,5],[0,5],[0,2],[2,5],[0,1],[0,1],[1,2],[0,2],[0,0],[0,0],[0,1],[1,0],[0,1],[1,1],[0,1],[2,1],[1,0],[2,1],[1,1],[1,2],[-1,2],[0,1],[0,1],[-2,0],[0,1],[-3,2],[0,1],[-2,1],[-1,2],[-2,2],[-1,1],[-1,0],[-1,0],[-1,2],[-3,0],[0,1],[-1,3],[-1,1],[-1,0],[-2,3],[0,1],[0,2],[-1,1],[-2,0],[0,2],[0,0],[-1,1],[-2,-1],[-4,2],[-1,0],[4,0],[1,1],[3,0],[3,-2],[2,-1],[2,-1],[2,-1],[2,-1],[0,0],[1,-1],[1,1],[0,0],[-1,1],[0,1],[1,1],[0,1],[0,0],[0,2],[1,1],[0,1],[0,1],[0,0],[1,1],[2,2],[1,-1],[2,0],[0,-1],[2,0],[1,1],[2,0],[1,0],[3,-2],[-1,3],[-1,2],[0,1],[-1,3],[-1,1],[0,1],[1,-1],[0,0],[1,-1],[1,-2],[2,-4],[1,-1],[2,0],[3,-4],[1,0],[1,1],[1,1],[0,-1],[1,0],[-1,-1],[0,-1],[0,0],[1,-1],[-1,-1],[2,-1],[0,-1],[1,-1],[1,-1],[0,0],[1,-1],[0,0],[1,0],[0,1],[1,-1],[1,0],[1,0],[0,1],[0,0],[1,0],[1,-1],[1,1],[0,1],[0,-1],[0,0],[0,-1],[1,0],[1,0],[1,1],[1,1],[1,0],[1,0],[0,0],[1,0],[1,1],[1,1],[0,1],[1,0],[1,1],[1,0],[2,0],[0,1],[0,0],[1,0],[1,1],[2,1],[2,1],[1,0],[1,0],[1,3],[0,2],[0,-1],[1,0],[1,-2],[1,0],[0,1],[1,1],[1,1],[1,0],[0,0],[0,1],[0,0],[1,0],[1,1],[0,1],[0,1],[0,1],[-1,0],[0,1],[-1,0],[-1,0],[1,1],[0,1],[1,-2],[1,0],[1,0],[0,1],[0,1],[-1,0],[0,1],[-1,0],[0,1],[0,1],[-1,1],[-1,4],[0,1],[1,-1],[2,-2],[1,-2],[1,-2],[1,-1],[1,0],[0,1],[0,0],[0,1],[-1,1],[0,0],[0,1],[2,-2],[1,0],[1,0],[1,0],[4,0],[0,-1],[1,-1],[1,1],[3,1],[1,1],[2,1],[1,1],[3,2],[3,0],[2,0],[1,1],[1,0],[2,1],[1,1],[2,-1],[3,1],[5,-1],[3,1],[2,1],[2,2],[2,1],[1,1],[2,1],[3,2],[1,2],[2,2],[2,1],[1,2],[1,1],[2,3],[3,3],[1,2],[3,2],[1,2],[3,1],[1,0],[1,2],[1,0],[2,1],[3,0],[2,0],[4,2],[1,0],[1,1],[1,4],[0,4],[0,3],[1,2],[0,5],[0,1],[0,1],[0,0],[0,3],[0,1],[-1,2],[0,0],[0,1],[-1,1],[0,0],[0,1],[0,2],[-1,1],[-1,3],[-3,5],[-3,3],[-3,3],[-2,1],[-1,0],[0,0],[0,1],[0,0],[-3,2],[-2,2],[-2,2],[0,0],[-3,1],[-1,0],[-2,2],[-2,2],[-1,0],[0,0],[0,1],[-2,2],[0,0],[0,-1],[0,0],[0,0],[0,-1],[0,0],[-1,2],[0,1],[-1,1],[-3,5],[-4,3],[0,1],[-3,3],[-2,1],[0,0],[-1,-1],[0,-2],[-1,-1],[0,0],[-1,1],[-1,0],[0,0],[0,1],[1,0],[-1,2],[-1,1],[-1,1],[-1,1],[0,1],[-1,1],[1,0],[0,0],[0,0],[0,1],[-1,1],[0,2],[0,1],[0,0],[1,-1],[0,1],[-2,6],[0,3],[-1,3],[0,4],[0,3],[0,0],[-1,3],[-1,3],[-1,3],[-1,3],[-1,1],[0,1],[0,4],[0,0],[-2,2],[-1,0],[-1,1],[-2,2],[-1,4],[-1,2],[0,5],[-1,2],[0,1],[-1,0],[-2,1],[-1,2],[-1,3],[-1,0],[-1,2],[-1,1],[-2,2],[-1,0],[-1,1],[-1,1],[-1,2],[-1,3],[0,1],[0,0],[0,3],[-1,1],[-1,1],[-5,1],[-1,0],[-3,3],[0,0],[0,1],[0,1],[0,0],[-1,1],[-1,0],[-4,0],[-2,0],[-2,-1],[0,0],[-1,0],[0,-1],[1,-1],[0,0],[-1,0],[-1,0],[0,0],[0,1],[0,0],[0,1],[0,0],[-1,0],[-2,0],[-2,0],[-2,1],[0,-1],[0,0],[1,0],[2,0],[-1,-1],[-1,0],[-2,0],[-1,0],[-2,0],[-3,0],[0,1],[0,1],[0,0],[1,1],[-1,0],[0,0],[-3,0],[-3,2],[-1,0],[-1,1],[0,1],[0,0],[-1,0],[-1,0],[-2,-1],[-1,1],[-6,2],[-3,1],[-3,3],[-4,2],[-3,2],[0,0],[0,0],[-1,0],[0,1],[1,0],[-1,1],[-1,0],[-1,2],[-1,0],[1,-1],[-1,0],[-1,0],[-1,0],[0,1],[0,0],[-1,0],[-1,0],[0,-1],[0,2],[2,0],[0,0],[1,1],[-2,2],[-1,0],[0,1],[0,0],[1,0],[-1,3],[-1,0],[0,0],[0,1],[0,0],[0,1],[0,1],[0,1],[0,1],[0,2],[0,2],[1,0],[0,1],[-1,1],[0,1],[0,2],[0,3],[-1,2],[0,2],[-1,1],[-1,1],[0,1],[-2,1],[-2,2],[-2,2],[-3,3],[-3,4],[-3,6],[-3,5],[-1,2],[-2,2],[-2,2],[-3,2],[-3,2],[-1,1],[-1,1],[-1,-1],[1,-1],[0,0],[0,-1],[0,0],[1,0],[1,0],[0,0],[1,-1],[2,-2],[2,0],[1,-2],[0,0],[0,-2],[1,0],[1,0],[0,-1],[0,0],[0,-1],[2,-1],[1,-1],[0,-3],[0,0],[0,0],[1,0],[0,-1],[0,-1],[-1,0],[-2,1],[-1,0],[0,-1],[-1,0],[-1,-1],[0,-1],[0,0],[0,1],[0,1],[1,1],[-1,1],[0,0],[-1,1],[0,2],[0,0],[0,-1],[-1,2],[0,1],[-1,0],[0,1],[0,1],[-2,1],[-2,1],[0,0],[-1,1],[0,1],[-1,1],[-1,2],[0,1],[1,1],[0,1],[-1,1],[0,1],[-1,1],[-2,5],[-1,2],[-1,1],[-2,2],[-4,3],[0,0],[-1,0],[0,-1],[0,0],[0,0],[0,-1],[0,-4],[0,-1],[0,0],[1,0],[1,-1],[1,-1],[1,-1],[0,-1],[-1,0],[-1,-1],[-1,-1],[-1,-1],[-1,-1],[0,-1],[0,-1],[0,-1],[-1,0],[0,0],[-1,-1],[0,0],[-1,0],[-1,-1],[-2,-1],[-1,-1],[0,-1],[0,-1],[-3,-1],[-1,-1],[-1,0],[-1,0],[0,-1],[-1,0],[0,-1],[0,0],[0,-1],[-1,-1],[-1,0],[0,-1],[0,0],[-1,1],[0,0],[0,0],[-1,1],[0,0],[-1,0],[0,1],[-1,0],[0,-1],[0,0],[0,-2],[0,-1],[-1,0],[0,-1],[-2,-2],[-3,-3],[-1,-1],[-1,0],[-1,0],[-1,1],[0,1],[0,0],[-2,0],[-2,0],[0,-1],[0,-1],[2,-1],[1,-1],[0,0],[1,-1],[1,-1],[1,-1],[2,-2],[1,-1],[0,-1],[1,-1],[0,0],[1,-1],[1,-2],[1,-1],[1,-1],[1,0],[0,-1],[0,0],[1,0],[0,-1],[0,0],[0,-1],[0,0],[1,0],[0,1],[1,0],[0,-1],[0,0],[-1,-1],[1,0],[1,-1],[1,0],[0,-1],[1,-1],[1,0],[1,0],[1,-1],[0,0],[0,0],[1,-1],[0,0],[0,-1],[1,0],[0,-1],[0,0],[1,0],[0,0],[1,0],[1,-1],[0,0],[0,0],[2,0],[0,0],[1,-1],[0,0],[1,0],[0,-1],[1,0],[1,0],[0,-1],[1,-1],[0,-1],[0,-1],[0,-1],[0,0],[1,-3],[0,-1],[0,0],[0,-1],[0,-1],[-1,-2],[0,-2],[-1,-1],[0,0],[-1,-1],[0,0],[-1,0],[0,0],[0,0],[-1,0],[-1,0],[0,0],[-1,1],[0,-1],[-1,0],[0,0],[0,-1],[1,-3],[1,-1],[-1,0],[1,-2],[1,-4],[0,-2],[0,-1],[0,-1],[1,0],[0,-1],[-1,0],[-1,-1],[-1,-1],[-1,0],[0,0],[-1,0],[0,1],[-2,0],[0,0],[-1,1],[-1,0],[-1,0],[-1,-1],[0,0],[0,-1],[0,-1],[0,-1],[-1,0],[0,-1],[0,-1],[0,0],[0,-1],[0,0],[0,-1],[0,0],[0,-1],[-1,-1],[0,-1],[0,0],[0,-1],[0,-1],[0,-1],[0,0],[0,-1],[0,0],[-1,-1],[0,-1],[0,-1],[-1,0],[0,0],[-1,0],[-1,0],[-1,-1],[0,0],[-1,0],[0,-1],[-1,-1],[0,0],[-1,1],[0,0],[-1,0],[0,1],[-1,0],[-1,0],[0,0],[-1,0],[-1,0],[-1,0],[-1,-1],[-1,0],[0,0],[-1,0],[-1,0],[-1,0],[-1,-1],[0,0],[-1,1],[0,0],[-1,-1],[0,0],[0,-1],[0,0],[0,-1],[0,0],[0,-1],[0,0],[1,-1],[0,0],[-1,-1],[0,-1],[0,0],[1,-1],[0,0],[0,-1],[0,0],[0,-1],[1,-1],[0,-1],[-1,-1],[0,0],[0,0],[0,-1],[0,0],[0,-1],[0,0],[0,0],[-1,-1],[0,0],[0,0],[0,-1],[0,-1],[0,0],[-1,-1],[0,0],[0,-1],[0,0],[-1,-1],[1,0],[0,0],[1,-1],[0,0],[1,0],[0,-1],[-1,-1],[-1,-1],[0,-1],[1,-3],[1,-2],[1,-1],[0,0],[1,0],[0,-1],[0,-1],[-1,0],[1,-2],[1,-2],[1,-2],[0,-1],[0,0],[0,0],[0,0],[-1,-1],[0,-2],[-1,-3],[0,-1],[-1,0],[-1,0],[0,0],[-3,-2],[-1,-1],[0,0],[-1,-2],[0,-2],[0,-2],[0,-1],[1,-1],[0,-1],[0,-1],[0,0],[0,0],[-1,0],[0,0],[-1,0],[-4,0],[-5,0],[-4,0],[-3,-1],[0,-1],[-1,-2],[0,-2],[0,-3],[-1,-2],[-2,-1],[0,-1],[1,0],[2,0],[0,-5],[-1,0],[0,-2],[0,-1],[-1,-1],[0,0],[0,-1],[0,0],[0,-1],[0,-1],[0,-1],[-1,-1],[-1,0],[-1,-1],[-2,-1],[-1,-1],[-1,0],[-3,1],[-1,0],[-1,0],[-2,0],[-1,-1],[0,-1],[-2,-1],[0,-1],[-1,0],[-1,0],[-1,0],[-1,-1],[-2,-1],[-1,0],[-1,0],[-1,-1],[-1,-1],[0,0],[0,-1],[-1,0],[0,0],[-1,0],[-1,0],[-1,-1],[-1,0],[-1,-1],[-1,0],[-1,0],[-1,1],[-1,-1],[-2,0],[-2,0],[-1,-1],[0,-1],[-1,-1],[-1,0],[-1,-1],[-1,0],[0,-1],[-1,0],[0,0],[-1,-1],[0,0],[0,-1],[-1,0],[0,0],[0,0],[0,0],[0,-1],[0,0],[-1,-1],[0,-1],[-1,0],[0,-1],[0,-1],[0,0],[-1,0],[0,-1],[0,-1],[1,-1],[0,-1],[-1,-2],[-1,-1],[0,-1],[0,-1],[1,-1],[1,-1],[0,-1],[-1,-1],[0,-1],[1,-1],[-1,-1],[0,-1],[-1,0],[0,0],[-1,1],[-1,0],[-1,0],[-2,0],[-4,1],[-1,0],[-1,1],[-1,0],[-1,1],[-4,3],[-1,1],[-1,0],[0,0],[-1,0],[-2,2],[-1,1],[0,1],[-1,0],[-1,0],[-1,0],[-1,0],[-1,1],[-1,2],[0,0],[-1,1],[-1,0],[-1,1],[-1,0],[-1,0],[0,0],[0,-1],[-1,0],[-2,0],[-2,0],[-2,0],[-2,0],[-1,0],[-1,0],[-2,0],[-1,1],[-1,0],[-1,1],[0,0],[-1,0],[-1,-1],[-1,0],[0,0],[-1,0],[0,-1],[0,-3],[0,-3],[0,-1],[0,-3],[-1,-1],[1,-1],[0,-1],[0,0],[0,-1],[0,-1],[0,0],[-1,0],[0,0],[0,0],[-1,1],[-1,1],[0,0],[-1,1],[-1,1],[-1,0],[-1,2],[-1,0],[-3,1],[-3,0],[-2,0],[-1,0],[0,-1],[0,-1],[-1,0],[0,-1],[0,-1],[-1,-1],[0,0],[-1,0],[-2,0],[-2,-1],[-2,0],[-2,1],[1,-2],[1,-2],[0,-1],[-1,-1],[-1,-1],[-1,-1],[-1,0],[0,-1],[-1,-1],[0,0],[0,0],[0,-1],[-1,0],[-1,0],[0,-1],[0,0],[-1,-1],[0,0],[0,-1],[-1,-1],[0,0],[-1,0],[0,-1],[1,0],[0,-1],[0,0],[-1,0],[0,-1],[-1,0],[-1,-1],[0,0],[0,0],[0,-1],[0,0],[0,0],[0,-1],[0,0],[0,0],[0,0],[1,-1],[0,0],[1,0],[0,0],[0,-1],[0,-1],[-1,0],[0,-1],[0,-1],[0,-1],[1,0],[2,-2],[2,-2],[1,0],[0,0],[1,-1],[0,-1],[-1,0],[0,-1],[0,-1],[-1,-1],[0,-1],[1,-1],[1,-1],[0,-2],[0,-1],[0,-1],[1,-2],[0,-1],[0,-1],[0,0],[0,0],[2,-1],[1,0],[1,-2],[1,-1],[1,-1],[2,-1],[1,-1],[1,0],[1,-1],[2,0],[1,0],[1,-1],[1,0],[1,-1],[1,0],[2,0],[1,-1],[0,-1],[1,0],[1,-1],[1,0],[1,0],[1,0],[1,0],[0,1],[1,1],[1,0],[0,-1],[1,1],[1,0],[0,-1],[0,0],[0,-1],[0,-2],[1,-4],[0,-3],[1,-4],[0,-4],[0,-4],[1,-3],[0,-3],[0,-2],[1,-2],[0,-2],[0,-1],[0,0],[-1,-1],[0,0],[0,0],[0,-1],[0,0],[-1,0],[0,-1],[0,0],[0,0],[-1,-1],[0,0],[0,-1],[0,0],[0,-1],[0,0],[0,-1],[0,0],[-1,0],[-1,-1],[-1,0],[-1,-1],[-1,-1],[-1,-1],[0,-2],[0,-2],[0,-3],[0,-1],[1,0],[0,0],[1,-1],[1,0],[0,0],[1,0],[0,0],[1,0],[0,-1],[0,0],[1,0],[0,0],[1,0],[0,0],[1,0],[0,0],[0,0],[1,1],[0,0],[0,0],[1,-1],[0,0],[0,0],[0,0],[0,0],[0,-1],[0,0],[0,-1],[-1,0],[0,-1],[0,-1],[-1,0],[-1,0],[0,0],[0,0],[-1,0],[0,0],[-1,0],[0,0],[-2,0],[0,0],[-1,0],[0,0],[0,-3],[-1,-2],[0,-2],[1,0],[1,-1],[1,0],[0,0],[1,0],[1,0],[1,0],[0,0],[3,0],[2,0],[3,0],[2,0],[3,-1],[1,0],[-1,0],[0,-1],[0,-1],[0,0],[0,-1],[1,1],[1,1],[0,0],[1,1],[0,0],[1,0],[1,-1],[1,-1],[1,-2],[0,0],[1,-1],[1,0],[0,0],[1,1],[0,0],[2,2],[1,2],[0,1],[0,2],[0,2],[0,1],[1,0],[2,-1]],[[749,244],[1,0],[2,0],[1,0],[1,0],[1,0],[4,1],[2,0],[1,1],[0,0],[1,0],[0,1],[-1,1],[0,1],[-1,1],[0,1],[0,-1],[0,2],[0,0],[-1,1],[0,1],[-1,1],[-1,0],[0,1],[-1,0],[0,1],[0,0],[0,1],[-1,1],[-1,0],[0,0],[-1,0],[-1,-1],[0,1],[0,1],[-1,0],[-1,0],[-1,-1],[-1,0],[0,1],[-1,1],[-1,0],[-1,0],[0,1],[-1,-1],[-2,0],[0,0],[-1,0],[-2,0],[-1,0],[-1,0],[-1,-1],[0,-1],[-1,-1],[0,-2],[-1,-1],[1,-1],[1,0],[0,0],[1,0],[0,-1],[-1,0],[-1,0],[-1,-1],[0,-1],[1,-2],[0,-1],[0,-1],[1,0],[0,-1],[0,-1],[0,-1],[3,-1],[2,-1],[7,2]],[[782,494],[0,0],[0,0],[-1,0],[-1,0],[0,0],[1,-1],[0,0],[0,0],[1,0],[0,1]],[[737,523],[0,0],[-1,-1],[2,-1],[0,0],[0,1],[-1,1],[0,0]],[[771,500],[0,1],[-1,-1],[-1,1],[0,-1],[1,-1],[1,0],[0,0],[0,1],[0,0],[0,0]],[[803,280],[-1,1],[1,-1],[0,-1],[0,-1],[1,0],[0,0],[0,1],[0,0],[-1,1]],[[849,397],[0,1],[0,-1],[1,-1],[1,-1],[0,1],[0,0],[0,1],[-2,0]],[[847,401],[0,1],[-1,-1],[0,0],[0,0],[0,-1],[1,0],[0,0],[0,1]],[[801,262],[-1,0],[0,0],[0,0],[0,0],[0,0],[0,-1],[1,0],[0,1]],[[748,239],[1,0],[-2,2],[-1,1],[-1,0],[-1,-1],[-2,0],[-1,0],[0,-1],[1,-1],[2,0],[3,-1],[1,1]],[[743,219],[-1,0],[-1,0],[0,-1],[0,-1],[1,-1],[1,0],[0,1],[0,2],[0,0]],[[738,242],[-4,2],[-1,0],[0,-1],[0,0],[0,0],[1,-1],[1,-1],[1,0],[1,1],[1,0],[0,0]],[[751,243],[-3,0],[-1,0],[0,-1],[1,-1],[2,0],[1,0],[1,0],[0,1],[0,1],[-1,0]],[[740,239],[0,2],[-2,-1],[0,-1],[1,-1],[1,-1],[1,-1],[0,-1],[0,-1],[0,0],[1,0],[-1,3],[0,1],[-1,1]],[[744,237],[-2,0],[0,0],[0,-2],[1,0],[1,-1],[0,0],[1,0],[0,1],[0,0],[-1,2]],[[723,256],[-1,0],[2,-2],[1,-2],[0,-2],[2,-2],[1,-1],[2,0],[1,1],[-1,4],[-1,0],[-1,2],[-2,1],[-3,1]],[[737,537],[-1,1],[0,-3],[1,-1],[0,0],[1,-1],[0,1],[0,1],[-1,2],[0,0]],[[537,430],[0,-1],[0,-1],[-1,0],[0,0],[0,-1],[0,0],[1,-1],[0,-1],[1,0],[0,-1],[1,-1],[1,-1],[0,-1],[1,0],[0,-1],[0,-1],[0,0],[0,-1],[1,0],[1,-1],[0,0],[0,0],[-1,-1],[-1,0],[-1,0],[-1,0],[0,-1],[-2,-4],[0,-1],[0,0],[1,-2],[0,-1],[1,-1],[0,-1],[-2,-1],[0,-1],[-1,-1],[1,-1],[0,0],[1,-1],[0,-1],[0,0],[0,-1],[1,0],[0,-1],[1,0],[0,-2],[0,0],[1,0],[0,-1],[0,0],[-1,-1],[0,-1],[-1,-2],[0,-1],[0,0],[0,-1],[0,-1],[0,-1],[0,-4],[0,-1],[0,-1],[1,-1],[1,0],[0,0],[0,-1],[0,-1],[1,0],[-2,-3],[-1,-2],[-1,-2],[-2,-2],[-1,-1],[-1,-2],[-1,-2],[-2,-2],[2,0],[2,0],[2,0],[2,0],[1,0],[0,1],[0,0],[1,0],[1,0],[1,-1],[1,0],[1,-1],[0,0],[1,-2],[1,-1],[1,0],[1,0],[1,0],[1,0],[0,-1],[1,-1],[2,-2],[1,0],[0,0],[1,0],[1,-1],[4,-3],[1,-1],[1,0],[1,-1],[1,0],[4,-1],[2,0],[1,0],[1,0],[1,-1],[0,0],[1,0],[0,1],[1,1],[-1,1],[0,1],[1,1],[0,1],[-1,1],[-1,1],[0,1],[0,1],[1,1],[1,2],[0,1],[-1,1],[0,1],[0,1],[1,0],[0,0],[0,1],[0,1],[1,0],[0,1],[1,1],[0,0],[0,1],[0,0],[0,0],[0,0],[1,0],[0,1],[0,0],[1,1],[0,0],[1,0],[0,1],[1,0],[1,1],[1,0],[1,1],[0,1],[1,1],[2,0],[2,0],[1,1],[1,-1],[1,0],[1,0],[1,1],[1,0],[1,1],[1,0],[1,0],[0,0],[1,0],[0,1],[0,0],[1,1],[1,1],[1,0],[1,0],[2,1],[1,1],[1,0],[1,0],[1,0],[0,1],[2,1],[0,1],[1,1],[2,0],[1,0],[1,0],[3,-1],[1,0],[1,1],[2,1],[1,1],[1,0],[1,1],[0,1],[0,1],[0,1],[0,0],[0,1],[0,0],[1,1],[0,1],[0,2],[1,0],[0,5],[-2,0],[-1,0],[0,1],[2,1],[1,2],[0,3],[0,2],[1,2],[0,1],[3,1],[4,0],[5,0],[4,0],[1,0],[0,0],[1,0],[0,0],[0,0],[0,1],[0,1],[-1,1],[0,1],[0,2],[0,2],[1,2],[0,0],[1,1],[3,2],[0,0],[1,0],[1,0],[0,1],[1,3],[0,2],[1,1],[0,0],[0,0],[0,0],[0,1],[-1,2],[-1,2],[-1,2],[1,0],[0,1],[0,1],[-1,0],[0,0],[-1,1],[-1,2],[-1,3],[0,1],[1,1],[1,1],[0,1],[-1,0],[0,0],[-1,1],[0,0],[-1,0],[1,-2],[0,-1],[-1,0],[-3,-2],[-2,-2],[-4,-2],[-4,0],[-5,0],[-4,1],[-4,1],[-2,0],[-4,1],[-3,1],[0,1],[-1,3],[-1,2],[-1,1],[-2,2],[1,3],[0,3],[-1,3],[-1,3],[-1,3],[-1,2],[0,1],[0,0],[-1,-1],[0,-1],[-1,-1],[0,0],[-4,0],[-4,1],[0,0],[-1,0],[0,0],[0,0],[-1,0],[-1,0],[-1,3],[-1,2],[0,1],[-1,2],[0,0],[0,0],[-1,-2],[0,-1],[-1,-1],[-1,-2],[-1,0],[0,0],[-1,-1],[-1,0],[-1,0],[-4,0],[0,0],[-2,0],[-1,0],[-1,-1],[-2,-1],[0,0],[-1,-1],[0,0],[0,1],[-1,1],[0,1],[0,1],[-2,0],[-1,1],[-1,0],[0,0],[0,1],[0,1],[-2,1],[-1,0],[0,2],[-1,1],[0,0],[-2,1],[-2,0],[-1,0],[-1,0],[0,0],[-1,0],[0,-1],[0,0],[0,-1],[0,-2],[0,-1],[0,-1],[-1,-1],[0,-1],[-1,-1],[0,-1],[0,-1],[-1,-2],[0,-1],[-1,-2],[-1,-2],[-1,-1],[-1,-1],[0,0],[0,0],[0,-1],[0,-1],[0,0],[0,-1],[0,0],[-2,-1],[0,0],[-1,-1],[0,0],[1,0],[0,-1],[0,-1],[0,0],[-1,-1],[0,0],[1,0],[1,-1],[0,0],[0,-1],[0,-1],[-1,-1],[0,0],[1,-2],[0,-1],[1,0],[0,0],[-1,0],[0,-1],[-1,0],[-1,-1],[0,-1],[-1,0],[-1,-1],[-1,0],[0,-1],[0,-1],[0,-2],[-1,-1],[0,-1],[0,-1],[0,-1],[-1,0],[0,-1],[0,0],[1,-1],[0,0],[-2,-1],[-1,0],[0,-2],[-2,-1],[0,-1]],[[653,558],[0,0],[0,1],[-1,1],[-1,1],[0,1],[0,1],[0,2],[0,0],[-1,1],[0,0],[1,1],[0,0],[-1,1],[0,1],[-1,2],[0,0],[0,1],[0,0],[0,1],[0,0],[0,1],[-1,1],[0,0],[0,1],[0,1],[0,0],[0,1],[0,1],[0,0],[0,1],[-1,2],[0,1],[1,4],[-1,0],[0,1],[-1,0],[0,0],[-1,0],[0,2],[-1,4],[0,1],[1,1],[0,1],[0,1],[0,2],[0,0],[0,0],[-1,1],[1,1],[0,1],[1,2],[5,2],[2,1],[2,2],[1,2],[0,1],[-2,3],[0,2],[0,1],[1,1],[1,2],[2,0],[1,0],[0,1],[1,0],[0,3],[0,2],[-1,1],[-3,5],[-3,3],[-1,2],[0,2],[-1,0],[-4,3],[-7,3],[-6,1],[-1,0],[-9,2],[-2,0],[-2,0],[-2,0],[-2,0],[-2,-1],[-1,-1],[-1,0],[0,1],[0,1],[0,2],[1,1],[0,0],[1,1],[1,0],[-1,0],[0,1],[0,0],[0,1],[0,3],[-1,1],[0,0],[-1,0],[0,3],[0,2],[0,1],[1,2],[0,2],[-1,1],[-3,1],[-1,1],[-2,1],[-4,0],[-1,0],[-3,-2],[-2,-1],[-2,0],[-2,-1],[0,0],[0,0],[0,-1],[0,0],[-2,1],[0,1],[0,1],[0,1],[0,2],[1,3],[0,2],[0,3],[1,1],[0,1],[2,0],[1,1],[0,0],[0,0],[0,0],[0,1],[0,0],[1,1],[1,-1],[2,0],[0,0],[0,-1],[-2,0],[1,-1],[1,0],[1,-1],[1,0],[1,0],[0,1],[0,1],[1,1],[0,2],[0,1],[-1,1],[0,0],[-3,1],[0,0],[-1,-1],[0,-1],[-1,-1],[-1,0],[-2,0],[-1,1],[-1,0],[-1,1],[4,2],[1,0],[1,0],[0,0],[0,1],[-1,0],[-2,1],[-1,1],[-1,1],[-2,3],[0,0],[0,1],[0,2],[0,2],[0,2],[0,1],[0,1],[0,1],[-3,2],[0,2],[1,1],[0,0],[0,1],[-1,0],[-4,0],[-1,1],[-1,1],[0,0],[-1,0],[-2,1],[0,0],[-3,4],[-1,2],[-1,2],[0,1],[0,2],[0,1],[0,1],[1,1],[1,1],[5,5],[1,0],[5,0],[1,1],[1,1],[0,1],[0,3],[0,0],[-1,1],[-1,1],[-1,1],[0,0],[0,0],[2,0],[0,0],[1,1],[-1,0],[0,1],[-1,0],[-2,4],[-2,0],[-1,2],[-2,1],[-1,1],[-1,1],[-1,2],[-2,3],[0,1],[1,0],[-1,6],[0,1],[-1,1],[-1,1],[-1,0],[-1,0],[-1,-1],[-1,-1],[-1,-2],[1,1],[0,1],[0,1],[-2,0],[-1,0],[2,0],[1,0],[1,1],[0,0],[1,1],[-1,0],[-1,1],[-1,1],[-1,1],[-1,1],[0,1],[0,2],[0,1],[-1,2],[-1,0],[0,1],[1,-1],[1,0],[0,1],[1,3],[0,1],[0,1],[0,0],[-1,1],[-1,0],[-1,0],[1,0],[0,0],[1,1],[1,-1],[1,1],[0,0],[2,4],[2,2],[0,1],[0,0],[0,0],[-1,0],[-1,-1],[-1,0],[-3,-1],[-2,0],[-1,0],[-2,-1],[-4,0],[-3,1],[-4,0],[-2,0],[-1,0],[-1,0],[0,-1],[0,-1],[-1,-1],[-1,0],[-1,-1],[0,-1],[0,-1],[0,-2],[0,-1],[0,0],[0,-1],[0,0],[0,-1],[0,-1],[0,-2],[-1,-1],[0,0],[-1,0],[0,-1],[-1,1],[-1,0],[0,0],[-1,1],[-1,1],[0,-1],[-1,0],[0,-1],[0,-1],[-1,-1],[0,-1],[-1,-1],[-1,-1],[0,-1],[0,-2],[0,-1],[0,-1],[-1,-1],[0,-2],[1,-1],[0,-1],[2,0],[0,-1],[0,-1],[1,-1],[0,-1],[1,0],[1,-1],[0,-1],[0,0],[0,-1],[0,-1],[0,-1],[0,-1],[1,0],[1,-1],[0,-2],[0,-1],[-1,-1],[-1,0],[0,-1],[0,-2],[1,-1],[0,-1],[0,-1],[0,0],[2,-2],[0,-1],[1,0],[0,0],[0,-1],[0,-1],[-1,0],[0,-1],[0,-2],[1,0],[1,-1],[0,-1],[0,-1],[0,-1],[-1,-1],[0,-1],[0,-1],[-1,0],[1,-1],[1,0],[0,-1],[0,-1],[-1,-1],[0,-1],[0,-2],[0,0],[1,0],[1,-1],[1,-2],[-1,-1],[0,0],[-1,-1],[-1,-1],[-1,-1],[-2,0],[-1,-1],[0,0],[1,0],[2,0],[1,0],[0,-1],[1,0],[1,0],[1,0],[0,-1],[0,-1],[0,-1],[0,0],[-1,0],[-4,-1],[0,0],[0,-1],[0,-1],[0,-1],[0,0],[0,-1],[1,-1],[-1,0],[0,-2],[0,0],[0,-1],[0,0],[-1,-1],[-1,-1],[0,-1],[1,0],[0,-1],[0,0],[0,-1],[-1,0],[-1,0],[-1,-1],[0,-1],[0,-2],[0,-1],[0,-1],[0,-1],[0,0],[0,-1],[0,-1],[0,-1],[0,0],[0,-1],[0,0],[1,0],[0,0],[1,0],[0,-1],[0,-1],[-1,-2],[0,-1],[0,-1],[0,0],[0,-2],[-1,-1],[0,-3],[0,-1],[0,-1],[0,-1],[0,-1],[0,-1],[0,-1],[1,-1],[0,0],[0,0],[0,-1],[-1,0],[0,-1],[0,-1],[0,0],[1,0],[0,-1],[0,-1],[0,0],[0,-1],[0,-1],[-1,-1],[0,0],[1,0],[0,0],[1,0],[0,-1],[0,0],[0,-1],[0,-1],[0,-1],[0,-1],[0,-2],[0,-1],[1,0],[0,-1],[1,0],[1,-1],[1,0],[0,-1],[0,0],[0,-1],[0,-1],[-1,0],[0,-1],[0,-2],[0,-1],[-1,-2],[-1,-1],[0,-1],[0,-1],[0,-1],[0,-1],[-1,-1],[1,-1],[0,-1],[0,-1],[-1,-1],[0,-1],[0,-1],[1,-1],[0,0],[0,-1],[0,0],[1,-1],[0,0],[1,-1],[0,0],[0,0],[1,0],[0,-1],[0,-1],[1,-1],[1,0],[0,-1],[0,0],[0,-1],[0,-2],[0,-1],[0,-1],[-1,-1],[0,-1],[0,0],[-1,0],[0,-1],[0,0],[1,-1],[0,0],[1,-2],[0,-1],[0,-1],[0,-1],[0,0],[1,-1],[0,-1],[0,-1],[1,-1],[0,0],[0,0],[1,-1],[0,0],[0,0],[0,-1],[0,-1],[0,-1],[0,-2],[0,-2],[0,-1],[0,-1],[0,0],[0,-1],[-1,0],[0,0],[-1,0],[0,-1],[-1,0],[0,-1],[1,-1],[0,-1],[0,0],[-1,-1],[-1,-2],[0,-1],[0,-1],[-1,-1],[0,0],[-1,-1],[0,-1],[0,0],[1,-1],[0,0],[0,-1],[-1,0],[0,0],[-1,-1],[-1,-1],[0,-1],[0,-2],[0,-1],[0,-1],[0,-1],[0,0],[1,0],[0,0],[1,-1],[0,0],[0,0],[0,-1],[-1,0],[1,-1],[0,-2],[0,-2],[1,0],[0,-1],[0,0],[0,0],[1,0],[1,-1],[0,-1],[0,0],[0,-1],[0,0],[-1,0],[0,-1],[0,-1],[0,-1],[0,-3],[-1,-2],[0,-1],[1,-1],[1,0],[0,-1],[0,-3],[0,-1],[1,-1],[0,-1],[1,-2],[0,-1],[1,0],[0,0],[0,-1],[1,-1],[1,-1],[0,-1],[0,-1],[1,-2],[0,-1],[1,0],[0,-2],[0,-1],[1,0],[0,-1],[1,1],[1,0],[0,-1],[1,0],[1,-1],[0,0],[0,-1],[-1,-1],[-1,-1],[-1,-2],[0,0],[0,-1],[0,0],[1,-1],[1,-2],[-1,0],[-1,-4],[0,-1],[-1,-1],[0,-1],[1,-2],[0,-1],[1,0],[0,0],[0,-1],[0,0],[-1,0],[0,-1],[0,0],[-1,-1],[0,-1],[1,-1],[0,-1],[0,0],[1,-1],[1,0],[0,-1],[2,-1],[1,-1],[3,-1],[2,-1],[0,-1],[0,0],[1,-3],[1,-4],[1,-3],[-2,-2],[0,0],[1,-1],[0,-2],[1,0],[2,-1],[0,-1],[0,-1],[0,0],[1,0],[1,-1],[2,0],[0,-1],[0,-1],[1,-1],[0,-1],[0,0],[1,1],[0,0],[2,1],[1,1],[1,0],[2,0],[0,0],[4,0],[1,0],[1,0],[1,1],[0,0],[1,0],[1,2],[1,1],[0,1],[1,2],[0,0],[0,0],[1,-2],[0,-1],[1,-2],[1,-3],[1,0],[1,0],[0,0],[0,0],[1,0],[0,0],[4,-1],[4,0],[0,0],[1,1],[0,1],[1,1],[0,0],[0,0],[0,0],[1,1],[2,1],[1,2],[2,2],[1,2],[1,1],[2,1],[1,1],[0,0],[0,1],[1,0],[2,1],[1,1],[1,1],[2,1],[3,1],[2,1],[1,0],[3,1],[2,1],[2,2],[0,0],[2,2],[5,2],[1,1],[1,0],[1,1],[0,0],[1,0],[1,0],[2,1],[1,1],[2,2],[0,0],[0,1],[0,1],[0,0],[-1,1],[-1,0],[0,1],[0,0],[-1,2],[0,0],[0,1],[0,0],[-2,1],[0,0],[0,1],[0,0],[0,0],[-1,1],[0,0],[0,1],[0,2],[0,0],[0,0],[0,0],[0,1],[0,0],[-1,1],[0,0],[0,0],[0,1],[-1,0],[0,0],[-1,1],[0,1],[-1,0],[0,1],[0,1],[4,0],[4,0],[4,1],[2,1],[1,0],[1,0],[1,0],[1,0],[1,0],[1,0],[0,1],[1,0],[0,-1],[1,-1],[1,0],[1,-1],[1,1],[1,0],[0,1],[1,0],[1,-1],[0,-1],[0,0],[0,-1],[1,0],[0,-1],[1,0],[0,-1],[2,0],[0,0],[0,-1],[1,0],[1,0],[0,-1],[0,0],[1,-1],[0,0],[1,-1],[1,-2],[0,-4],[1,-4],[0,0],[1,0],[0,1],[1,-1],[0,0],[1,0],[1,0],[0,0],[0,0],[1,0],[0,0],[1,1],[0,0],[1,1],[0,2],[1,2],[0,1],[0,1],[0,0],[0,1],[-1,3],[0,0],[0,1],[0,1],[0,1],[-1,1],[0,1],[-1,0],[-1,0],[0,1],[-1,0],[0,0],[-1,1],[0,0],[-2,0],[0,0],[0,0],[-1,1],[-1,0],[0,0],[-1,0],[0,0],[0,1],[-1,0],[0,1],[0,0],[-1,1],[0,0],[0,0],[-1,1],[-1,0],[-1,0],[-1,1],[0,1],[-1,0],[-1,1],[-1,0],[1,1],[0,0],[0,1],[-1,0],[0,-1],[-1,0],[0,0],[0,1],[0,0],[0,1],[-1,0],[0,0],[0,1],[-1,0],[-1,1],[-1,1],[-1,2],[-1,1],[0,0],[-1,1],[0,1],[-1,1],[-2,2],[-1,1],[-1,1],[-1,1],[0,0],[-1,1],[-2,1],[0,1]],[[571,830],[0,-2],[0,-4],[0,-3],[0,-4],[0,-3],[-1,-3],[0,-3],[0,-4],[0,1],[2,2],[1,1],[0,1],[-1,-1],[0,1],[-1,0],[0,1],[0,1],[0,0],[1,1],[2,0],[0,0],[1,3],[1,0],[0,1],[2,1],[1,2],[1,1],[2,1],[1,1],[2,1],[1,1],[2,1],[2,1],[2,1],[2,-1],[1,0],[0,1],[0,1],[-1,1],[0,1],[-1,0],[-1,0],[-1,0],[-1,0],[0,0],[-1,1],[-1,0],[-1,0],[-1,1],[0,-1],[-3,-1],[-1,0],[-5,0],[-1,0],[-2,0],[0,0],[-1,0],[-1,0],[-1,0]],[[600,827],[1,0],[1,0],[1,0],[0,0],[1,0],[1,0],[0,0],[0,1],[-1,0],[0,0],[-3,0],[0,1],[-1,0],[-1,0],[0,0],[0,0],[0,-1],[0,0],[1,0],[0,-1]],[[616,652],[0,1],[0,0],[-1,-1],[-1,-1],[0,0],[1,0],[1,1],[0,0]]],"transform":{"scale":[1,1],"translate":[0,0]}}
