{"type":"Topology","objects":{"countries":{"type":"GeometryCollection","geometries":[{"id":"statue-of-liberty","type":"Polygon","arcs":[[127]]},{"id":"white-house","type":"Polygon","arcs":[[128]]},{"id":"golden-gate","type":"Polygon","arcs":[[129]]},{"id":"hollywood-sign","type":"Polygon","arcs":[[130]]},{"id":"space-needle","type":"Polygon","arcs":[[131]]},{"id":"cn-tower","type":"Polygon","arcs":[[132]]},{"id":"niagara-falls","type":"Polygon","arcs":[[133]]},{"id":"chichen-itza","type":"Polygon","arcs":[[134]]},{"id":"panama-canal","type":"Polygon","arcs":[[135]]},{"id":"christ-the-redeemer","type":"Polygon","arcs":[[136]]},{"id":"machu-picchu","type":"Polygon","arcs":[[137]]},{"id":"iguazu-falls","type":"Polygon","arcs":[[138]]},{"id":"moai","type":"Polygon","arcs":[[139]]},{"id":"eiffel-tower","type":"Polygon","arcs":[[140]]},{"id":"stonehenge","type":"Polygon","arcs":[[141]]},{"id":"big-ben","type":"Polygon","arcs":[[142]]},{"id":"sagrada-familia","type":"Polygon","arcs":[[143]]},{"id":"alhambra","type":"Polygon","arcs":[[144]]},{"id":"brandenburg-gate","type":"Polygon","arcs":[[145]]},{"id":"neuschwanstein","type":"Polygon","arcs":[[146]]},{"id":"matterhorn","type":"Polygon","arcs":[[147]]},{"id":"colosseum","type":"Polygon","arcs":[[148]]},{"id":"leaning-tower-of-pisa","type":"Polygon","arcs":[[149]]},{"id":"st-peters-basilica","type":"Polygon","arcs":[[150]]},{"id":"acropolis","type":"Polygon","arcs":[[151]]},{"id":"hagia-sophia","type":"Polygon","arcs":[[152]]},{"id":"saint-basils-cathedral","type":"Polygon","arcs":[[153]]},{"id":"pyramids-of-giza","type":"Polygon","arcs":[[154]]},{"id":"timbuktu","type":"Polygon","arcs":[[155]]},{"id":"mount-kilimanjaro","type":"Polygon","arcs":[[156]]},{"id":"victoria-falls","type":"Polygon","arcs":[[157]]},{"id":"table-mountain","type":"Polygon","arcs":[[158]]},{"id":"petra","type":"Polygon","arcs":[[159]]},{"id":"dome-of-the-rock","type":"Polygon","arcs":[[160]]},{"id":"mecca","type":"Polygon","arcs":[[161]]},{"id":"burj-khalifa","type":"Polygon","arcs":[[162]]},{"id":"great-wall","type":"Polygon","arcs":[[163]]},{"id":"taj-mahal","type":"Polygon","arcs":[[164]]},{"id":"mount-everest","type":"Polygon","arcs":[[165]]},{"id":"angkor-wat","type":"Polygon","arcs":[[166]]},{"id":"borobudur","type":"Polygon","arcs":[[167]]},{"id":"mount-fuji","type":"Polygon","arcs":[[168]]},{"id":"lake-baikal","type":"Polygon","arcs":[[169]]},{"id":"sydney-opera-house","type":"Polygon","arcs":[[170]]},{"id":"uluru","type":"Polygon","arcs":[[171]]},{"id":"great-barrier-reef","type":"Polygon","arcs":[[172]]}]},"background":{"type":"GeometryCollection","geometries":[{"id":"background","type":"MultiPolygon","arcs":[[0],[1],[2],[3],[4],[5],[6],[7],[8],[9],[10],[11],[12],[13],[14],[15],[16],[17],[18],[19],[20],[21],[22],[23],[24],[25],[26],[27],[28],[29],[30],[31],[32],[33],[34],[35],[36],[37],[38],[39],[40],[41],[42],[43],[44],[45],[46],[47],[48],[49],[50],[51],[52],[53],[54],[55],[56],[57],[58],[59],[60],[61],[62],[63],[64],[65],[66],[67],[68],[69],[70],[71],[72],[73],[74],[75],[76],[77],[78],[79],[80],[81],[82],[83],[84],[85],[86],[87],[88],[89],[90],[91],[92],[93],[94],[95],[96],[97],[98],[99],[100],[101],[102],[103],[104],[105],[106],[107],[108],[109],[110],[111],[112],[113],[114],[115],[116],[117],[118],[119],[120],[121],[122],[123],[124],[125],[126]]}]}},"arcs":[[[337,459],[-1,1],[0,2],[-6,-1],[-6,0],[-4,-1],[0,0],[-1,0],[6,0],[6,0],[2,-1],[1,-1],[3,1]],[[65,457],[-5,1],[-4,-1],[-2,-1],[0,0],[-1,-1],[1,-1],[5,0],[3,1],[2,1],[1,1]],[[377,453],[3,2],[1,1],[0,2],[1,1],[-5,1],[-4,0],[-5,1],[-6,1],[-6,-1],[-4,0],[0,-2],[6,0],[3,-1],[1,-1],[2,-1],[1,-1],[2,-2],[1,0],[4,0],[5,0]],[[169,441],[3,0],[3,0],[-1,1],[-3,1],[-3,-1],[-3,-1],[0,0],[4,0]],[[157,441],[4,1],[-2,0],[-3,0],[-4,-1],[2,-1],[3,1]],[[229,437],[3,0],[3,0],[2,1],[-2,0],[-3,0],[-4,0],[-3,0],[-3,0],[-2,-1],[2,-1],[3,1],[4,0]],[[313,434],[0,1],[0,1],[-1,1],[-3,1],[-3,0],[-4,0],[1,-1],[-3,1],[-3,0],[-2,-1],[0,-1],[3,-1],[2,0],[3,0],[1,-2],[0,-1],[0,-2],[1,-1],[3,-1],[1,1],[1,1],[1,2],[1,1],[1,1]],[[8,472],[0,0],[3,-2],[4,1],[1,0],[1,0],[1,-1],[0,0],[1,0],[0,0],[0,0],[4,1],[4,-1],[0,0],[8,-1],[3,1],[1,0],[4,1],[8,1],[6,1],[11,1],[8,-1],[11,0],[7,1],[7,-1],[8,0],[0,-2],[-10,0],[-9,0],[-2,-1],[-8,-1],[1,-1],[1,-1],[1,-1],[-1,-2],[-4,0],[-2,-1],[-5,-1],[7,0],[6,0],[4,0],[5,0],[5,-1],[2,-1],[-1,-1],[-4,-1],[-4,-1],[-5,0],[-5,0],[-6,-1],[-1,-1],[-4,-1],[-2,-1],[-1,-3],[1,1],[3,0],[4,0],[5,0],[2,1],[4,0],[4,-1],[3,-1],[4,-1],[4,0],[0,-1],[-1,-1],[0,-1],[4,0],[2,1],[4,-1],[3,-1],[4,0],[3,0],[4,-1],[3,0],[3,-1],[3,0],[1,1],[4,-1],[4,1],[4,0],[3,-1],[4,1],[4,0],[4,0],[4,0],[4,0],[4,0],[3,-1],[3,0],[3,0],[4,0],[3,-1],[1,1],[1,0],[2,1],[3,0],[3,1],[4,0],[3,1],[4,0],[3,-1],[4,0],[4,1],[4,0],[1,-1],[-1,-1],[-2,-1],[-3,0],[-2,-1],[0,-1],[-1,-2],[2,0],[3,0],[4,0],[3,0],[3,1],[1,1],[4,0],[3,0],[4,-1],[3,0],[3,1],[4,0],[2,-3],[2,2],[3,0],[4,0],[2,1],[4,0],[3,0],[3,1],[2,-1],[2,-1],[2,1],[4,0],[3,0],[2,1],[3,0],[3,-1],[3,0],[3,-1],[4,0],[4,0],[2,-1],[2,-1],[0,-1],[0,-1],[-1,-1],[-1,-1],[0,-1],[-1,-1],[0,-1],[0,-1],[1,-1],[1,-1],[1,-2],[-1,-1],[0,-1],[1,-1],[2,-1],[1,-1],[2,-1],[3,-1],[1,-1],[1,0],[2,-1],[2,0],[2,-1],[2,-1],[2,0],[2,-1],[2,-1],[2,0],[2,1],[-1,1],[-3,1],[-1,0],[-2,0],[-3,0],[-2,1],[-2,0],[-1,1],[0,1],[0,1],[1,1],[-2,1],[-2,0],[-2,1],[-1,1],[-2,1],[0,1],[0,1],[2,1],[2,1],[2,0],[1,1],[1,1],[1,2],[1,0],[1,1],[0,3],[1,1],[0,1],[1,1],[0,2],[-2,1],[-1,1],[-4,0],[-1,1],[-2,1],[-4,1],[-4,0],[-3,1],[-4,1],[-2,1],[-4,0],[-5,0],[-5,0],[-4,0],[1,1],[4,0],[3,1],[2,1],[-3,1],[-5,0],[-4,0],[0,2],[0,1],[3,1],[1,1],[3,1],[6,0],[5,1],[4,1],[5,0],[6,1],[7,1],[5,0],[5,1],[3,2],[1,1],[3,-1],[5,-1],[4,-1],[6,-1],[5,0],[7,0],[6,0],[6,1],[2,-2],[4,0],[6,-1],[6,0],[5,-1],[6,0],[6,-1],[4,0],[-2,-1],[-1,-1],[0,-1],[-5,0],[-6,0],[-5,0],[-1,-1],[0,-2],[1,0],[4,-1],[5,-1],[3,0],[4,-1],[2,-1],[4,-1],[3,0],[2,0],[5,0],[4,-1],[3,0],[3,-1],[3,-1],[4,0],[3,-1],[2,-1],[1,-1],[-3,-1],[1,-1],[2,-1],[3,0],[3,-1],[2,-1],[3,-1],[1,-1],[2,-1],[3,0],[1,1],[4,0],[0,-1],[1,-1],[3,0],[1,1],[3,0],[4,0],[3,0],[3,0],[1,1],[3,-1],[3,0],[3,-1],[3,0],[3,-1],[3,0],[3,-1],[1,-1],[2,1],[3,0],[2,1],[2,1],[3,-1],[1,-1],[3,-1],[3,1],[1,1],[3,-1],[3,-1],[3,0],[3,0],[3,1],[3,0],[1,1],[2,0],[3,0],[3,0],[3,0],[3,0],[3,-1],[3,0],[2,-1],[3,0],[2,0],[3,-1],[1,-2],[2,-1],[2,1],[1,1],[3,0],[3,0],[2,1],[2,1],[2,-1],[1,-1],[3,0],[3,-1],[2,-1],[4,0],[2,-1],[2,0],[2,-1],[3,0],[2,-1],[2,0],[2,0],[3,-1],[0,-1],[3,-1],[2,0],[3,-1],[2,0],[2,0],[3,0],[2,1],[1,1],[2,1],[2,1],[3,0],[2,1],[2,1],[3,0],[2,0],[2,-2],[3,1],[2,0],[3,1],[3,0],[2,0],[3,3],[-1,0],[0,2],[-3,0],[-2,1],[1,1],[3,0],[-1,1],[-1,1],[-1,2],[2,0],[3,1],[3,-1],[2,-1],[1,-1],[1,-1],[2,-1],[0,-1],[2,-1],[2,0],[3,0],[2,-1],[3,0],[2,-1],[0,-1],[2,-1],[3,-1],[2,0],[2,-1],[1,-1],[2,0],[3,0],[2,0],[3,0],[3,0],[2,-1],[1,-2],[2,1],[1,1],[2,1],[3,0],[2,0],[3,0],[3,0],[1,0],[3,0],[2,0],[2,0],[3,0],[3,0],[3,0],[1,-1],[2,-1],[2,-1],[3,-2],[2,1],[2,0],[2,1],[3,2],[3,0],[2,0],[3,0],[3,-1],[3,0],[1,-1],[3,0],[3,-1],[2,1],[1,1],[2,0],[3,0],[2,1],[3,1],[4,0],[2,0],[3,-1],[1,-1],[3,0],[2,0],[3,1],[3,-1],[2,0],[3,0],[2,1],[3,-1],[2,0],[3,0],[3,0],[3,-1],[2,0],[1,-1],[0,-1],[2,0],[0,2],[1,1],[1,1],[3,0],[3,0],[3,0],[3,0],[3,0],[3,0],[4,0],[3,0],[2,1],[-1,1],[2,1],[3,0],[3,1],[3,1],[4,0],[3,0],[3,0],[2,0],[2,0],[2,1],[3,1],[3,0],[3,0],[1,1],[4,1],[2,1],[3,1],[3,-1],[3,1],[3,0],[3,0],[3,0],[3,1],[3,0],[2,1],[0,1],[-2,1],[-1,1],[-1,1],[-1,1],[-4,1],[-1,1],[-4,0],[-1,2],[-2,1],[-2,0],[-1,2],[-1,1],[0,1],[0,1],[1,1],[1,1],[1,1],[5,0],[1,1],[-4,1],[-5,0],[-5,1],[-2,1],[-1,1],[-1,1],[-1,1],[3,1],[2,1],[2,1],[3,1],[4,1],[4,1],[7,1],[1,1],[8,1],[0,0],[2,1],[8,-1],[6,1],[5,1]],[[315,387],[3,2],[4,1],[-1,1],[-3,0],[-1,-1],[-1,1],[-2,1],[-3,0],[-2,-1],[-3,0],[-4,-2],[-2,-1],[-4,-3],[2,0],[4,2],[4,1],[1,-1],[1,-2],[2,-1],[2,0],[1,1],[2,2]],[[340,380],[2,1],[-1,1],[-3,1],[-2,-1],[-2,1],[-1,-1],[3,-2],[2,1],[2,-1]],[[692,376],[-4,0],[0,-1],[0,-1],[0,-1],[2,1],[3,0],[0,1],[-1,1]],[[897,352],[3,1],[2,-1],[2,0],[1,0],[1,3],[-1,1],[-1,2],[-1,0],[-2,1],[0,0],[-2,0],[-1,-2],[-1,-2],[-1,-2],[0,-2],[1,1]],[[973,352],[1,1],[1,-1],[1,1],[0,1],[-1,2],[-2,2],[-1,1],[1,1],[-2,0],[-2,1],[-1,2],[-2,3],[-2,1],[-1,1],[-3,0],[-1,-1],[-3,0],[-1,-2],[2,-2],[3,-2],[2,-1],[2,-1],[2,-1],[2,-2],[1,-2],[1,0],[0,-2],[2,-1],[1,1]],[[977,339],[2,3],[0,-2],[2,1],[0,2],[2,1],[2,0],[2,-1],[1,0],[-1,3],[-1,1],[-2,0],[0,1],[0,1],[-1,1],[-1,1],[-1,2],[-2,1],[0,-1],[-2,0],[2,-2],[-1,-2],[-3,-1],[0,-1],[2,-1],[1,-2],[0,-2],[-2,-1],[0,-1],[-1,-1],[-2,-3],[-1,-1],[1,-1],[1,2],[3,1],[0,2]],[[957,301],[-1,0],[-2,0],[-2,-2],[-1,-1],[-2,-2],[-1,-1],[2,0],[1,1],[1,1],[1,1],[2,1],[2,2]],[[988,288],[0,0],[0,2],[-2,0],[-1,0],[0,-1],[1,-1],[1,0],[1,0]],[[8,285],[0,0],[0,-1],[1,0],[-1,1],[0,0]],[[992,285],[-3,2],[-1,-1],[2,-1],[0,0],[2,-1]],[[959,285],[-1,1],[-1,-2],[0,0],[2,1]],[[957,281],[0,2],[-1,0],[0,0],[0,-1],[-1,-2],[2,1]],[[637,277],[0,4],[1,1],[0,1],[-1,1],[-1,-2],[0,1],[0,2],[0,1],[-1,1],[0,2],[-1,3],[-1,4],[-2,5],[-1,4],[-1,3],[-2,1],[-3,1],[-1,-1],[-3,-1],[0,-1],[-1,-2],[-1,-3],[0,-2],[1,-2],[1,0],[0,-1],[1,-2],[1,-2],[-1,-1],[-1,-2],[0,-2],[1,-2],[0,-2],[2,0],[1,0],[1,-1],[2,0],[1,-1],[2,-2],[1,-1],[0,-1],[1,0],[2,-2],[0,-2],[0,-1],[1,1],[1,1],[1,2]],[[892,278],[1,2],[2,-1],[1,1],[1,1],[0,1],[1,3],[0,1],[1,0],[1,3],[-1,1],[1,2],[3,1],[2,2],[2,1],[-1,1],[2,1],[1,3],[1,0],[1,1],[1,-1],[0,3],[2,2],[2,1],[2,2],[1,2],[0,2],[-1,2],[2,2],[0,2],[-1,2],[-1,2],[0,2],[0,2],[-1,2],[-2,1],[-1,3],[-1,1],[-1,2],[-1,2],[-1,2],[0,2],[0,0],[-2,1],[-3,1],[-2,1],[-1,1],[-2,1],[-2,-1],[-2,-1],[0,-1],[-1,0],[-2,2],[-3,0],[-1,-1],[-2,0],[-3,-1],[-1,-2],[-1,-2],[0,-1],[-2,-1],[-2,0],[0,-2],[0,-2],[-2,2],[-2,1],[1,-2],[1,-2],[1,-1],[0,-2],[-3,2],[-1,1],[-1,3],[-2,-2],[0,-1],[-2,-2],[-2,-1],[1,-1],[-3,-1],[-2,0],[-3,-2],[-5,1],[-3,0],[-4,1],[-2,0],[-3,2],[-2,0],[-1,2],[-1,1],[-2,0],[-2,0],[-2,0],[-2,0],[-2,0],[-2,1],[-1,0],[-1,1],[-1,1],[-2,0],[-2,0],[-3,-2],[-2,0],[0,-2],[2,0],[0,-1],[0,-1],[1,-2],[-1,-1],[-1,-3],[-1,-2],[0,-1],[-1,-2],[0,-1],[-1,-1],[0,-2],[-2,-2],[0,-1],[1,1],[-1,-3],[1,1],[1,1],[0,-1],[-1,-3],[0,0],[-1,-1],[0,-2],[1,0],[0,-2],[0,-1],[1,-2],[0,2],[1,-2],[3,-1],[1,-1],[2,-1],[1,0],[1,0],[2,-1],[2,0],[0,-1],[1,0],[1,0],[3,-1],[2,-1],[1,-2],[1,-1],[0,-1],[0,-2],[2,-2],[1,2],[2,0],[-1,-1],[0,-2],[2,1],[0,-2],[1,-2],[1,-1],[2,0],[0,-1],[1,0],[0,0],[1,-1],[1,0],[2,1],[2,2],[2,0],[1,0],[0,-1],[1,-3],[1,0],[0,-1],[1,-2],[2,-1],[1,1],[2,-1],[0,-1],[-2,-1],[2,0],[2,0],[1,1],[2,1],[1,0],[2,1],[1,-1],[1,0],[1,0],[1,1],[0,1],[-1,1],[-1,1],[0,1],[-1,1],[-1,1],[0,1],[3,2],[2,1],[1,0],[2,2],[1,0],[1,1],[1,1],[2,1],[2,-1],[1,-2],[0,-1],[0,-2],[1,-2],[0,-1],[0,-1],[0,-1],[0,-2],[1,-1],[-1,-1],[1,-1],[0,-2],[1,-1],[1,-1],[0,2],[0,1],[1,1],[0,1],[1,1],[0,2],[0,1]],[[943,269],[1,1],[-2,0],[-1,-2],[2,1],[0,0]],[[830,268],[-1,0],[-4,-2],[3,0],[1,1],[1,0],[0,1]],[[940,267],[-1,0],[-2,0],[-1,0],[1,-2],[1,1],[1,0],[1,1]],[[942,266],[0,1],[-3,-2],[0,-2],[1,0],[1,2],[1,1]],[[840,268],[-2,0],[-1,0],[1,-1],[1,-1],[3,-2],[0,0],[2,-1],[2,0],[1,0],[1,0],[-1,1],[-3,1],[-2,1],[-2,2]],[[822,262],[1,1],[2,0],[1,1],[-4,1],[-1,0],[-2,0],[1,-2],[2,0],[0,-1]],[[836,262],[0,2],[-5,1],[-3,-1],[0,-1],[2,0],[2,1],[1,-1],[3,-1]],[[937,263],[0,1],[-2,-2],[-2,-1],[-1,-1],[1,0],[1,1],[2,1],[1,1]],[[931,260],[-1,0],[-1,0],[-1,-1],[0,-1],[2,1],[1,1]],[[797,259],[5,0],[1,-1],[5,1],[1,2],[4,0],[3,2],[-3,1],[-3,-1],[-2,0],[-3,0],[-3,-1],[-3,-1],[-2,0],[-1,0],[-5,-1],[0,-1],[-3,0],[2,-3],[3,0],[2,2],[2,0],[0,1]],[[868,257],[-1,2],[0,-2],[0,-1],[1,-1],[0,1],[0,1]],[[926,259],[-1,0],[-1,-1],[-1,-2],[-1,-2],[1,0],[0,1],[1,0],[1,2],[1,1],[0,1]],[[915,255],[-1,0],[0,1],[-2,1],[-1,0],[-2,0],[-2,0],[-2,-1],[1,-1],[2,0],[2,0],[0,-1],[0,0],[1,1],[1,0],[1,-1],[1,-1],[0,-1],[2,0],[0,0],[0,1],[-1,2]],[[848,250],[-1,1],[-2,-1],[-1,-1],[3,0],[1,1]],[[857,249],[1,2],[-3,-1],[-2,-1],[-2,1],[-1,-1],[0,-1],[4,0],[3,1]],[[919,252],[-1,1],[-1,-1],[0,-1],[-2,-1],[-1,-2],[-2,0],[1,-1],[1,1],[1,0],[1,1],[1,1],[1,1],[1,1]],[[867,243],[0,5],[3,1],[3,-3],[3,-1],[2,0],[2,1],[2,1],[3,0],[5,2],[5,2],[2,1],[2,1],[0,2],[5,2],[0,1],[-2,1],[0,1],[3,2],[2,3],[1,0],[0,1],[2,1],[-1,0],[3,1],[0,1],[-2,0],[-1,0],[-2,-1],[-3,0],[-2,-2],[-1,-1],[-2,-3],[-3,-1],[-3,1],[-1,1],[0,2],[-2,1],[-2,-1],[-3,0],[-2,-2],[-3,-1],[0,1],[-4,0],[1,-2],[2,-1],[-1,-3],[-1,-2],[-5,-2],[-3,-1],[-4,-2],[0,1],[-2,0],[0,-1],[0,-1],[-2,-1],[3,-1],[2,0],[-1,-1],[-4,0],[-1,-1],[-2,-1],[-1,-1],[3,-1],[2,-1],[4,1],[1,1]],[[842,236],[-2,3],[-2,1],[-3,-1],[-4,0],[-3,1],[0,2],[3,2],[1,-1],[5,-1],[0,1],[-1,0],[-1,1],[-3,1],[3,4],[-1,1],[3,3],[0,2],[-2,1],[-1,-1],[1,-3],[-2,1],[-1,0],[0,-1],[-2,-2],[1,-3],[-2,1],[0,3],[0,4],[-2,1],[-1,-1],[1,-3],[0,-2],[-2,0],[0,-2],[1,-2],[0,-2],[2,-4],[0,-1],[2,-2],[3,0],[3,1],[3,0],[3,-2],[0,0]],[[852,237],[0,2],[-2,0],[0,2],[1,1],[-1,1],[-1,-2],[-1,-4],[1,-2],[1,-1],[0,2],[1,0],[1,1]],[[789,256],[-3,0],[-2,-2],[-4,-2],[-1,-2],[-2,-2],[-1,-2],[-2,-4],[-3,-2],[0,-3],[-1,-2],[-3,-2],[-1,-2],[-2,-1],[-3,-3],[-1,-2],[2,0],[4,1],[3,2],[2,2],[1,1],[3,3],[3,0],[2,2],[2,3],[2,1],[-1,2],[1,1],[1,0],[1,2],[1,2],[2,0],[1,2],[-1,3],[0,4]],[[822,235],[3,3],[-3,0],[-1,2],[0,2],[-2,2],[0,3],[-2,4],[0,-1],[-3,1],[-1,-1],[-2,0],[-1,-1],[-4,1],[-1,-2],[-1,1],[-3,-1],[0,-3],[-2,-1],[-1,-3],[0,-2],[0,-3],[2,-1],[2,1],[2,-1],[0,-2],[2,-1],[3,0],[2,-2],[1,-2],[1,-1],[3,-2],[2,-2],[1,-2],[1,0],[2,2],[0,1],[1,1],[3,0],[0,1],[-2,1],[0,1],[-2,1],[-1,2],[2,3],[-1,1]],[[845,217],[1,2],[0,2],[-1,2],[-1,-3],[-1,2],[1,2],[-1,1],[-3,-2],[-1,-2],[1,-1],[-2,-1],[-1,1],[-1,0],[-2,1],[-1,0],[1,-3],[2,-1],[2,-1],[0,2],[3,-1],[0,-1],[2,0],[0,-3],[2,2],[0,1],[0,1]],[[722,223],[-2,1],[-2,-2],[0,-4],[1,-5],[2,2],[1,2],[2,3],[-1,2],[-1,1]],[[333,213],[-2,0],[0,0],[0,-1],[0,-1],[2,-1],[1,0],[-1,3]],[[839,212],[-1,1],[-1,2],[-1,1],[-1,-2],[0,-1],[1,-1],[0,-2],[2,0],[-1,2],[2,-3],[0,3]],[[824,215],[-4,2],[2,-2],[2,-1],[1,-2],[2,-3],[0,2],[-2,2],[-1,2]],[[833,208],[2,1],[2,0],[-1,1],[-1,1],[-2,1],[0,-2],[1,-1],[-1,-1]],[[843,207],[1,3],[-2,-1],[0,1],[0,2],[-1,0],[0,-1],[-1,-1],[0,-1],[1,0],[0,-1],[-1,-2],[2,0],[1,1]],[[832,204],[-1,3],[-1,-2],[-1,-2],[2,0],[1,1]],[[832,190],[1,0],[1,0],[0,0],[0,1],[1,2],[-1,3],[-1,1],[-1,2],[1,2],[1,0],[1,0],[4,1],[0,2],[0,1],[0,1],[-2,-1],[-1,-2],[-1,1],[-1,-2],[-3,1],[-1,-1],[0,-1],[1,-1],[-1,0],[0,1],[-2,-2],[0,-1],[0,-3],[1,1],[0,-4],[1,-2],[2,0]],[[321,190],[-1,1],[-2,0],[-2,0],[0,-1],[1,0],[2,0],[1,0],[1,0]],[[290,191],[-1,1],[-2,-1],[-1,-1],[0,0],[1,0],[1,0],[2,0],[1,1],[1,0],[-2,0]],[[302,186],[2,0],[0,0],[2,0],[2,1],[1,-1],[0,1],[2,0],[0,1],[1,0],[1,1],[-1,1],[-1,0],[-1,0],[-1,0],[-1,0],[-1,0],[0,0],[-1,0],[-1,2],[-1,0],[0,-1],[-2,-1],[-1,1],[-2,-1],[-1,1],[-2,-1],[1,-1],[2,1],[2,0],[1,-1],[-1,-1],[0,-1],[-2,-1],[1,0],[2,0]],[[802,189],[-3,1],[-2,0],[0,-3],[1,-1],[3,-1],[2,0],[0,1],[-1,2],[0,1]],[[75,188],[-1,0],[0,0],[0,-1],[-1,-1],[1,0],[0,0],[0,-1],[0,0],[0,0],[1,0],[1,1],[0,0],[1,1],[0,0],[-1,1],[-1,0]],[[73,184],[-1,0],[0,-1],[0,0],[0,0],[0,0],[1,0],[1,0],[-1,1]],[[72,182],[-1,1],[-1,-1],[0,0],[2,0]],[[69,182],[0,0],[0,0],[-1,0],[-1,-1],[0,0],[1,0],[0,0],[1,1]],[[64,180],[0,0],[-1,0],[0,0],[1,-1],[0,0],[0,1]],[[282,178],[1,1],[3,0],[1,0],[2,2],[2,1],[1,0],[1,1],[0,0],[2,1],[2,1],[0,0],[-2,1],[-2,0],[-2,0],[-4,0],[2,-2],[-1,0],[-2,-1],[-1,0],[0,-2],[-2,0],[-2,0],[-1,-1],[-4,0],[-1,-1],[1,-1],[-2,0],[-2,2],[-1,0],[-1,0],[-1,1],[-1,-1],[1,-1],[1,-1],[1,0],[1,-1],[2,0],[1,0],[2,0],[3,0],[2,1]],[[288,175],[-1,0],[0,-1],[-1,-1],[0,-2],[1,0],[1,3],[0,1]],[[831,178],[-1,2],[-1,-2],[-1,-2],[2,-3],[2,-2],[1,1],[0,1],[-2,5]],[[287,168],[-3,0],[0,-1],[1,0],[2,0],[0,1]],[[290,167],[-1,2],[0,0],[0,-1],[-2,-1],[0,-1],[3,1]],[[868,147],[0,1],[-1,1],[-1,0],[-2,0],[0,2],[-2,-1],[0,-1],[1,-2],[2,0],[1,-1],[2,1]],[[595,143],[-2,1],[0,0],[0,1],[-3,1],[-1,-1],[-1,-1],[1,0],[1,0],[0,-1],[2,0],[3,0]],[[565,143],[1,0],[2,0],[2,1],[0,0],[2,0],[0,0],[-4,1],[0,-1],[-4,0],[1,-1]],[[542,136],[-1,2],[1,1],[-1,1],[-2,-1],[-1,0],[-4,-2],[0,-1],[4,0],[2,0],[2,0]],[[525,128],[2,1],[-1,4],[-1,0],[-1,1],[-1,-1],[0,-3],[-1,-2],[2,0],[1,0]],[[885,139],[-1,2],[1,1],[-2,2],[-3,1],[-5,1],[-4,3],[-2,-1],[0,-2],[-5,0],[-3,1],[-3,1],[3,2],[-2,4],[-2,1],[-1,-1],[1,-2],[-2,-1],[-1,-2],[2,-1],[2,-1],[2,-2],[2,-2],[6,-1],[3,1],[3,-5],[2,2],[4,-3],[1,-1],[2,-4],[-1,-3],[2,-1],[2,-1],[2,4],[0,2],[-3,3],[0,3]],[[526,125],[-1,2],[-1,0],[-1,-2],[1,-1],[2,-1],[0,2]],[[893,119],[2,1],[2,-1],[1,3],[-4,1],[-3,2],[-4,-1],[-1,3],[-3,0],[-1,-3],[2,-2],[2,0],[1,-4],[1,-2],[3,3],[2,0]],[[326,113],[2,0],[2,0],[-1,1],[-1,1],[-3,-2],[-1,-1],[1,0],[1,1]],[[331,106],[-1,0],[-4,-1],[-2,-1],[1,0],[3,0],[3,1],[0,1]],[[162,108],[-1,0],[-4,-1],[-1,-1],[-3,-1],[0,-1],[-3,0],[-1,-2],[0,-1],[3,1],[2,0],[2,1],[1,1],[2,1],[2,1],[1,2]],[[347,102],[-2,2],[2,-1],[1,1],[-1,1],[3,0],[1,0],[3,1],[-1,2],[2,-1],[0,2],[1,1],[-1,3],[-1,0],[-2,-1],[1,-2],[-1,0],[-3,2],[-2,0],[2,-1],[-3,-1],[-3,0],[-5,0],[0,-1],[1,-1],[-1,0],[2,-2],[3,-4],[2,-2],[2,-1],[2,0],[-1,1],[-1,2]],[[137,92],[3,0],[-1,3],[2,3],[-1,0],[-1,-2],[-1,-1],[-2,-1],[0,-1],[0,-1],[1,0]],[[893,101],[2,5],[-4,-1],[-1,4],[2,3],[0,2],[-2,-2],[-2,3],[0,-3],[0,-2],[0,-3],[1,-2],[0,-4],[-2,-3],[0,-4],[3,-1],[-1,-1],[1,0],[1,1],[1,3],[0,3],[1,2]],[[481,97],[-4,2],[-4,0],[2,-3],[-1,-3],[3,-2],[2,-2],[3,0],[3,2],[-2,2],[1,2],[-3,2]],[[535,88],[-2,2],[-3,-1],[0,-1],[4,-1],[1,1]],[[82,84],[-3,1],[-1,-1],[-1,-1],[3,-1],[1,0],[2,0],[1,1],[-2,1]],[[492,80],[-3,3],[3,-1],[3,0],[-1,3],[-3,2],[3,0],[3,4],[2,0],[2,3],[0,1],[4,1],[-1,2],[-1,1],[1,1],[-2,1],[-4,0],[-5,1],[-1,0],[-2,1],[-2,0],[-2,1],[-2,-1],[4,-3],[3,0],[-5,-1],[0,-1],[2,-1],[-1,-1],[0,-2],[5,0],[0,-1],[-2,-2],[-3,-1],[-1,0],[1,-2],[-1,0],[-1,1],[0,-3],[-2,-1],[1,-3],[2,-2],[2,0],[4,0]],[[47,76],[-1,1],[-2,-1],[-2,0],[3,-1],[2,0],[0,1]],[[283,70],[-1,2],[-1,-1],[-1,0],[0,-1],[2,0],[1,0],[0,0]],[[276,69],[-3,1],[-2,0],[-1,-1],[2,-1],[4,0],[0,1]],[[31,66],[1,0],[2,0],[2,1],[3,0],[0,0],[-2,1],[-2,-1],[-2,0],[-2,0],[-1,0],[1,-1]],[[267,61],[1,1],[1,-1],[2,1],[3,1],[3,1],[0,1],[2,0],[2,1],[-2,1],[-5,-1],[-1,-1],[-3,1],[-4,2],[-1,-2],[-3,0],[2,-1],[0,-2],[1,-3],[2,1]],[[460,59],[0,1],[3,2],[-4,2],[-8,2],[-2,1],[-4,-1],[-7,-1],[2,-1],[-5,-1],[4,-1],[0,-1],[-5,0],[1,-2],[4,0],[5,1],[4,-1],[3,1],[5,-2],[4,1]],[[293,57],[-3,0],[-1,-2],[1,-1],[3,0],[2,0],[0,1],[-1,1],[-1,1]],[[8,52],[7,2],[7,2],[0,2],[1,1],[0,-2],[7,0],[6,3],[-3,1],[-5,0],[0,3],[-1,1],[-2,-1],[-2,0],[-4,-1],[-1,-1],[-2,-1],[-4,0],[-1,-1],[1,-1],[-4,1],[2,1],[-2,2],[0,0]],[[992,63],[-4,1],[-3,0],[2,1],[2,2],[1,1],[1,1],[-1,1],[-5,-1],[-8,2],[-2,1],[-4,2],[-4,1],[-1,1],[-4,-1],[-7,2],[-2,-1],[-2,1],[-4,0],[-1,1],[-3,3],[0,1],[3,1],[0,4],[-3,0],[-1,2],[1,1],[-5,2],[-1,3],[-4,0],[-1,3],[-3,3],[-1,-2],[-2,-4],[-1,-6],[1,-4],[2,-2],[1,-1],[4,-1],[5,-3],[4,-3],[5,-2],[3,-4],[-4,0],[-1,3],[-7,3],[-3,-4],[-7,1],[-6,5],[2,2],[-6,0],[-5,0],[1,-1],[-5,-1],[-3,1],[-8,0],[-9,1],[-9,5],[-11,7],[5,0],[1,2],[3,0],[1,-1],[3,0],[4,3],[0,2],[-2,3],[0,3],[-1,5],[-4,4],[-1,2],[-4,3],[-4,3],[-1,2],[-4,1],[-2,0],[-1,-1],[-4,2],[-1,1],[-1,0],[-1,1],[-1,0],[1,2],[-2,1],[0,1],[-1,0],[-2,1],[-1,0],[0,2],[-1,0],[1,0],[2,2],[2,3],[1,2],[0,3],[-1,1],[-3,1],[-2,1],[-2,0],[-1,-1],[1,-2],[-1,-3],[2,-1],[-2,-2],[-1,-1],[-1,1],[-1,0],[0,0],[0,-1],[-1,0],[1,-1],[0,-1],[0,0],[1,-1],[0,-1],[-2,0],[-1,-1],[-4,1],[-2,1],[-3,1],[1,-1],[0,-1],[2,-2],[-2,-2],[-2,1],[-3,2],[-2,2],[-2,0],[-2,1],[2,2],[2,1],[0,1],[2,1],[3,-2],[3,1],[1,0],[1,1],[-4,1],[-1,1],[-3,2],[-1,2],[3,1],[1,3],[1,2],[2,3],[0,2],[-2,0],[1,2],[2,1],[-1,2],[0,2],[-2,0],[-2,3],[-2,4],[-3,3],[-3,3],[-4,2],[-3,0],[-2,1],[-1,0],[-1,1],[-4,1],[-3,1],[-1,3],[-2,0],[0,-2],[0,-1],[-3,-1],[-2,0],[-3,3],[-3,2],[0,2],[2,3],[2,4],[3,1],[2,2],[1,5],[-1,5],[-2,2],[-3,2],[-2,2],[-4,3],[-1,-2],[1,-2],[-2,-1],[-2,-1],[-1,-1],[-2,-3],[-2,-1],[-2,0],[0,-2],[-2,0],[-1,3],[-1,4],[-1,2],[0,2],[2,0],[1,2],[1,3],[1,1],[2,1],[1,1],[1,0],[1,2],[2,2],[0,2],[-1,1],[1,1],[0,2],[1,0],[1,3],[0,1],[-2,0],[-3,-2],[-3,-2],[0,-2],[-2,-2],[0,-2],[-1,-1],[0,-2],[0,-2],[-2,-1],[0,-1],[-1,-1],[-2,-2],[0,2],[-1,-2],[1,-1],[0,-3],[0,-2],[1,-2],[-1,-2],[0,-3],[-1,-1],[-1,-3],[0,-4],[-1,-2],[-2,1],[-3,2],[-2,0],[-2,-1],[1,-3],[0,-3],[-2,-3],[0,-1],[-2,0],[-2,-2],[0,-2],[0,-1],[-1,-1],[-1,-2],[-3,0],[1,1],[-1,1],[-1,0],[-1,0],[-1,0],[-1,0],[0,1],[-2,0],[-3,0],[0,2],[-2,2],[-4,2],[-3,3],[-2,2],[-2,2],[0,1],[-2,1],[-2,1],[-1,0],[-1,2],[0,3],[0,3],[-1,2],[0,5],[-1,0],[-1,2],[0,1],[-2,1],[-1,2],[-1,0],[-3,-2],[-1,-4],[-1,-3],[-1,-1],[-1,-3],[-1,-3],[-1,-2],[-2,-4],[-1,-5],[-1,-3],[0,-4],[0,-2],[-4,1],[-2,0],[-4,-3],[1,-1],[0,-1],[-4,-3],[-2,0],[0,-2],[-3,-2],[-5,0],[-4,0],[-4,1],[-5,-1],[-3,-1],[-3,0],[-1,-4],[-2,0],[-2,0],[-2,2],[-4,-1],[-3,-2],[-2,-1],[-2,-3],[-2,-3],[-1,0],[-2,-1],[-1,1],[-2,0],[1,1],[-1,1],[1,2],[1,2],[2,1],[0,1],[2,1],[0,1],[0,1],[0,1],[1,1],[0,1],[1,1],[0,-2],[0,-2],[1,0],[1,1],[0,1],[-1,2],[1,1],[0,0],[1,1],[2,-1],[2,0],[2,0],[1,-2],[3,-1],[1,-2],[1,-1],[0,0],[0,1],[0,1],[0,2],[1,2],[2,1],[2,0],[2,1],[1,1],[0,1],[1,1],[0,0],[-1,2],[0,1],[-1,0],[-1,2],[-1,0],[-1,1],[0,1],[0,2],[0,0],[-2,0],[-1,1],[-1,2],[0,0],[-2,0],[-1,1],[0,1],[-1,1],[-2,0],[-2,0],[-1,1],[-2,0],[0,2],[0,1],[-3,1],[-4,1],[-3,2],[-1,0],[-1,0],[-2,1],[-1,1],[-3,0],[0,0],[-1,1],[-1,0],[0,0],[-1,0],[-1,1],[-2,0],[-1,-2],[0,-1],[0,-1],[-1,-2],[-1,-1],[1,-1],[0,-1],[0,0],[0,-2],[0,-1],[-1,-1],[0,-1],[-2,-1],[-1,-2],[-1,-2],[-2,-2],[-1,0],[-2,-3],[0,-2],[0,-2],[-2,-3],[-1,-1],[-2,0],[0,-2],[0,0],[-1,-2],[-1,0],[-1,-2],[-2,-3],[-1,-2],[-1,0],[0,-1],[0,-1],[1,-1],[-1,0],[0,1],[-1,2],[-1,1],[0,1],[-1,-1],[-1,-2],[-2,-3],[-1,0],[1,3],[2,2],[2,5],[1,1],[1,2],[3,3],[-1,0],[0,2],[3,2],[1,1],[1,3],[-1,0],[0,3],[1,3],[1,1],[2,1],[2,3],[0,3],[2,1],[4,3],[1,1],[2,2],[0,1],[2,0],[0,1],[0,1],[-1,1],[1,1],[1,0],[0,1],[2,2],[1,0],[3,-1],[2,0],[3,-1],[1,0],[1,-1],[2,0],[1,0],[1,0],[1,-1],[2,-1],[1,0],[0,1],[0,2],[0,1],[-1,1],[-1,3],[-1,3],[-2,4],[-2,4],[-3,3],[-3,3],[-2,3],[-5,2],[-2,2],[-3,4],[-1,1],[0,1],[-2,1],[-1,1],[-1,0],[0,2],[-1,1],[-1,2],[-1,1],[-1,3],[0,2],[2,1],[0,1],[-1,1],[0,1],[0,1],[1,2],[1,3],[1,0],[1,2],[0,2],[0,3],[0,4],[0,1],[0,2],[-1,2],[-2,2],[-3,1],[-3,1],[-3,3],[-1,1],[-2,2],[-1,0],[0,2],[1,2],[1,2],[0,1],[0,0],[0,2],[0,1],[0,1],[0,1],[-1,1],[-2,1],[-4,1],[-1,1],[0,2],[1,0],[0,1],[-1,2],[0,3],[-1,1],[-2,1],[0,1],[-2,1],[0,1],[-2,2],[-3,3],[-2,2],[-2,1],[-3,1],[-1,0],[-1,1],[-1,0],[-2,0],[-3,0],[-1,0],[-1,0],[-3,1],[-2,0],[-2,1],[-1,0],[-2,-1],[0,0],[-2,-1],[0,0],[0,0],[0,-2],[-1,-2],[1,0],[0,-2],[-2,-3],[-1,-2],[0,0],[-2,-4],[-2,-2],[-1,-2],[-1,-2],[-1,-2],[-1,-5],[0,-3],[0,-1],[-1,-2],[-2,-2],[-1,-3],[-1,-2],[-2,-2],[0,-3],[0,-1],[0,-3],[1,-2],[0,-1],[1,-3],[1,-1],[1,-2],[1,-1],[1,-2],[-1,-2],[0,0],[-1,-2],[-1,-2],[0,0],[1,-1],[-1,-3],[0,-2],[-2,-2],[1,0],[-1,-1],[0,-2],[-3,-3],[-2,-3],[-2,-2],[-2,-3],[0,-1],[1,-1],[0,-2],[1,-2],[-1,0],[1,-3],[1,-2],[-1,-2],[-2,-1],[0,-1],[-1,0],[0,-1],[-3,1],[-1,0],[-1,1],[-2,0],[-1,-2],[-1,-2],[-2,-2],[-2,0],[-3,0],[-2,0],[-2,1],[-4,2],[-2,0],[-2,1],[-3,0],[-1,0],[-2,-1],[-2,0],[-3,1],[-2,0],[-3,1],[0,0],[-1,0],[-3,-1],[-2,-2],[-2,-2],[-2,-1],[-1,-1],[-2,-1],[-1,-1],[-1,-1],[0,-2],[-1,-2],[-1,-1],[-1,0],[-1,-1],[0,-1],[-1,-1],[0,0],[-2,-1],[-1,0],[-1,-1],[0,-1],[0,0],[-1,-1],[0,-2],[0,-1],[-1,-2],[-1,-1],[1,-1],[1,-2],[1,-1],[0,-1],[1,-2],[0,-2],[0,-3],[-1,-1],[1,-2],[-1,-1],[-2,-1],[0,-1],[1,-2],[1,0],[1,-2],[-1,-1],[1,-2],[2,-1],[1,-1],[0,-1],[1,-2],[1,-2],[1,-1],[2,-2],[2,-1],[2,-1],[2,-2],[2,0],[2,-3],[-1,-3],[1,-2],[1,-2],[1,-2],[3,-1],[2,-1],[2,-3],[1,-2],[2,0],[1,2],[3,-1],[3,1],[1,0],[3,-1],[3,-1],[1,-1],[3,-1],[5,0],[4,-1],[2,1],[2,-1],[3,0],[1,0],[2,0],[3,-1],[2,0],[0,2],[2,-1],[0,0],[-1,2],[0,1],[1,1],[0,2],[-2,1],[0,2],[2,0],[0,1],[1,1],[4,1],[1,-1],[2,1],[4,1],[1,2],[2,1],[4,1],[3,1],[2,0],[1,-2],[-1,-2],[1,-1],[2,-1],[2,-1],[4,1],[1,1],[1,0],[0,1],[3,0],[1,1],[3,0],[3,1],[3,0],[1,1],[2,-1],[1,-1],[3,0],[2,0],[0,2],[1,-1],[2,0],[2,1],[2,-1],[0,-1],[0,0],[1,-1],[1,-3],[0,0],[0,0],[1,-3],[1,-1],[0,-1],[0,-2],[1,-1],[-1,-1],[1,-1],[-2,0],[-2,0],[-2,1],[-4,0],[-2,-1],[-3,0],[-1,1],[-2,0],[-2,-1],[-3,0],[-2,-3],[-2,-1],[1,-2],[-1,-2],[3,-2],[4,0],[1,-2],[5,0],[3,-2],[4,-1],[4,0],[5,2],[4,1],[3,0],[2,0],[4,-1],[0,-2],[-1,-1],[-1,-1],[-2,-1],[-1,-1],[-3,-2],[-3,-1],[-3,-2],[2,0],[3,-2],[-2,-1],[4,-1],[0,-1],[-3,0],[-2,1],[-2,1],[-2,0],[-2,1],[0,1],[1,1],[3,0],[-1,1],[-3,0],[-3,2],[-2,-1],[1,-1],[-3,-1],[0,0],[3,-1],[-1,-1],[-4,0],[0,-1],[-3,0],[-1,1],[-2,2],[0,1],[-1,1],[-1,-1],[-1,4],[-1,1],[-1,2],[1,1],[0,1],[2,1],[0,1],[-4,0],[-1,1],[-2,1],[-1,-1],[0,0],[-1,0],[-2,-1],[-3,1],[2,1],[-2,1],[-1,0],[-2,-1],[0,0],[0,2],[2,1],[-1,1],[1,1],[2,1],[0,1],[-3,0],[1,1],[-2,0],[1,3],[-2,0],[-2,-2],[-1,-2],[0,-2],[-1,-1],[-2,-1],[0,-1],[0,0],[0,-1],[-2,-1],[0,-1],[0,-2],[0,-1],[0,0],[-1,-1],[0,0],[-2,-1],[-2,-1],[-2,-1],[-2,-1],[-3,-2],[1,0],[-1,-1],[0,-1],[-2,0],[-1,1],[-1,-1],[0,-1],[0,0],[1,0],[-2,-1],[-2,1],[0,1],[0,1],[0,2],[3,1],[1,2],[3,2],[3,0],[0,1],[-1,1],[3,1],[2,0],[2,2],[1,0],[-1,1],[-2,-1],[-2,0],[-1,1],[2,1],[0,2],[-2,0],[-1,2],[-1,1],[0,-1],[0,-2],[1,0],[-1,-2],[-1,-1],[-1,-1],[-1,-1],[-2,0],[-1,-1],[-2,-1],[-2,-1],[-2,-2],[-2,-1],[-1,-3],[-1,0],[-3,-1],[-1,0],[-2,2],[-1,0],[-2,1],[-6,0],[-4,0],[0,2],[0,2],[-2,1],[-4,1],[0,1],[-2,1],[-1,3],[1,1],[-1,1],[-1,2],[-2,1],[-2,2],[-3,0],[-3,0],[-2,1],[-1,1],[-1,0],[-1,-1],[-1,-2],[-2,0],[-1,0],[-2,0],[-1,0],[0,-2],[0,-1],[-1,-1],[-1,-1],[0,-2],[1,0],[0,-2],[1,-1],[0,-1],[-1,-1],[0,-1],[0,-2],[-1,-1],[4,-2],[4,0],[3,0],[3,1],[2,-1],[5,0],[1,-1],[1,-6],[-3,-2],[-2,-2],[-4,-1],[-1,-2],[4,0],[5,0],[-1,-3],[2,1],[7,-2],[0,-2],[3,-1],[2,0],[1,-1],[3,-4],[4,-1],[2,0],[0,-1],[3,0],[0,1],[2,-1],[-1,-2],[0,-1],[-1,-2],[0,-2],[1,-1],[0,-1],[3,0],[1,-1],[2,-1],[0,2],[-1,1],[0,0],[2,1],[-1,1],[-1,0],[-2,2],[1,1],[0,1],[3,1],[0,1],[3,-1],[1,-1],[3,1],[2,1],[1,-1],[5,-1],[3,-1],[3,1],[0,0],[3,0],[0,-1],[4,-1],[0,-2],[0,-2],[1,-2],[3,-1],[2,2],[2,0],[0,-2],[1,-1],[-1,0],[-2,-1],[0,-2],[3,0],[4,-1],[3,1],[2,0],[4,-2],[-3,-1],[-5,0],[-5,1],[-4,1],[-2,-2],[-3,-1],[1,-2],[-1,-3],[1,-2],[2,-1],[7,-3],[1,-1],[0,-1],[-4,-1],[-4,1],[-3,1],[0,2],[-4,2],[-5,3],[-2,4],[2,1],[2,2],[-2,3],[-3,1],[-1,4],[-2,3],[-3,0],[-1,2],[-4,0],[0,-3],[-3,-3],[-2,-4],[-2,-1],[-5,3],[-4,0],[-4,-1],[0,-3],[-1,-6],[2,-2],[7,-2],[6,-3],[5,-4],[6,-5],[5,-2],[7,-4],[6,-1],[5,0],[4,-2],[5,0],[5,0],[9,2],[-4,0],[3,2],[3,-1],[4,2],[8,0],[10,3],[2,2],[0,2],[-3,1],[-4,1],[-12,-2],[-2,0],[4,2],[1,4],[3,1],[2,1],[1,-2],[-2,-1],[2,-1],[6,2],[3,-1],[-2,-2],[6,-3],[3,1],[2,1],[2,-2],[-3,-2],[2,-2],[-2,-1],[7,1],[2,1],[-3,0],[0,2],[2,1],[4,-1],[1,-1],[5,-2],[10,-2],[2,0],[-3,2],[4,0],[2,-1],[5,0],[4,-1],[3,2],[3,-2],[-3,-2],[2,-1],[8,1],[3,1],[10,3],[2,-1],[-3,-2],[0,0],[-3,-1],[1,-1],[-2,-2],[0,-1],[5,-2],[2,-3],[2,0],[7,0],[1,2],[-3,2],[2,1],[1,2],[-1,4],[3,1],[-1,2],[-5,4],[3,0],[1,-1],[3,0],[1,-2],[2,-1],[-1,-2],[1,-1],[-3,-1],[-1,-1],[2,-3],[-3,-2],[5,-2],[-1,-2],[1,0],[2,2],[-1,2],[3,1],[-2,-2],[5,-1],[6,-1],[5,2],[-3,-2],[0,-3],[5,-1],[6,0],[6,0],[-2,-1],[3,-2],[3,0],[6,-2],[7,0],[1,-1],[7,0],[2,1],[6,-2],[5,0],[1,-1],[3,-1],[6,-1],[5,1],[-4,0],[6,1],[1,1],[3,-1],[8,0],[6,2],[2,1],[-1,1],[-3,1],[-7,2],[-2,0],[3,1],[4,0],[3,0],[1,2],[2,-1],[4,0],[9,0],[0,1],[12,1],[0,-2],[6,0],[4,0],[4,2],[2,1],[-2,1],[4,3],[4,1],[2,-3],[5,1],[5,-1],[5,1],[2,-1],[4,1],[-2,-3],[4,-1],[25,2],[2,1],[7,3],[11,-1],[6,0],[2,2],[0,2],[3,0],[4,0],[4,0],[6,0],[5,0],[5,2],[3,0],[-2,-2],[1,-1],[9,0],[5,0],[8,1],[4,2]],[[634,127],[2,2],[1,0],[1,1],[-3,0],[0,2],[0,1],[-1,1],[0,1],[0,2],[3,1],[2,1],[4,1],[4,-1],[0,-1],[0,-1],[0,-3],[-2,-1],[1,-2],[-2,0],[1,-3],[2,1],[3,-1],[-2,-1],[-1,-2],[-2,1],[-1,2],[0,-2],[-1,-1],[1,-1],[0,-1],[-4,-1],[-1,-2],[-1,-1],[0,-1],[2,0],[0,-2],[3,0],[2,0],[0,-2],[0,-2],[-3,0],[-2,0],[-3,1],[-3,0],[-1,2],[-3,0],[-2,3],[2,3],[0,2],[3,3],[1,1]],[[239,51],[-2,1],[-4,-1],[-2,1],[-4,-2],[3,0],[2,-2],[2,1],[2,1],[1,0],[2,1]],[[8,45],[0,0],[3,0],[4,0],[-1,1],[-2,0],[-4,1],[0,-2]],[[253,50],[-1,3],[4,-2],[3,2],[0,2],[2,1],[3,-1],[2,-3],[0,-3],[4,0],[4,1],[4,1],[0,1],[-2,2],[2,1],[0,2],[-6,2],[-4,0],[-2,-1],[-1,2],[-3,2],[-1,1],[-3,2],[-4,0],[-2,1],[0,2],[-3,0],[-4,3],[-3,3],[-1,2],[0,3],[4,0],[1,3],[2,2],[4,0],[5,1],[2,1],[2,1],[4,1],[3,1],[4,0],[3,0],[0,3],[1,3],[2,3],[4,2],[2,-1],[1,-3],[-1,-4],[-2,-1],[4,-2],[3,-1],[2,-2],[0,-2],[-2,-3],[-4,-2],[4,-2],[-2,-3],[0,-4],[1,-1],[5,1],[3,0],[2,-1],[3,1],[3,2],[1,1],[5,0],[0,3],[1,3],[2,0],[2,2],[4,-1],[3,-3],[1,-2],[3,3],[3,3],[3,3],[-1,2],[4,2],[2,1],[5,1],[1,1],[1,2],[2,1],[2,1],[0,3],[-2,1],[-2,1],[-5,1],[-3,2],[-5,0],[-6,0],[-4,0],[-2,0],[-3,2],[-3,1],[-4,4],[-3,2],[2,0],[4,-4],[6,-2],[4,0],[3,1],[-3,2],[1,3],[1,2],[3,1],[5,0],[3,-3],[0,2],[2,1],[-4,1],[-6,2],[-3,1],[-3,2],[-2,0],[0,-2],[5,-3],[-4,0],[-4,1],[1,1],[-3,1],[-3,1],[-3,1],[-1,2],[-1,0],[0,1],[1,2],[1,0],[0,-1],[1,1],[0,0],[-2,1],[-1,0],[-2,0],[-2,0],[-1,0],[-2,1],[4,0],[0,0],[-3,1],[-2,0],[0,0],[-1,1],[1,0],[-1,2],[-2,2],[0,-1],[-1,0],[0,-1],[0,2],[1,0],[0,1],[-1,1],[-2,2],[0,0],[1,-2],[-1,-1],[-1,-2],[0,1],[0,2],[-1,0],[1,1],[1,2],[0,0],[1,1],[0,3],[-2,2],[-3,1],[-1,1],[-2,1],[-1,1],[0,1],[-3,1],[-2,2],[-1,1],[-1,2],[1,2],[1,2],[1,2],[0,2],[1,3],[0,2],[0,1],[-1,1],[-1,1],[-1,-1],[0,-1],[-1,-1],[-2,-2],[-1,-2],[0,-1],[0,-2],[-1,-1],[-2,-3],[-1,0],[-3,1],[0,0],[-1,-1],[-2,-1],[-3,0],[-3,0],[-2,0],[-1,1],[1,0],[0,2],[0,0],[0,0],[-1,0],[-1,1],[-2,-1],[-2,-1],[-3,0],[-2,0],[-2,0],[-2,1],[-2,2],[-3,1],[-2,1],[0,1],[0,2],[0,2],[0,0],[0,0],[0,0],[-1,3],[0,2],[0,3],[-1,2],[1,1],[1,2],[0,2],[2,2],[1,1],[1,2],[3,0],[1,2],[2,-1],[2,0],[2,-1],[2,0],[2,-2],[1,-1],[0,-2],[0,-1],[2,-1],[3,-1],[2,1],[2,-1],[1,1],[0,1],[-2,2],[0,1],[0,1],[0,1],[-1,2],[-1,0],[0,0],[0,0],[0,0],[0,1],[0,1],[0,0],[0,1],[0,1],[-1,1],[0,1],[-1,0],[0,1],[1,0],[0,0],[1,0],[0,0],[1,0],[1,0],[0,0],[0,0],[1,0],[2,0],[1,0],[0,-1],[1,1],[0,0],[1,0],[1,-1],[1,1],[0,0],[1,0],[1,1],[1,0],[1,1],[-1,0],[0,1],[1,1],[-1,1],[0,1],[0,1],[0,1],[0,1],[-1,0],[0,2],[0,0],[0,1],[0,1],[0,0],[1,2],[1,1],[1,1],[1,1],[0,1],[1,0],[1,-1],[0,1],[2,0],[1,-1],[2,0],[0,-1],[2,0],[0,0],[1,0],[2,1],[1,1],[1,0],[1,1],[2,-2],[1,-1],[0,-1],[1,-2],[1,-1],[2,0],[0,-1],[2,0],[2,-1],[2,-1],[1,-1],[1,0],[1,1],[-1,1],[0,1],[-2,0],[1,1],[0,2],[-1,1],[1,2],[1,0],[1,-2],[-1,-1],[0,-2],[3,-1],[0,-1],[1,-1],[1,2],[2,0],[1,1],[1,1],[2,0],[3,0],[2,1],[2,1],[1,-1],[0,-1],[4,0],[3,0],[-2,1],[0,1],[3,0],[2,2],[0,2],[2,0],[1,0],[1,1],[2,2],[0,1],[1,1],[2,1],[1,1],[3,0],[0,0],[3,0],[3,0],[0,1],[2,0],[3,3],[1,1],[1,0],[0,1],[2,5],[1,0],[0,2],[-2,3],[1,0],[5,1],[0,3],[2,-2],[4,1],[4,1],[2,2],[-1,2],[3,-1],[6,1],[4,0],[4,2],[3,3],[2,1],[3,0],[1,1],[1,4],[0,1],[-1,5],[-1,2],[-4,3],[-2,3],[-2,3],[-1,0],[0,2],[0,5],[-1,4],[0,2],[-1,1],[-1,4],[-2,3],[-1,3],[-2,1],[-1,2],[-3,0],[-4,1],[-2,1],[-3,1],[-3,2],[-3,3],[0,2],[0,1],[0,3],[-1,2],[-2,1],[-3,5],[-2,2],[-2,1],[-1,3],[-2,1],[-1,2],[-3,2],[-2,-1],[-2,0],[-2,-1],[-2,0],[-2,-1],[0,1],[4,3],[-1,2],[2,1],[0,1],[-3,4],[-4,1],[-5,1],[-3,-1],[0,2],[0,2],[0,1],[-2,1],[-2,1],[-3,-1],[-1,0],[0,3],[2,1],[2,-1],[1,2],[-3,0],[-2,2],[-1,3],[0,1],[-3,0],[-2,2],[-1,2],[3,2],[3,0],[-1,3],[-4,1],[-1,3],[-3,2],[-1,1],[1,3],[2,1],[-1,0],[-3,0],[-1,1],[-3,1],[0,2],[-1,0],[-3,-1],[-3,-1],[-4,-2],[-1,-2],[1,-1],[-1,-2],[-1,-5],[2,-2],[2,-3],[-4,0],[3,-3],[1,-4],[3,1],[1,-6],[-2,-1],[0,4],[-2,-1],[1,-4],[1,-5],[1,-2],[-1,-2],[0,-3],[1,0],[2,-5],[2,-4],[1,-4],[-1,-4],[1,-3],[0,-3],[1,-3],[1,-6],[1,-5],[0,-6],[0,-5],[0,-4],[-3,-1],[0,-1],[-6,-3],[-5,-3],[-2,-2],[-1,-2],[1,-1],[-3,-3],[-2,-5],[-3,-6],[-1,-1],[-1,-2],[-2,-2],[-2,-1],[1,-1],[-2,-3],[1,-2],[3,-2],[1,-2],[-1,-1],[-1,2],[-1,-2],[0,0],[0,-3],[1,0],[0,-2],[1,-2],[0,-1],[2,-1],[1,-1],[0,0],[1,-1],[0,-1],[1,-1],[1,0],[1,-2],[1,-1],[-1,-1],[1,-2],[-1,-2],[1,-1],[-1,-2],[-1,-2],[-1,0],[0,-2],[0,-1],[0,0],[-1,-1],[-1,0],[-1,0],[-1,1],[-1,0],[-1,0],[0,1],[1,2],[0,0],[-1,0],[-1,0],[-1,-1],[0,0],[-1,0],[0,-1],[-1,0],[-1,0],[-1,0],[0,0],[-1,0],[-1,-1],[-1,0],[1,-1],[-1,-1],[0,0],[-1,-1],[-1,0],[-1,-1],[0,0],[0,0],[-1,1],[0,-1],[-1,0],[-1,-1],[1,0],[0,-1],[-1,-1],[1,0],[-1,-1],[-2,-1],[0,-1],[-1,-1],[-2,-1],[1,-1],[0,1],[0,0],[0,-1],[-1,0],[0,0],[-2,0],[-1,0],[-1,-1],[-1,0],[-1,0],[-2,-1],[-1,0],[-2,0],[-1,-2],[-3,-3],[-2,0],[-2,-1],[-1,0],[-3,1],[-1,0],[-2,0],[-2,-1],[-2,-1],[-3,0],[-3,-2],[-2,-1],[-1,-1],[-1,0],[-3,-1],[-1,-1],[-3,-2],[-1,-1],[-1,-2],[1,0],[0,-1],[0,0],[0,-1],[-1,-2],[0,-1],[-1,-1],[-2,-3],[-3,-2],[-1,-2],[-3,-1],[0,0],[0,-2],[-1,-1],[-2,-1],[0,-2],[-2,0],[-1,-2],[-2,-1],[0,-1],[-1,-2],[-1,-2],[0,-1],[-2,-1],[-1,0],[-2,-1],[0,1],[0,2],[1,2],[0,1],[3,2],[0,0],[0,1],[1,1],[0,-1],[1,2],[1,1],[0,1],[2,1],[1,3],[1,1],[0,1],[1,2],[1,0],[1,1],[1,1],[0,1],[-1,1],[-1,0],[0,-2],[-2,-1],[-2,-2],[-2,0],[0,-2],[0,-2],[-1,-1],[-2,-1],[0,0],[-1,0],[-2,-1],[-1,-2],[0,0],[1,0],[1,-1],[0,-1],[-2,-2],[-2,-1],[-1,-1],[-1,-2],[-1,-2],[-1,-3],[-1,-1],[-1,-2],[-2,0],[0,-1],[-1,0],[-1,-1],[-3,0],[-1,0],[0,-2],[-3,-3],[-2,-3],[0,-1],[-1,-1],[-2,-2],[-1,-3],[-1,-1],[1,-2],[-1,-3],[0,-2],[1,-2],[0,-5],[0,-4],[-1,-2],[-1,-2],[1,0],[3,1],[2,2],[1,0],[-1,-3],[-1,-2],[0,0],[-5,-2],[-2,-2],[-5,-1],[-2,-2],[1,-2],[-4,-1],[0,-2],[-4,-2],[0,-2],[-1,-1],[-3,-1],[0,-2],[-4,-2],[-1,-3],[-3,0],[-4,0],[-4,-1],[-5,-3],[-3,0],[-5,-1],[-3,0],[-6,-1],[-3,-1],[-3,0],[0,2],[-1,0],[-3,1],[-3,1],[-3,0],[0,-1],[1,-3],[3,-1],[-1,0],[-3,1],[-2,2],[-4,2],[2,1],[-3,2],[-3,1],[-2,1],[-1,1],[-4,2],[-1,1],[-3,1],[-2,0],[-3,1],[-2,1],[-3,1],[-4,0],[-1,0],[3,-1],[3,-1],[3,-2],[3,0],[1,-1],[4,-2],[1,0],[2,-1],[0,-2],[2,-2],[-3,1],[-1,-1],[-2,1],[-2,-1],[0,1],[-1,-1],[-3,1],[-2,0],[0,-2],[1,-1],[-2,-1],[-4,1],[-2,-2],[-2,0],[0,-2],[-2,-1],[1,-2],[2,-1],[1,-1],[2,-1],[2,1],[2,-2],[2,1],[3,-1],[-1,-1],[-1,-1],[2,-1],[-2,0],[-3,1],[-1,0],[-2,0],[-4,0],[-4,-1],[-1,-1],[-3,-1],[3,-1],[6,-2],[3,0],[-1,2],[6,-1],[-2,-1],[-4,-1],[-1,-2],[-3,-1],[-4,-1],[2,-1],[5,0],[3,-1],[1,-2],[2,-1],[3,0],[5,-2],[3,1],[4,-2],[4,1],[2,1],[1,-1],[5,1],[0,0],[4,1],[3,-1],[6,1],[5,1],[2,0],[4,-1],[4,1],[3,1],[5,0],[4,2],[3,0],[2,-1],[4,-1],[4,0],[4,-1],[4,-1],[2,1],[2,0],[1,-1],[2,0],[4,2],[4,-2],[0,2],[4,0],[1,-1],[3,0],[4,2],[7,1],[3,0],[3,0],[4,1],[-4,2],[5,0],[7,0],[2,-1],[3,2],[3,-1],[-2,-2],[1,0],[4,-1],[2,0],[2,1],[3,1],[3,0],[5,1],[4,0],[4,0],[0,-2],[2,0],[4,1],[0,2],[2,-2],[2,0],[1,-3],[-3,-1],[-3,-1],[1,-3],[3,-2],[3,0],[3,1],[4,3],[-3,2],[6,0]],[[188,40],[-1,2],[6,-1],[3,1],[4,-1],[2,1],[2,2],[2,-1],[-2,-3],[2,0],[3,0],[3,2],[2,2],[0,2],[5,1],[5,2],[0,1],[-5,0],[2,1],[-1,1],[-5,0],[-5,-1],[-3,0],[-5,1],[-8,1],[-4,0],[-1,-1],[-4,-1],[-2,0],[-4,-2],[2,0],[4,-1],[4,0],[4,0],[-6,-1],[-5,0],[-4,0],[-2,-1],[7,-1],[-5,0],[-4,0],[2,-2],[2,-2],[7,-1],[3,0]],[[214,39],[-2,2],[-4,-2],[1,0],[3,0],[2,0]],[[291,40],[1,1],[-3,0],[-3,0],[-3,0],[-1,0],[-3,-1],[0,-1],[1,0],[7,0],[4,1]],[[263,40],[3,2],[2,-2],[7,-1],[5,2],[-1,2],[6,-1],[2,-1],[6,2],[4,1],[0,1],[6,0],[2,1],[7,1],[2,2],[3,2],[-5,1],[6,2],[5,1],[4,2],[4,0],[-1,2],[-5,4],[-3,-2],[-4,-2],[-4,0],[0,2],[3,1],[3,1],[1,1],[2,3],[-1,2],[-3,-1],[-7,-2],[4,2],[3,2],[0,1],[-7,-1],[-6,-2],[-3,-1],[1,-1],[-5,-1],[-4,-2],[0,1],[-7,1],[-3,-1],[2,-2],[5,0],[6,-1],[-1,-1],[1,-1],[3,-3],[0,-1],[-1,-1],[-5,-1],[-5,-1],[2,-1],[-3,-2],[-3,0],[-2,-1],[-1,1],[-5,1],[-10,-1],[-6,-1],[-4,0],[-3,-1],[3,-1],[-4,-1],[-1,-2],[3,-3],[2,-1],[7,-1],[-2,2]],[[226,38],[3,1],[5,0],[1,0],[-3,2],[4,1],[0,2],[-5,1],[-2,0],[-2,-1],[-7,-2],[0,-1],[5,0],[-3,-1],[4,-2]],[[893,40],[-5,0],[-5,0],[-1,0],[3,-1],[3,-1],[4,1],[1,1]],[[245,41],[-3,2],[-3,0],[-1,-2],[0,-2],[1,-1],[3,0],[5,0],[6,0],[-4,3],[-4,0]],[[171,45],[-7,1],[-2,-1],[-6,-1],[1,-1],[2,-2],[2,-2],[-2,-2],[9,0],[4,0],[7,0],[2,1],[3,1],[-3,1],[-7,2],[-3,2],[0,1]],[[912,35],[-3,1],[-5,0],[-5,-1],[1,-1],[5,0],[7,1]],[[244,35],[-1,1],[-4,0],[-4,-1],[2,-1],[4,-1],[2,1],[1,1]],[[897,34],[-3,2],[-10,0],[-4,0],[-6,-2],[2,-1],[3,-1],[8,0],[10,2]],[[231,30],[2,2],[0,1],[-1,2],[-5,0],[-3,0],[0,-2],[-4,1],[0,-2],[3,0],[4,-1],[4,0],[0,-1]],[[204,32],[1,1],[3,-1],[3,1],[0,1],[-2,1],[-9,1],[-7,1],[-4,0],[0,-1],[5,-1],[-12,0],[-4,0],[4,-3],[3,-1],[7,1],[5,2],[5,0],[-4,-3],[2,-1],[3,1],[1,1]],[[657,47],[-1,0],[-9,0],[-1,-1],[-5,-1],[0,-2],[2,0],[0,-2],[6,-2],[-3,0],[7,-3],[-1,-1],[6,-1],[9,-2],[9,-1],[5,-1],[5,0],[2,1],[-2,1],[-9,1],[-9,1],[-8,3],[-4,3],[-5,2],[1,3],[5,2]],[[241,29],[3,1],[6,0],[2,1],[-1,1],[3,1],[2,0],[4,1],[4,0],[4,-1],[6,0],[4,0],[3,1],[1,1],[-2,1],[-4,1],[-3,-1],[-8,1],[-6,0],[-4,-1],[-8,0],[-1,-2],[0,-1],[-3,-1],[-5,-1],[-3,-1],[1,-1],[5,0]],[[182,28],[0,2],[-2,1],[-3,0],[-5,1],[-4,1],[-4,-1],[5,-2],[5,-2],[5,0],[3,0]],[[244,28],[-2,0],[-5,0],[-1,-1],[6,0],[2,1],[0,0]],[[199,28],[-5,1],[-4,-1],[2,-1],[4,0],[4,0],[-1,1]],[[568,27],[-7,1],[-4,0],[2,-1],[-2,-1],[6,0],[1,1],[4,0]],[[200,25],[-3,1],[-5,0],[0,-1],[3,0],[2,0],[3,0]],[[238,27],[-4,0],[-2,0],[-1,-1],[-1,-1],[4,0],[2,0],[3,1],[-1,1]],[[226,26],[2,1],[-5,0],[-4,-1],[-6,0],[2,-1],[-3,-1],[0,-1],[5,1],[7,1],[2,1]],[[787,26],[-15,1],[5,-3],[2,-1],[2,0],[7,2],[-1,1]],[[550,22],[9,2],[-7,1],[-2,2],[-2,1],[-1,2],[-4,0],[-5,-1],[2,-1],[-4,-1],[-5,-2],[-2,-3],[7,-1],[1,1],[4,0],[1,-1],[4,0],[4,1]],[[570,20],[5,1],[-4,2],[-8,0],[-8,0],[-1,-1],[-4,0],[-3,-1],[9,-1],[4,1],[3,-1],[7,0]],[[640,20],[-4,0],[-2,1],[-1,0],[-3,0],[-3,0],[2,-1],[-6,0],[5,-1],[4,0],[1,1],[1,-1],[3,0],[4,1],[-1,0]],[[773,25],[-6,0],[-7,-1],[-5,-1],[-2,-2],[-4,0],[7,-2],[6,-1],[6,1],[6,3],[-1,3]],[[262,22],[3,1],[-3,1],[-5,2],[-5,0],[-6,0],[-3,-1],[0,-1],[2,-1],[-5,0],[-3,-1],[-1,-1],[2,-1],[1,-1],[3,0],[-1,-1],[6,0],[4,2],[5,0],[4,1],[2,1]],[[313,13],[7,0],[6,1],[5,0],[0,1],[-7,1],[-6,1],[-3,0],[6,0],[-6,2],[-5,1],[-5,2],[-5,1],[-2,0],[-8,0],[4,1],[-2,0],[2,2],[-3,0],[-4,1],[-1,1],[-4,1],[0,1],[5,0],[0,0],[-7,2],[-7,-1],[-8,1],[-4,-1],[-6,0],[0,-1],[5,-1],[-1,-2],[1,0],[8,1],[-4,-2],[-4,0],[2,-1],[5,-1],[0,-1],[-3,-1],[-2,-1],[8,0],[2,0],[4,-1],[-6,0],[-9,0],[-5,-1],[-3,-1],[-3,-1],[0,-1],[4,0],[3,0],[5,-1],[4,-1],[4,0],[3,1],[2,-1],[3,-1],[5,0],[9,0],[1,0],[8,0],[6,0],[6,0]],[[426,12],[17,2],[-5,1],[-10,0],[-15,0],[1,1],[10,0],[8,1],[5,-1],[3,1],[-3,1],[7,-1],[13,-1],[8,1],[2,1],[-12,2],[-1,1],[-9,0],[7,0],[-4,2],[-2,2],[0,3],[4,2],[-5,0],[-4,1],[5,1],[0,2],[-2,1],[3,2],[-6,0],[3,1],[-1,1],[-4,1],[-3,0],[3,2],[0,1],[-5,-1],[-2,0],[4,1],[4,2],[1,2],[-5,1],[-2,-2],[-4,-1],[1,2],[-3,1],[7,0],[4,0],[-7,3],[-8,2],[-8,1],[-3,0],[-3,1],[-3,3],[-6,2],[-2,0],[-4,1],[-4,0],[-2,2],[0,2],[-2,2],[-4,2],[1,2],[-1,2],[-2,3],[-3,0],[-4,-2],[-6,0],[-3,-2],[-1,-2],[-5,-4],[-2,-2],[0,-2],[-4,-3],[1,-2],[-2,0],[3,-4],[4,-1],[1,-1],[1,-2],[-3,1],[-2,0],[-2,1],[-3,-1],[-1,-2],[1,-1],[3,0],[6,0],[-5,-1],[-3,-1],[-2,0],[-3,-1],[3,-2],[-1,-1],[-2,-2],[-4,-3],[-3,-1],[0,-1],[-7,-2],[-6,0],[-8,0],[-6,0],[-3,-1],[-5,-1],[7,-1],[6,0],[-12,-1],[-6,-1],[0,-1],[10,-2],[10,-1],[1,-1],[-7,-1],[2,-1],[10,-2],[4,0],[-1,-1],[6,-1],[9,0],[8,-1],[3,1],[7,-1],[7,1],[4,0],[5,1],[-6,-2],[0,-1],[9,-1],[10,0],[3,-1],[10,0],[22,0]],[[289,129],[0,0],[0,-1],[0,-1],[0,0],[0,-1],[1,-1],[0,0],[1,-1],[1,0],[1,-1],[0,0],[1,0],[1,-1],[1,0],[1,0],[1,0],[1,0],[1,0],[1,1],[1,0],[1,0],[1,1],[0,0],[1,1],[0,0],[1,1],[0,1],[0,0],[1,1],[0,1],[0,0],[-1,1],[0,1],[0,1],[-1,0],[0,1],[-1,0],[0,1],[-1,0],[-1,1],[0,0],[-1,0],[-1,1],[-1,0],[-1,0],[-1,0],[-1,0],[-1,0],[-1,-1],[0,0],[-1,0],[-1,-1],[-1,0],[0,-1],[-1,0],[0,-1],[-1,-1],[0,0],[0,-1],[0,-1],[0,0]],[[281,134],[0,0],[0,-1],[0,-1],[0,-1],[1,0],[0,-1],[1,0],[0,-1],[1,0],[1,-1],[0,0],[1,-1],[1,0],[1,0],[1,0],[1,0],[1,0],[1,0],[1,1],[1,0],[0,0],[1,1],[1,0],[0,1],[1,0],[0,1],[1,1],[0,0],[0,1],[0,1],[0,0],[0,1],[0,1],[-1,0],[0,1],[0,1],[-1,0],[-1,1],[0,0],[-1,1],[-1,0],[-1,0],[0,0],[-1,1],[-1,0],[-1,0],[-1,0],[-1,-1],[-1,0],[0,0],[-1,0],[-1,-1],[-1,0],[0,-1],[-1,0],[0,-1],[-1,-1],[0,0],[0,-1],[0,-1],[0,0]],[[157,137],[0,-1],[0,0],[0,-1],[0,-1],[0,0],[1,-1],[0,0],[1,-1],[1,-1],[0,0],[1,0],[1,-1],[1,0],[1,0],[1,0],[1,0],[1,0],[1,0],[1,0],[0,1],[1,0],[1,1],[1,0],[0,1],[1,0],[0,1],[0,1],[1,0],[0,1],[0,1],[0,0],[0,1],[-1,1],[0,0],[0,1],[-1,1],[0,0],[-1,1],[-1,0],[0,1],[-1,0],[-1,0],[-1,0],[-1,1],[0,0],[-1,0],[-1,0],[-1,-1],[-1,0],[-1,0],[0,0],[-1,-1],[-1,0],[0,-1],[-1,0],[0,-1],[-1,-1],[0,0],[0,-1],[0,-1],[0,0]],[[168,147],[0,0],[0,-1],[1,-1],[0,-1],[0,0],[1,-1],[0,0],[1,-1],[0,0],[1,-1],[1,0],[1,-1],[0,0],[1,0],[1,0],[1,0],[1,0],[1,0],[1,1],[1,0],[0,0],[1,1],[1,0],[0,1],[1,0],[0,1],[0,1],[1,0],[0,1],[0,1],[0,0],[0,1],[-1,1],[0,0],[0,1],[-1,1],[0,0],[-1,1],[0,0],[-1,1],[-1,0],[-1,0],[0,0],[-1,1],[-1,0],[-1,0],[-1,0],[-1,-1],[0,0],[-1,0],[-1,0],[-1,-1],[0,0],[-1,-1],[0,0],[-1,-1],[0,-1],[0,0],[-1,-1],[0,-1],[0,0]],[[155,110],[0,0],[1,-1],[0,-1],[0,0],[0,-1],[1,-1],[1,0],[0,-1],[1,0],[1,-1],[1,0],[1,0],[1,-1],[1,0],[1,0],[1,0],[1,0],[1,0],[1,1],[1,0],[1,0],[1,1],[1,0],[1,1],[0,0],[1,1],[0,1],[1,0],[0,1],[0,1],[0,1],[-1,0],[0,1],[0,1],[-1,0],[0,1],[-1,0],[-1,1],[0,0],[-1,1],[-1,0],[-1,0],[-1,1],[-1,0],[-1,0],[-1,0],[-1,0],[-1,0],[-1,-1],[-1,0],[-1,0],[-1,-1],[0,0],[-1,-1],[-1,0],[0,-1],[-1,0],[0,-1],[0,-1],[-1,-1]],[[274,121],[0,0],[0,-1],[0,-1],[0,-1],[0,0],[1,-1],[1,0],[0,-1],[1,0],[1,-1],[1,0],[1,-1],[1,0],[1,0],[1,0],[1,0],[1,0],[1,0],[1,1],[1,0],[0,0],[1,1],[1,0],[1,1],[0,0],[1,1],[0,1],[0,0],[0,1],[0,1],[0,0],[0,1],[0,1],[0,1],[-1,0],[0,1],[-1,0],[-1,1],[0,0],[-1,1],[-1,0],[-1,0],[-1,1],[-1,0],[-1,0],[-1,0],[0,0],[-1,-1],[-1,0],[-1,0],[-1,0],[-1,-1],[-1,0],[0,-1],[-1,0],[0,-1],[-1,-1],[0,0],[0,-1],[0,-1],[0,0]],[[275,123],[0,-1],[0,-1],[0,0],[0,-1],[0,-1],[1,0],[0,-1],[1,0],[1,-1],[1,0],[1,-1],[0,0],[1,0],[1,0],[1,0],[1,0],[1,0],[1,0],[1,0],[1,0],[1,1],[1,0],[1,1],[0,0],[1,1],[0,0],[1,1],[0,1],[0,1],[0,0],[0,1],[0,1],[0,0],[-1,1],[0,1],[-1,0],[0,1],[-1,0],[0,1],[-1,0],[-1,1],[-1,0],[-1,0],[-1,0],[-1,0],[-1,0],[-1,0],[-1,0],[0,0],[-1,0],[-1,-1],[-1,0],[-1,-1],[0,0],[-1,-1],[0,0],[-1,-1],[0,-1],[0,0],[0,-1],[0,0]],[[251,184],[0,-1],[0,0],[0,-1],[0,-1],[0,0],[1,-1],[0,-1],[1,0],[0,-1],[1,0],[1,0],[0,-1],[1,0],[1,0],[1,0],[0,0],[1,0],[1,0],[1,0],[0,1],[1,0],[1,0],[0,1],[1,0],[0,1],[0,1],[1,0],[0,1],[0,1],[0,0],[0,1],[0,1],[0,1],[0,0],[-1,1],[0,0],[-1,1],[0,1],[-1,0],[0,0],[-1,1],[-1,0],[0,0],[-1,0],[-1,0],[-1,0],[0,0],[-1,0],[-1,0],[0,0],[-1,-1],[-1,0],[0,-1],[-1,0],[0,-1],[-1,0],[0,-1],[0,-1],[0,0],[0,-1],[0,0]],[[275,216],[0,-1],[0,-1],[1,0],[0,-1],[0,-1],[0,0],[1,-1],[0,0],[1,-1],[1,0],[0,-1],[1,0],[1,0],[0,0],[1,0],[1,0],[0,0],[1,0],[1,0],[1,1],[0,0],[1,0],[0,1],[1,0],[0,1],[1,1],[0,0],[0,1],[0,1],[0,0],[0,1],[0,1],[0,0],[0,1],[-1,1],[0,0],[0,1],[-1,0],[0,1],[-1,0],[-1,1],[0,0],[-1,0],[-1,0],[0,0],[-1,0],[-1,0],[-1,0],[0,0],[-1,0],[-1,-1],[0,0],[-1,-1],[0,0],[-1,-1],[0,0],[0,-1],[0,-1],[-1,0],[0,-1],[0,0]],[[374,303],[0,-1],[1,0],[0,-1],[0,-1],[0,0],[1,-1],[0,0],[1,-1],[0,0],[1,-1],[1,0],[0,-1],[1,0],[1,0],[1,0],[0,0],[1,0],[1,0],[1,1],[0,0],[1,0],[1,1],[0,0],[1,1],[0,0],[0,1],[1,0],[0,1],[0,1],[0,1],[0,0],[0,1],[0,1],[0,0],[0,1],[-1,1],[0,0],[-1,1],[0,0],[-1,1],[-1,0],[0,0],[-1,1],[-1,0],[-1,0],[-1,0],[0,0],[-1,-1],[-1,0],[-1,0],[0,0],[-1,-1],[0,0],[-1,-1],[0,0],[-1,-1],[0,-1],[0,0],[0,-1],[-1,-1],[0,0]],[[295,276],[0,0],[0,-1],[0,-1],[0,0],[1,-1],[0,-1],[0,0],[1,-1],[0,0],[1,-1],[1,0],[0,0],[1,0],[1,-1],[0,0],[1,0],[1,0],[1,1],[0,0],[1,0],[1,0],[0,1],[1,0],[0,1],[1,0],[0,1],[0,1],[0,0],[1,1],[0,1],[0,1],[0,0],[-1,1],[0,1],[0,0],[0,1],[-1,0],[0,1],[-1,0],[0,1],[-1,0],[-1,1],[-1,0],[0,0],[-1,0],[-1,0],[0,0],[-1,0],[-1,-1],[-1,0],[0,0],[-1,-1],[0,0],[-1,-1],[0,0],[-1,-1],[0,0],[0,-1],[0,-1],[0,-1],[0,0]],[[344,311],[0,-1],[0,-1],[0,-1],[0,0],[1,-1],[0,0],[0,-1],[1,-1],[1,0],[0,0],[1,-1],[1,0],[0,0],[1,0],[1,0],[1,0],[0,0],[1,0],[1,0],[1,0],[0,1],[1,0],[1,1],[0,0],[1,1],[0,0],[0,1],[0,1],[1,0],[0,1],[0,1],[0,0],[0,1],[-1,1],[0,0],[0,1],[-1,1],[0,0],[-1,1],[-1,0],[0,0],[-1,1],[-1,0],[-1,0],[0,0],[-1,0],[-1,0],[-1,0],[-1,0],[0,-1],[-1,0],[-1,0],[0,-1],[-1,0],[0,-1],[-1,-1],[0,0],[0,-1],[0,-1],[0,0],[0,0]],[[193,315],[0,-1],[1,-1],[0,-1],[0,0],[0,-1],[1,-1],[0,0],[1,-1],[0,0],[1,0],[1,-1],[0,0],[1,0],[1,0],[1,-1],[1,0],[0,1],[1,0],[1,0],[1,0],[0,1],[1,0],[1,0],[0,1],[1,1],[0,0],[0,1],[1,1],[0,0],[0,1],[0,1],[0,0],[0,1],[-1,1],[0,0],[0,1],[-1,1],[0,0],[-1,1],[-1,0],[0,0],[-1,1],[-1,0],[-1,0],[-1,0],[0,0],[-1,0],[-1,0],[-1,0],[-1,-1],[0,0],[-1,0],[0,-1],[-1,0],[0,-1],[-1,-1],[0,0],[0,-1],[-1,-1],[0,0],[0,0]],[[496,107],[0,-1],[0,0],[0,-1],[0,-1],[1,0],[0,-1],[1,-1],[1,0],[1,-1],[0,0],[1,0],[1,-1],[2,0],[1,0],[1,0],[1,0],[1,0],[1,0],[1,0],[1,1],[1,0],[1,0],[1,1],[1,0],[0,1],[1,1],[0,0],[0,1],[1,1],[0,0],[0,1],[-1,1],[0,1],[0,0],[-1,1],[0,1],[-1,0],[-1,1],[-1,0],[0,0],[-1,1],[-1,0],[-1,0],[-1,0],[-1,0],[-1,0],[-1,0],[-1,0],[-1,0],[-1,0],[-1,-1],[-1,0],[-1,-1],[-1,0],[0,-1],[-1,0],[0,-1],[-1,-1],[0,0],[0,-1],[0,0]],[[484,101],[0,-1],[0,-1],[0,0],[1,-1],[0,-1],[1,0],[0,-1],[1,-1],[1,0],[1,0],[1,-1],[1,0],[1,0],[1,0],[2,-1],[1,0],[1,1],[1,0],[1,0],[1,0],[1,1],[1,0],[1,1],[1,0],[0,1],[1,0],[0,1],[1,1],[0,0],[0,1],[0,1],[0,1],[-1,0],[0,1],[-1,1],[0,0],[-1,1],[-1,0],[0,1],[-1,0],[-1,0],[-1,1],[-1,0],[-1,0],[-2,0],[-1,0],[-1,0],[-1,0],[-1,0],[-1,-1],[-1,0],[-1,0],[0,-1],[-1,0],[-1,-1],[-1,-1],[0,0],[0,-1],[-1,-1],[0,0],[0,0]],[[489,100],[0,-1],[0,-1],[0,0],[0,-1],[1,-1],[0,0],[1,-1],[1,0],[1,-1],[0,0],[2,-1],[1,0],[1,0],[1,0],[1,0],[1,0],[2,0],[1,0],[1,0],[1,0],[1,1],[1,0],[1,1],[1,0],[0,1],[1,1],[0,0],[0,1],[1,1],[0,0],[0,1],[-1,1],[0,0],[0,1],[-1,1],[0,0],[-1,1],[-1,0],[-1,1],[-1,0],[-1,1],[-1,0],[-1,0],[-1,0],[-1,0],[-1,0],[-1,0],[-1,0],[-1,0],[-1,-1],[-1,0],[-1,0],[-1,-1],[-1,0],[0,-1],[-1,0],[0,-1],[-1,-1],[0,0],[0,-1],[0,0]],[[497,127],[0,0],[0,-1],[0,-1],[0,0],[1,-1],[0,-1],[1,0],[0,-1],[1,0],[1,-1],[1,0],[1,0],[1,-1],[1,0],[1,0],[1,0],[1,0],[0,0],[1,1],[1,0],[1,0],[1,1],[1,0],[0,1],[1,0],[0,1],[1,1],[0,0],[0,1],[0,1],[0,1],[0,0],[0,1],[-1,1],[0,0],[-1,1],[0,0],[-1,1],[-1,0],[0,1],[-1,0],[-1,0],[-1,1],[-1,0],[-1,0],[-1,0],[-1,0],[0,0],[-1,-1],[-1,0],[-1,0],[-1,-1],[0,0],[-1,-1],[-1,0],[0,-1],[0,0],[-1,-1],[0,-1],[0,-1],[0,0]],[[482,139],[0,-1],[0,0],[0,-1],[0,-1],[0,-1],[1,0],[0,-1],[1,0],[1,-1],[0,0],[1,-1],[1,0],[1,0],[1,0],[1,0],[1,0],[1,0],[1,0],[0,0],[1,1],[1,0],[1,0],[0,1],[1,0],[1,1],[0,1],[0,0],[1,1],[0,1],[0,0],[0,1],[0,1],[-1,0],[0,1],[0,1],[-1,0],[0,1],[-1,0],[-1,1],[0,0],[-1,1],[-1,0],[-1,0],[-1,0],[0,0],[-1,0],[-1,0],[-1,0],[-1,0],[-1,0],[0,-1],[-1,0],[-1,-1],[0,0],[-1,-1],[0,0],[-1,-1],[0,-1],[0,0],[0,-1],[0,0]],[[525,97],[0,-1],[0,0],[1,-1],[0,-1],[0,0],[1,-1],[1,-1],[0,0],[1,-1],[1,0],[1,0],[1,-1],[2,0],[1,0],[1,0],[1,0],[2,0],[1,0],[1,0],[1,1],[1,0],[1,0],[1,1],[1,0],[0,1],[1,1],[0,0],[1,1],[0,1],[0,1],[0,0],[0,1],[-1,1],[0,0],[-1,1],[0,1],[-1,0],[-1,1],[-1,0],[-1,0],[-1,1],[-1,0],[-1,0],[-1,0],[-1,0],[-1,0],[-1,0],[-1,0],[-1,0],[-1,0],[-1,-1],[-1,0],[-1,0],[-1,-1],[-1,-1],[0,0],[-1,-1],[0,0],[0,-1],[-1,-1],[0,0]],[[519,111],[0,-1],[0,-1],[1,0],[0,-1],[0,-1],[1,0],[0,-1],[1,-1],[1,0],[1,-1],[1,0],[1,0],[1,0],[1,-1],[1,0],[1,0],[1,0],[1,1],[1,0],[1,0],[1,1],[1,0],[1,0],[1,1],[0,1],[1,0],[0,1],[0,1],[0,0],[1,1],[-1,1],[0,0],[0,1],[0,1],[-1,0],[0,1],[-1,1],[-1,0],[-1,1],[0,0],[-1,0],[-1,1],[-1,0],[-1,0],[-1,0],[-1,0],[-1,0],[-1,0],[-1,0],[-1,-1],[-1,0],[-1,0],[-1,-1],[0,0],[-1,-1],[0,-1],[-1,0],[0,-1],[-1,-1],[0,0],[0,0]],[[511,115],[0,-1],[0,0],[0,-1],[1,-1],[0,-1],[1,0],[0,-1],[1,0],[1,-1],[0,0],[1,-1],[1,0],[1,0],[1,0],[1,0],[2,0],[1,0],[1,0],[1,0],[1,0],[1,1],[0,0],[1,1],[1,0],[0,1],[1,1],[0,0],[1,1],[0,1],[0,0],[0,1],[0,1],[-1,0],[0,1],[-1,1],[0,0],[-1,1],[0,0],[-1,1],[-1,0],[-1,1],[-1,0],[-1,0],[-1,0],[-1,0],[-1,0],[-1,0],[-1,0],[-1,0],[0,0],[-1,-1],[-1,0],[-1,-1],[-1,0],[0,-1],[-1,0],[0,-1],[0,-1],[-1,0],[0,-1],[0,0]],[[525,126],[0,-1],[0,0],[0,-1],[0,-1],[1,0],[0,-1],[1,-1],[1,0],[0,-1],[1,0],[1,0],[1,-1],[1,0],[1,0],[1,0],[1,0],[1,0],[1,0],[1,0],[1,1],[0,0],[1,0],[1,1],[1,0],[0,1],[1,1],[0,0],[0,1],[0,1],[0,1],[0,0],[0,1],[0,1],[0,0],[-1,1],[0,1],[-1,0],[-1,1],[0,0],[-1,0],[-1,1],[-1,0],[-1,0],[-1,0],[0,0],[-1,0],[-1,0],[-1,0],[-1,0],[-1,0],[-1,-1],[-1,0],[0,0],[-1,-1],[0,-1],[-1,0],[0,-1],[-1,0],[0,-1],[0,-1],[0,0]],[[519,121],[0,-1],[0,0],[0,-1],[0,-1],[1,0],[0,-1],[1,-1],[1,0],[0,-1],[1,0],[1,0],[1,-1],[1,0],[1,0],[1,0],[1,0],[1,0],[1,0],[1,0],[1,1],[1,0],[1,0],[0,1],[1,0],[1,1],[0,1],[0,0],[1,1],[0,1],[0,1],[0,0],[0,1],[-1,1],[0,0],[0,1],[-1,1],[0,0],[-1,1],[-1,0],[-1,0],[-1,1],[0,0],[-1,0],[-1,0],[-1,0],[-1,0],[-1,0],[-1,0],[-1,0],[-1,0],[-1,-1],[0,0],[-1,0],[-1,-1],[0,-1],[-1,0],[0,-1],[-1,-1],[0,0],[0,-1],[0,0]],[[525,126],[0,-1],[0,0],[0,-1],[0,-1],[1,0],[0,-1],[1,-1],[0,0],[1,-1],[1,0],[1,0],[1,-1],[1,0],[1,0],[1,0],[1,0],[1,0],[1,0],[1,0],[0,1],[1,0],[1,0],[1,1],[0,0],[1,1],[0,1],[1,0],[0,1],[0,1],[0,0],[0,1],[0,1],[0,1],[-1,0],[0,1],[0,0],[-1,1],[-1,1],[0,0],[-1,0],[-1,1],[-1,0],[-1,0],[-1,0],[-1,0],[-1,0],[0,0],[-1,0],[-1,0],[-1,0],[-1,-1],[-1,0],[0,-1],[-1,0],[-1,-1],[0,0],[0,-1],[-1,-1],[0,0],[0,-1],[0,0]],[[556,137],[0,-1],[0,-1],[0,0],[1,-1],[0,-1],[0,0],[1,-1],[1,0],[0,-1],[1,0],[1,-1],[1,0],[1,0],[1,0],[0,0],[1,0],[1,0],[1,0],[1,0],[1,0],[1,1],[1,0],[0,1],[1,0],[0,1],[1,0],[0,1],[0,1],[0,0],[1,1],[-1,1],[0,1],[0,0],[0,1],[-1,1],[0,0],[-1,1],[0,0],[-1,1],[-1,0],[0,1],[-1,0],[-1,0],[-1,0],[-1,0],[-1,0],[-1,0],[0,0],[-1,0],[-1,-1],[-1,0],[-1,0],[0,-1],[-1,0],[0,-1],[-1,0],[0,-1],[0,-1],[-1,0],[0,-1]],[[570,129],[0,-1],[0,-1],[0,-1],[1,0],[0,-1],[1,-1],[0,0],[1,-1],[0,0],[1,-1],[1,0],[1,0],[1,-1],[1,0],[1,0],[1,0],[1,0],[1,1],[1,0],[1,0],[0,0],[1,1],[1,0],[0,1],[1,0],[0,1],[1,1],[0,0],[0,1],[0,1],[0,1],[0,0],[0,1],[0,1],[-1,0],[0,1],[-1,0],[-1,1],[0,0],[-1,1],[-1,0],[-1,0],[-1,1],[0,0],[-1,0],[-1,0],[-1,0],[-1,0],[-1,-1],[-1,0],[-1,0],[0,-1],[-1,0],[-1,-1],[0,0],[-1,-1],[0,0],[0,-1],[-1,-1],[0,0],[0,0]],[[591,88],[0,0],[0,-1],[0,-1],[0,-1],[1,0],[0,-1],[1,0],[1,-1],[1,0],[1,-1],[1,0],[1,-1],[2,0],[1,0],[1,0],[2,0],[1,0],[1,0],[2,0],[1,1],[1,0],[1,1],[1,0],[1,1],[0,0],[1,1],[0,1],[1,0],[0,1],[0,1],[0,0],[0,1],[-1,1],[0,0],[-1,1],[0,1],[-1,0],[-1,1],[-1,0],[-1,1],[-1,0],[-1,0],[-1,0],[-1,1],[-2,0],[-1,0],[-1,0],[-1,-1],[-1,0],[-1,0],[-2,0],[-1,-1],[0,0],[-1,-1],[-1,0],[-1,-1],[0,-1],[-1,0],[0,-1],[0,-1],[0,0]],[[577,159],[0,-1],[0,-1],[0,-1],[1,0],[0,-1],[0,0],[1,-1],[0,-1],[1,0],[1,-1],[0,0],[1,0],[1,0],[1,-1],[1,0],[1,0],[0,0],[1,1],[1,0],[1,0],[1,1],[0,0],[1,0],[0,1],[1,1],[0,0],[1,1],[0,1],[0,0],[0,1],[0,1],[0,0],[0,1],[-1,1],[0,0],[0,1],[-1,1],[0,0],[-1,1],[-1,0],[0,0],[-1,1],[-1,0],[-1,0],[-1,0],[0,0],[-1,0],[-1,0],[-1,0],[0,-1],[-1,0],[-1,0],[0,-1],[-1,0],[0,-1],[-1,-1],[0,0],[0,-1],[-1,-1],[0,0],[0,0]],[[485,195],[0,-1],[0,-1],[0,0],[0,-1],[0,-1],[1,0],[0,-1],[1,-1],[0,0],[1,0],[1,-1],[0,0],[1,0],[1,0],[0,0],[1,0],[1,0],[1,0],[0,0],[1,0],[1,1],[0,0],[1,1],[0,0],[1,1],[0,0],[1,1],[0,1],[0,0],[0,1],[0,1],[0,1],[0,0],[-1,1],[0,1],[0,0],[-1,1],[0,0],[-1,1],[0,0],[-1,0],[-1,1],[0,0],[-1,0],[-1,0],[-1,0],[0,0],[-1,0],[-1,0],[0,-1],[-1,0],[-1,0],[0,-1],[-1,0],[0,-1],[-1,-1],[0,0],[0,-1],[0,-1],[0,0],[0,0]],[[595,249],[0,-1],[0,-1],[1,0],[0,-1],[0,-1],[0,0],[1,-1],[0,0],[1,-1],[0,0],[1,-1],[1,0],[0,0],[1,0],[1,0],[1,0],[0,0],[1,0],[1,0],[0,0],[1,1],[0,0],[1,1],[0,0],[1,1],[0,0],[1,1],[0,1],[0,1],[0,0],[0,1],[0,1],[0,0],[-1,1],[0,1],[0,0],[-1,1],[0,0],[-1,1],[0,0],[-1,1],[0,0],[-1,0],[-1,0],[-1,0],[0,0],[-1,0],[-1,0],[0,0],[-1,0],[-1,-1],[0,0],[-1,-1],[0,0],[-1,-1],[0,0],[0,-1],[-1,-1],[0,0],[0,-1],[0,0]],[[563,289],[1,0],[0,-1],[0,-1],[0,0],[0,-1],[1,-1],[0,0],[1,-1],[0,0],[1,-1],[1,0],[0,0],[1,0],[1,-1],[0,0],[1,0],[1,0],[1,1],[0,0],[1,0],[1,0],[0,1],[1,0],[0,1],[1,0],[0,1],[0,1],[1,0],[0,1],[0,1],[0,1],[0,0],[0,1],[-1,1],[0,0],[0,1],[-1,0],[0,1],[-1,0],[0,1],[-1,0],[-1,1],[0,0],[-1,0],[-1,0],[-1,0],[-1,0],[0,0],[-1,0],[-1,-1],[0,0],[-1,-1],[0,0],[-1,-1],[0,0],[-1,-1],[0,0],[0,-1],[0,-1],[-1,-1],[0,0]],[[542,333],[0,-1],[0,0],[0,-1],[1,-1],[0,0],[1,-1],[0,0],[1,-1],[0,0],[1,-1],[1,0],[1,0],[0,-1],[1,0],[1,0],[1,0],[1,0],[0,0],[1,1],[1,0],[1,0],[0,1],[1,0],[1,1],[0,0],[1,1],[0,1],[0,0],[0,1],[1,1],[0,0],[-1,1],[0,1],[0,0],[0,1],[-1,1],[0,0],[-1,1],[0,0],[-1,1],[-1,0],[-1,0],[-1,1],[0,0],[-1,0],[-1,0],[-1,0],[-1,0],[-1,-1],[-1,0],[0,0],[-1,-1],[-1,0],[0,-1],[-1,0],[0,-1],[0,-1],[-1,0],[0,-1],[0,-1],[0,0]],[[589,158],[0,-1],[0,-1],[0,0],[0,-1],[1,-1],[0,0],[1,-1],[0,-1],[1,0],[1,0],[0,-1],[1,0],[1,0],[1,0],[1,-1],[0,0],[1,1],[1,0],[1,0],[1,0],[0,1],[1,0],[1,1],[0,0],[1,1],[0,0],[0,1],[1,1],[0,0],[0,1],[0,1],[0,0],[-1,1],[0,1],[0,0],[-1,1],[0,1],[-1,0],[0,1],[-1,0],[-1,0],[0,1],[-1,0],[-1,0],[-1,0],[-1,0],[0,0],[-1,0],[-1,0],[-1,-1],[0,0],[-1,0],[-1,-1],[0,0],[-1,-1],[0,-1],[0,0],[-1,-1],[0,-1],[0,0],[0,0]],[[588,154],[0,-1],[0,-1],[1,0],[0,-1],[0,-1],[1,0],[0,-1],[1,-1],[0,0],[1,0],[1,-1],[0,0],[1,0],[1,0],[1,-1],[1,0],[1,1],[1,0],[0,0],[1,0],[1,1],[1,0],[0,1],[1,0],[0,1],[1,0],[0,1],[0,1],[0,0],[0,1],[0,1],[0,1],[0,0],[0,1],[-1,1],[0,0],[-1,1],[0,0],[-1,1],[0,0],[-1,0],[-1,1],[-1,0],[-1,0],[0,0],[-1,0],[-1,0],[-1,0],[-1,0],[0,-1],[-1,0],[-1,0],[0,-1],[-1,0],[0,-1],[-1,-1],[0,0],[0,-1],[-1,-1],[0,0],[0,0]],[[602,182],[0,-1],[0,0],[0,-1],[0,-1],[0,0],[1,-1],[0,-1],[1,0],[0,-1],[1,0],[1,0],[0,-1],[1,0],[1,0],[1,0],[0,0],[1,0],[1,0],[1,0],[0,1],[1,0],[1,0],[0,1],[1,0],[0,1],[0,1],[1,0],[0,1],[0,1],[0,0],[0,1],[0,1],[0,0],[0,1],[-1,1],[0,0],[-1,1],[0,1],[-1,0],[0,0],[-1,1],[-1,0],[0,0],[-1,0],[-1,0],[-1,0],[0,0],[-1,0],[-1,0],[0,0],[-1,-1],[-1,0],[0,-1],[-1,0],[0,-1],[-1,0],[0,-1],[0,-1],[0,0],[0,-1],[0,0]],[[644,172],[0,-1],[0,-1],[0,0],[0,-1],[0,-1],[1,0],[0,-1],[1,-1],[0,0],[1,0],[1,-1],[0,0],[1,0],[1,0],[1,-1],[1,0],[0,1],[1,0],[1,0],[1,0],[0,1],[1,0],[1,1],[0,0],[1,1],[0,0],[0,1],[0,1],[1,0],[0,1],[0,1],[0,0],[-1,1],[0,1],[0,1],[-1,0],[0,1],[-1,0],[0,1],[-1,0],[-1,0],[0,1],[-1,0],[-1,0],[-1,0],[0,0],[-1,0],[-1,0],[-1,0],[0,-1],[-1,0],[-1,0],[0,-1],[-1,0],[0,-1],[-1,-1],[0,0],[0,-1],[0,-1],[0,0],[0,0]],[[808,130],[0,-1],[0,0],[0,-1],[1,-1],[0,0],[0,-1],[1,-1],[1,0],[0,-1],[1,0],[1,0],[1,-1],[1,0],[1,0],[1,0],[1,0],[1,0],[1,0],[1,0],[0,1],[1,0],[1,0],[1,1],[0,0],[1,1],[0,1],[1,0],[0,1],[0,1],[0,0],[0,1],[0,1],[0,1],[-1,0],[0,1],[-1,1],[0,0],[-1,1],[0,0],[-1,0],[-1,1],[-1,0],[-1,0],[-1,0],[-1,0],[0,0],[-1,0],[-1,0],[-1,0],[-1,0],[-1,-1],[0,0],[-1,0],[-1,-1],[0,-1],[-1,0],[0,-1],[0,-1],[-1,0],[0,-1],[0,0]],[[706,166],[0,0],[0,-1],[0,-1],[0,-1],[0,0],[1,-1],[0,0],[1,-1],[0,0],[1,-1],[1,0],[1,-1],[0,0],[1,0],[1,0],[1,0],[1,0],[0,0],[1,1],[1,0],[1,0],[0,1],[1,0],[0,1],[1,0],[0,1],[1,1],[0,0],[0,1],[0,1],[0,0],[0,1],[0,1],[-1,0],[0,1],[0,1],[-1,0],[0,1],[-1,0],[-1,1],[0,0],[-1,0],[-1,1],[-1,0],[0,0],[-1,0],[-1,0],[-1,-1],[0,0],[-1,0],[-1,0],[0,-1],[-1,0],[-1,-1],[0,0],[0,-1],[-1,-1],[0,0],[0,-1],[0,-1],[0,0]],[[730,164],[0,-1],[0,0],[0,-1],[0,-1],[1,0],[0,-1],[1,-1],[0,0],[1,-1],[0,0],[1,0],[1,-1],[1,0],[0,0],[1,0],[1,0],[1,0],[1,0],[0,0],[1,1],[1,0],[1,0],[0,1],[1,0],[0,1],[1,1],[0,0],[0,1],[0,1],[0,0],[0,1],[0,1],[0,1],[0,0],[-1,1],[0,0],[-1,1],[0,1],[-1,0],[0,0],[-1,1],[-1,0],[-1,0],[0,0],[-1,0],[-1,0],[-1,0],[0,0],[-1,0],[-1,0],[-1,-1],[0,0],[-1,-1],[0,0],[-1,-1],[0,0],[-1,-1],[0,-1],[0,0],[0,-1],[0,0]],[[777,204],[0,-1],[0,-1],[0,0],[0,-1],[1,-1],[0,0],[0,-1],[1,0],[0,-1],[1,0],[1,-1],[0,0],[1,0],[1,0],[1,0],[0,0],[1,0],[1,0],[1,0],[0,0],[1,1],[0,0],[1,1],[0,0],[1,1],[0,0],[1,1],[0,1],[0,1],[0,0],[0,1],[0,1],[0,0],[-1,1],[0,1],[0,0],[-1,1],[0,0],[-1,1],[0,0],[-1,1],[-1,0],[0,0],[-1,0],[-1,0],[-1,0],[0,0],[-1,0],[-1,0],[0,0],[-1,-1],[-1,0],[0,-1],[-1,0],[0,-1],[0,0],[-1,-1],[0,-1],[0,0],[0,-1],[0,0]],[[794,261],[0,0],[0,-1],[1,-1],[0,-1],[0,0],[0,-1],[1,0],[0,-1],[1,0],[1,-1],[0,0],[1,0],[1,-1],[0,0],[1,0],[1,0],[0,0],[1,0],[1,1],[0,0],[1,0],[1,1],[0,0],[1,1],[0,0],[0,1],[1,1],[0,0],[0,1],[0,1],[0,0],[0,1],[0,1],[0,0],[-1,1],[0,1],[0,0],[-1,1],[0,0],[-1,1],[-1,0],[0,0],[-1,1],[-1,0],[0,0],[-1,0],[-1,0],[-1,0],[0,-1],[-1,0],[-1,0],[0,-1],[-1,0],[0,-1],[-1,0],[0,-1],[0,-1],[0,0],[-1,-1],[0,-1],[0,0]],[[871,144],[0,-1],[0,-1],[0,0],[0,-1],[1,-1],[0,0],[1,-1],[0,0],[1,-1],[1,0],[0,-1],[1,0],[1,0],[1,0],[1,0],[1,0],[1,0],[0,0],[1,0],[1,0],[1,1],[1,0],[0,1],[1,0],[0,1],[1,1],[0,0],[0,1],[1,1],[0,0],[0,1],[-1,1],[0,0],[0,1],[0,1],[-1,0],[0,1],[-1,0],[-1,1],[0,0],[-1,1],[-1,0],[-1,0],[-1,0],[0,0],[-1,0],[-1,0],[-1,0],[-1,0],[-1,0],[0,-1],[-1,0],[-1,-1],[0,0],[-1,-1],[0,0],[-1,-1],[0,-1],[0,0],[0,-1],[0,0]],[[784,94],[0,-1],[0,0],[0,-1],[1,-1],[0,0],[1,-1],[1,-1],[0,0],[1,-1],[1,0],[1,0],[1,-1],[2,0],[1,0],[1,0],[1,0],[2,0],[1,0],[1,0],[1,1],[1,0],[1,0],[1,1],[1,1],[1,0],[0,1],[1,0],[0,1],[0,1],[0,1],[0,0],[0,1],[0,1],[-1,0],[0,1],[-1,1],[-1,0],[-1,1],[0,0],[-1,0],[-1,1],[-1,0],[-2,0],[-1,0],[-1,0],[-1,0],[-1,0],[-1,0],[-1,0],[-1,0],[-1,-1],[-1,0],[-1,0],[-1,-1],[-1,-1],[0,0],[-1,-1],[0,0],[-1,-1],[0,-1],[0,0]],[[905,333],[0,-1],[0,-1],[0,0],[1,-1],[0,-1],[1,0],[0,-1],[1,0],[0,-1],[1,0],[1,0],[1,-1],[0,0],[1,0],[1,0],[1,0],[1,0],[0,0],[1,0],[1,1],[1,0],[0,0],[1,1],[1,0],[0,1],[1,1],[0,0],[0,1],[0,1],[1,0],[0,1],[-1,1],[0,0],[0,1],[0,1],[-1,0],[0,1],[-1,1],[0,0],[-1,0],[-1,1],[-1,0],[-1,0],[0,0],[-1,1],[-1,0],[-1,-1],[-1,0],[-1,0],[-1,0],[0,-1],[-1,0],[-1,-1],[0,0],[-1,-1],[0,0],[0,-1],[-1,-1],[0,0],[0,-1],[0,0]],[[851,310],[0,-1],[0,-1],[0,0],[0,-1],[1,-1],[0,0],[0,-1],[1,0],[1,-1],[0,0],[1,-1],[1,0],[0,0],[1,0],[1,0],[1,0],[0,0],[1,0],[1,0],[1,0],[0,1],[1,0],[0,1],[1,0],[0,1],[1,0],[0,1],[0,1],[1,0],[0,1],[0,1],[0,0],[-1,1],[0,1],[0,1],[0,0],[-1,1],[0,0],[-1,1],[-1,0],[0,1],[-1,0],[-1,0],[-1,0],[0,0],[-1,0],[-1,0],[-1,0],[-1,0],[0,-1],[-1,0],[-1,0],[0,-1],[-1,0],[0,-1],[-1,-1],[0,0],[0,-1],[0,-1],[0,0],[0,0]],[[896,288],[0,0],[0,-1],[0,-1],[1,-1],[0,0],[0,-1],[1,0],[0,-1],[1,0],[0,-1],[1,0],[1,0],[0,-1],[1,0],[1,0],[1,0],[0,0],[1,0],[1,1],[0,0],[1,0],[1,1],[0,0],[1,1],[0,0],[1,1],[0,1],[0,0],[0,1],[0,1],[0,0],[0,1],[0,1],[0,0],[0,1],[-1,1],[0,0],[-1,1],[0,0],[-1,1],[-1,0],[0,0],[-1,1],[-1,0],[-1,0],[0,0],[-1,0],[-1,0],[0,-1],[-1,0],[-1,0],[0,-1],[-1,0],[0,-1],[-1,0],[0,-1],[-1,-1],[0,0],[0,-1],[0,-1],[0,0]]],"transform":{"scale":[1,1],"translate":[0,0]}}
